,Village/Locality name,Officename ( BO/SO/HO),latitude,longitude,BB_lat_1,BB_lat_2,BB_lon_1,BB_lon_2,Pincode,Sub-distname,Districtname,StateName
0,Bangalore North,Vidhana Soudha S.O,12.979119800000001,77.5912997,12.8340125,13.143664900000001,77.4601025,77.7840515,560001,Bangalore North,BANGALORE,KARNATAKA
1,Bangalore South,Bangalore Corporation Building S.O,12.979119800000001,77.5912997,12.8340125,13.143664900000001,77.4601025,77.7840515,560002,Bangalore South,BANGALORE,KARNATAKA
2,Venkatapura,Koramangala I Block S.O,13.1141369,77.7819989,13.0941369,13.134136900000001,77.76199890000001,77.8019989,560034,Bangalore North,BANGALORE,KARNATAKA
3,Ambalipura,Koramangala S.O,13.0698864,77.879654,13.0498864,13.0898864,77.859654,77.899654,560034,Bangalore South,BANGALORE,KARNATAKA
4,Haralur,Koramangala S.O,13.218450899999999,77.75910490000001,13.1984509,13.238450899999998,77.73910490000002,77.77910490000001,560034,Bangalore South,BANGALORE,KARNATAKA
5,Agara,Koramangala S.O,12.8446015,77.48793979999999,12.8246015,12.8646015,77.4679398,77.50793979999999,560034,Bangalore South,BANGALORE,KARNATAKA
6,Chikkakannalli,Carmelram S.O,,,,,,,560035,Bangalore South,BANGALORE,KARNATAKA
7,Hadosiddapura,Carmelram S.O,12.891087400000002,77.70250856703629,12.889293499999999,12.892888699999999,77.7008455,77.7038844,560035,Bangalore South,BANGALORE,KARNATAKA
8,Kaikondahalli,Carmelram S.O,,,,,,,560035,Bangalore South,BANGALORE,KARNATAKA
9,Doddakannalli,Carmelram S.O,,,,,,,560035,Bangalore South,BANGALORE,KARNATAKA
10,Halanayakanahalli,Carmelram S.O,12.901463099999999,77.6883792,12.9014131,12.901513099999999,77.6883292,77.6884292,560035,Bangalore South,BANGALORE,KARNATAKA
11,Chikkanayakanahalli,Carmelram S.O,12.892338,77.69419859999999,12.872338000000001,12.912338,77.6741986,77.71419859999999,560035,Bangalore South,BANGALORE,KARNATAKA
12,Kodathi,Carmelram S.O,12.8965674,77.7201192,12.8965174,12.8966174,77.7200692,77.7201692,560035,Bangalore South,BANGALORE,KARNATAKA
13,Chikkabellandur,Carmelram S.O,,,,,,,560035,Bangalore South,BANGALORE,KARNATAKA
14,Junnasandra,Carmelram S.O,12.905398199999999,77.6844723,12.9016086,12.9107158,77.68346240000001,77.68837370000001,560035,Bangalore South,BANGALORE,KARNATAKA
15,Mulluru,Carmelram S.O,12.904873199999999,77.7251308,12.8848732,12.924873199999999,77.70513079999999,77.7451308,560035,Bangalore South,BANGALORE,KARNATAKA
16,Kithiganur,Krishnarajapuram S.O,,,,,,,560036,Bangalore South,BANGALORE,KARNATAKA
17,Halehalli,Krishnarajapuram S.O,12.739057699999998,77.7513903,12.719057699999999,12.7590577,77.73139029999999,77.7713903,560036,Bangalore South,BANGALORE,KARNATAKA
18,Varanasi,Krishnarajapuram S.O,13.0304962,77.6860657,13.0304462,13.0305462,77.6860157,77.6861157,560036,Bangalore South,BANGALORE,KARNATAKA
19,Maragondanahalli,Krishnarajapuram S.O,13.2035418,77.57607209999999,13.1835418,13.223541800000001,77.5560721,77.59607209999999,560036,Bangalore South,BANGALORE,KARNATAKA
20,Rachenahalli,Arabic College S.O,13.057295300000002,77.62770640000001,13.057245300000002,13.057345300000001,77.6276564,77.6277564,560045,Bangalore South,BANGALORE,KARNATAKA
21,Amani Byrathikhane,Arabic College S.O,,,,,,,560045,Bangalore South,BANGALORE,KARNATAKA
22,Thanisandra,Arabic College S.O,13.054713000000001,77.63392579999999,13.038345699999999,13.077044099999998,77.59785500000001,77.6382498,560045,Bangalore South,BANGALORE,KARNATAKA
23,Adur,Bidrahalli B.O,,,,,,,560049,Bangalore South,BANGALORE,KARNATAKA
24,Gundur,Bidrahalli B.O,13.0868953,77.71418919999999,13.0668953,13.106895300000001,77.6941892,77.7341892,560049,Bangalore South,BANGALORE,KARNATAKA
25,Hancharahalli,Mundur B.O,13.0929065,77.7501562,13.0729065,13.1129065,77.73015620000001,77.7701562,560049,Bangalore South,BANGALORE,KARNATAKA
26,Medihalli,Virgonagar S.O,12.9681562,77.845242,12.9481562,12.988156199999999,77.825242,77.86524200000001,560049,Hosakote,BANGALORE RURAL,KARNATAKA
27,Vanajanahalli,Mundur B.O,,,,,,,560049,Bangalore South,BANGALORE,KARNATAKA
28,Bandapura,Virgonagar S.O,13.0392632,77.74783670000001,13.0192632,13.0592632,77.72783670000001,77.7678367,560049,Bangalore South,BANGALORE,KARNATAKA
29,Bidarahalli,Bidrahalli B.O,13.0605545,77.7156056,13.040554499999999,13.0805545,77.6956056,77.7356056,560049,Bangalore South,BANGALORE,KARNATAKA
30,Honachanahalli,Mundur B.O,13.0190882,77.8547532,12.9990882,13.0390882,77.8347532,77.8747532,560049,Hosakote,BANGALORE RURAL,KARNATAKA
31,Kammasandra,Bidrahalli B.O,13.0345017,77.4391224,13.014501699999999,13.0545017,77.4191224,77.4591224,560049,Bangalore South,BANGALORE,KARNATAKA
32,Kodigehalli,Mundur B.O,13.3352382,77.6378555,13.315238199999998,13.355238199999999,77.6178555,77.65785550000001,560049,Bangalore South,BANGALORE,KARNATAKA
33,Rampura,Bidrahalli B.O,12.8411343,77.32713100000001,12.8211343,12.861134300000002,77.30713100000001,77.347131,560049,Bangalore South,BANGALORE,KARNATAKA
34,Avalahalli,Virgonagar S.O,13.035277699999998,77.7365655,13.015277699999999,13.0552777,77.7165655,77.75656550000001,560049,Bangalore South,BANGALORE,KARNATAKA
35,Kurudusonnenahalli,Virgonagar S.O,,,,,,,560049,Bangalore South,BANGALORE,KARNATAKA
36,Raghuvanahalli,Mundur B.O,12.881115600000001,77.54624240000001,12.8810656,12.881165600000001,77.54619240000001,77.54629240000001,560049,Bangalore South,BANGALORE,KARNATAKA
37,Bommenahalli,Mundur B.O,13.074253599999999,77.7465943,13.0542536,13.0942536,77.7265943,77.7665943,560049,Bangalore South,BANGALORE,KARNATAKA
38,Chikkasandra,Bidrahalli B.O,,,,,,,560049,Bangalore South,BANGALORE,KARNATAKA
39,Huskur,Mundur B.O,12.8607674,77.70710190000001,12.8407674,12.8807674,77.6871019,77.72710190000001,560049,Bangalore South,BANGALORE,KARNATAKA
40,Jothipura,Mundur B.O,,,,,,,560049,Bangalore South,BANGALORE,KARNATAKA
41,Shringaripura,Mundur B.O,,,,,,,560049,Bangalore South,BANGALORE,KARNATAKA
42,Bendiganahalli,Mundur B.O,13.217348199999998,77.8337043,13.197348199999999,13.2373482,77.8137043,77.85370429999999,560049,Bangalore South,BANGALORE,KARNATAKA
43,Byappanahalli,Bidrahalli B.O,13.072125699999999,77.7200164,13.0521257,13.0921257,77.70001640000001,77.74001640000002,560049,Bangalore South,BANGALORE,KARNATAKA
44,Katamnallur,Virgonagar S.O,,,,,,,560049,Bangalore South,BANGALORE,KARNATAKA
45,Marasandra Amanikere,Mundur B.O,,,,,,,560049,Bangalore North,BANGALORE,KARNATAKA
46,Nimbekaipura,Mundur B.O,13.0585572,77.75646479999999,13.038557199999998,13.078557199999999,77.7364648,77.7764648,560049,Bangalore South,BANGALORE,KARNATAKA
47,Vaderahalli,Bidrahalli B.O,12.7374961,77.3013277,12.7174961,12.7574961,77.2813277,77.3213277,560049,Bangalore North,BANGALORE,KARNATAKA
48,Veerenahalli,Virgonagar S.O,,,,,,,560049,Bangalore South,BANGALORE,KARNATAKA
49,Cheemasandra,Virgonagar S.O,13.0585212,77.73448044970971,13.057114599999998,13.059731300000001,77.7327837,77.7359993,560049,Bangalore South,BANGALORE,KARNATAKA
50,Hirandahalli,Bidrahalli B.O,13.046808500000001,77.72278109999999,13.026808500000001,13.0668085,77.7027811,77.7427811,560049,Bangalore South,BANGALORE,KARNATAKA
51,Huvinane,Virgonagar S.O,,,,,,,560049,Bangalore South,BANGALORE,KARNATAKA
52,Kattugollahalli,Mundur B.O,13.095844900000001,77.7353505,13.075844900000002,13.115844899999999,77.7153505,77.7553505,560049,Bangalore South,BANGALORE,KARNATAKA
53,Bidare Agrahara,Virgonagar S.O,13.030921099999999,77.7427748,13.0109211,13.0509211,77.7227748,77.7627748,560049,Bangalore South,BANGALORE,KARNATAKA
54,Konadasapura,Virgonagar S.O,13.044192599999999,77.75664090000001,13.0241926,13.064192599999998,77.73664090000001,77.7766409,560049,Bangalore South,BANGALORE,KARNATAKA
55,Mandur,Mundur B.O,13.0816555,77.7370228,13.061655499999999,13.1016555,77.7170228,77.7570228,560049,Bangalore South,BANGALORE,KARNATAKA
56,Marasandra,Mundur B.O,13.2004544,77.4426473,13.180454399999999,13.2204544,77.4226473,77.4626473,560049,Bangalore North,BANGALORE,KARNATAKA
57,Ullalu Upanagara DBO,Bnagalore Viswavidalaya S.O,,,,,,,560056,Bangalore South,BANGALORE,KARNATAKA
58,Mallathahalli NDBO,Bnagalore Viswavidalaya S.O,,,,,,,560056,Bangalore South,BANGALORE,KARNATAKA
59,Doddabele,Chudenapura B.O,13.223065400000001,77.33768459999999,13.203065400000002,13.2430654,77.31768459999999,77.35768459999998,560060,Bangalore South,BANGALORE,KARNATAKA
60,Hemmigepura,Chudenapura B.O,12.8819289,77.4854975,12.8619289,12.9019289,77.4654975,77.5054975,560060,Bangalore South,BANGALORE,KARNATAKA
61,Kommaghatta - Krishnasagara,Sulikere B.O,,,,,,,560060,Bangalore South,BANGALORE,KARNATAKA
62,M.Krishnasagara,Sulikere B.O,,,,,,,560060,Bangalore South,BANGALORE,KARNATAKA
63,Somapura,Chudenapura B.O,13.225153899999999,77.25828241163249,13.213587799999999,13.236220800000002,77.24464470000001,77.2830969,560060,Bangalore South,BANGALORE,KARNATAKA
64,Varahasandra,Kengeri S.O,,,,,,,560060,Bangalore South,BANGALORE,KARNATAKA
65,Kenchanapura,Sulikere B.O,12.9580986,77.45004820000001,12.938098599999998,12.9780986,77.4300482,77.47004820000001,560060,Bangalore South,BANGALORE,KARNATAKA
66,Lingadheeranahalli,Kengeri S.O,,,,,,,560060,Bangalore South,BANGALORE,KARNATAKA
67,Ramasandra,Sulikere B.O,13.1199827,77.9494105,13.099982699999998,13.1399827,77.9294105,77.9694105,560060,Bangalore South,BANGALORE,KARNATAKA
68,Sulikere,Sulikere B.O,12.9389629,77.4475916,12.9189629,12.9589629,77.4275916,77.46759159999999,560060,Bangalore South,BANGALORE,KARNATAKA
69,Bheemanakuppe- Ramasagara,Sulikere B.O,,,,,,,560060,Bangalore South,BANGALORE,KARNATAKA
70,Sonnenahalli,Sulikere B.O,13.1979489,77.5003487,13.1779489,13.2179489,77.48034870000001,77.52034870000001,560060,Bangalore South,BANGALORE,KARNATAKA
71,Manganahalli,Sulikere B.O,12.9526755,77.48414079999999,12.9526255,12.9527255,77.48409079999999,77.4841908,560060,Bangalore North,BANGALORE,KARNATAKA
72,Kengeri Gollahalli,Chudenapura B.O,12.9199402,77.4833485,12.8975897,12.933363,77.4601025,77.49913659999999,560060,Bangalore South,BANGALORE,KARNATAKA
73,Kommaghatta,Sulikere B.O,12.9099075,77.4506663,12.8899075,12.9299075,77.4306663,77.47066629999999,560060,Bangalore South,BANGALORE,KARNATAKA
74,Thurahalli,Subramanyapura S.O,,,,,,,560061,Bangalore South,BANGALORE,KARNATAKA
75,Badamanavarthekaval,Subramanyapura S.O,,,,,,,560061,Bangalore South,BANGALORE,KARNATAKA
76,Gabbalalu,Subramanyapura S.O,,,,,,,560061,Bangalore South,BANGALORE,KARNATAKA
77,Vasanthapura,Subramanyapura S.O,12.88929715,77.55955229173571,12.875307099999999,12.9034737,77.54757009999999,77.57208359999998,560061,Bangalore South,BANGALORE,KARNATAKA
78,Thirumenahalli,Yelahanka S.O,13.1109329,77.7530531,13.0909329,13.1309329,77.73305309999999,77.7730531,560064,Bangalore North,BANGALORE,KARNATAKA
79,Bellahalli,Yelahanka Satellite Town S.O,13.0997677,77.6427148,13.0797677,13.119767699999999,77.6227148,77.66271479999999,560064,Bangalore North,BANGALORE,KARNATAKA
80,Jarakbandekaval,Yelahanka S.O,,,,,,,560064,Bangalore North,BANGALORE,KARNATAKA
81,Kempanahalli,Attur B.O,13.445496499999999,77.8621331,13.4254965,13.4654965,77.84213309999998,77.88213309999999,560064,Bangalore North,BANGALORE,KARNATAKA
82,Kenchenahalli,Yelahanka S.O,12.935705699999998,77.51822220000001,12.9349859,12.935872900000001,77.5178652,77.51830009999999,560064,Bangalore North,BANGALORE,KARNATAKA
83,Naganahalli,Singanayakanahalli B.O,12.98077,77.36101020000001,12.96077,13.00077,77.34101020000001,77.3810102,560064,Bangalore South,BANGALORE,KARNATAKA
84,Adiganahalli,Rajanakunte B.O,,,,,,,560064,Bangalore North,BANGALORE,KARNATAKA
85,Muddanahalli,Rajanakunte B.O,13.1943024,77.9136431,13.1743024,13.214302400000001,77.89364309999999,77.9336431,560064,Bangalore North,BANGALORE,KARNATAKA
86,Chokkanahalli,Yelahanka S.O,13.113225199999999,77.68734079999999,13.0932252,13.133225199999998,77.66734079999999,77.7073408,560064,Bangalore North,BANGALORE,KARNATAKA
87,Gantiganahalli,Singanayakanahalli B.O,13.3600207,77.6032617,13.3400207,13.3800207,77.58326170000001,77.62326170000001,560064,Bangalore North,BANGALORE,KARNATAKA
88,Kattigenahalli,Yelahanka S.O,13.023667199999998,77.87766059999998,13.003667199999999,13.0436672,77.85766059999999,77.8976606,560064,Bangalore North,BANGALORE,KARNATAKA
89,Krishnasagara,Singanayakanahalli B.O,,,,,,,560064,Bangalore North,BANGALORE,KARNATAKA
90,Madappanahalli,Rajanakunte B.O,12.9228929,77.8116208,12.902892900000001,12.9428929,77.7916208,77.8316208,560064,Bangalore North,BANGALORE,KARNATAKA
91,Nagadasanahalli,Rajanakunte B.O,13.1601353,77.5780542,13.1401353,13.1801353,77.5580542,77.5980542,560064,Bangalore North,BANGALORE,KARNATAKA
92,Rajanukunte,Rajanakunte B.O,13.172956699999999,77.56420779999999,13.172906699999999,13.173006699999998,77.5641578,77.5642578,560064,Bangalore North,BANGALORE,KARNATAKA
93,Ramagondanahalli,Attur B.O,13.119646900000001,77.5586193,13.0996469,13.1396469,77.5386193,77.5786193,560064,Bangalore North,BANGALORE,KARNATAKA
94,Singanayakanahalli,Singanayakanahalli B.O,13.1478621,77.5693207,13.127862099999998,13.167862099999999,77.54932070000001,77.5893207,560064,Bangalore North,BANGALORE,KARNATAKA
95,Singanayakanahalli Amanikere,Yelahanka S.O,,,,,,,560064,Bangalore North,BANGALORE,KARNATAKA
96,Honnenahalli,Rajanakunte B.O,13.209524800000002,77.2417445,13.189524800000003,13.229524800000002,77.2217445,77.26174449999999,560064,Bangalore North,BANGALORE,KARNATAKA
97,Ittagallpura,Rajanakunte B.O,,,,,,,560064,Bangalore North,BANGALORE,KARNATAKA
98,Lakshmisagara,Singanayakanahalli B.O,13.125537,77.9684227,13.105537,13.145537,77.94842270000001,77.9884227,560064,Bangalore North,BANGALORE,KARNATAKA
99,Manchenahalli,Singanayakanahalli B.O,13.0357205,77.3580474,13.0157205,13.0557205,77.33804740000001,77.3780474,560064,Bangalore North,BANGALORE,KARNATAKA
100,Ananthapura,Attur B.O,,,,,,,560064,Bangalore North,BANGALORE,KARNATAKA
101,Harohalli,Singanayakanahalli B.O,13.024441699999999,77.93873070000001,13.0044417,13.044441699999998,77.9187307,77.9587307,560064,Bangalore North,BANGALORE,KARNATAKA
102,Vasudevapura,Yelahanka S.O,,,,,,,560064,Bangalore North,BANGALORE,KARNATAKA
103,Veerasagara,Attur B.O,,,,,,,560064,Bangalore North,BANGALORE,KARNATAKA
104,Nagondahalli,Whitefield S.O,12.918627800000001,77.95438670000001,12.8986278,12.9386278,77.9343867,77.97438670000001,560066,Bangalore South,BANGALORE,KARNATAKA
105,Thubarahalli,Whitefield S.O,12.954787199999998,77.72131540000001,12.934787199999999,12.974787199999998,77.70131540000001,77.7413154,560066,Bangalore South,BANGALORE,KARNATAKA
106,Khanekandaya,Whitefield S.O,,,,,,,560066,Bangalore South,BANGALORE,KARNATAKA
107,Arehalli,Kalkunte B.O,13.2229003,77.9482656,13.2029003,13.2429003,77.92826559999999,77.9682656,560067,Hosakote,BANGALORE RURAL,KARNATAKA
108,Koralur,Naduvathi B.O,12.997322500000001,77.7844457,12.977322500000001,13.0173225,77.76444570000001,77.8044457,560067,Hosakote,BANGALORE RURAL,KARNATAKA
109,Medimallasandra,Medimallasandra B.O,12.9523031,77.830108,12.9323031,12.9723031,77.810108,77.85010799999999,560067,Hosakote,BANGALORE RURAL,KARNATAKA
110,Obalapura,Medimallasandra B.O,13.244355599999999,77.31193640000001,13.224355599999999,13.264355599999998,77.29193640000001,77.3319364,560067,Hosakote,BANGALORE RURAL,KARNATAKA
111,Tharabahalli,Devanagundi B.O,13.236120000000001,77.9210938,13.216120000000002,13.256120000000001,77.9010938,77.94109379999999,560067,Hosakote,BANGALORE RURAL,KARNATAKA
112,Devanagondi Hosahalli,Devanagundi B.O,,,,,,,560067,Hosakote,BANGALORE RURAL,KARNATAKA
113,Muthakadahalli,Medimallasandra B.O,,,,,,,560067,Hosakote,BANGALORE RURAL,KARNATAKA
114,Somalapura,Devanagundi B.O,12.9686041,77.861241,12.948604099999999,12.9886041,77.841241,77.881241,560067,Hosakote,BANGALORE RURAL,KARNATAKA
115,Appajipura,Naduvathi B.O,,,,,,,560067,Hosakote,BANGALORE RURAL,KARNATAKA
116,Handenahalli,Medimallasandra B.O,12.825981500000001,77.76734549999999,12.8059815,12.8459815,77.7473455,77.7873455,560067,Hosakote,BANGALORE RURAL,KARNATAKA
117,Kanekallu,Devanagundi B.O,,,,,,,560067,Hosakote,BANGALORE RURAL,KARNATAKA
118,Lingadeeramallasandra,Devanagundi B.O,,,,,,,560067,Hosakote,BANGALORE RURAL,KARNATAKA
119,Thathnur Plantation,Kalkunte B.O,,,,,,,560067,Hosakote,BANGALORE RURAL,KARNATAKA
120,Devanagondi,Devanagundi B.O,12.9749709,77.8397207,12.954970900000001,12.9949709,77.8197207,77.85972070000001,560067,Hosakote,BANGALORE RURAL,KARNATAKA
121,Hemmandahalli,Samethanahalli B.O,,,,,,,560067,Hosakote,BANGALORE RURAL,KARNATAKA
122,K.Channasandra,Kadugodi S.O,13.040022,77.6796248,13.020022,13.060022,77.6596248,77.6996248,560067,Bangalore South,BANGALORE,KARNATAKA
123,Kodihalli,Naduvathi B.O,12.9288587,77.89863050000001,12.9088587,12.9488587,77.8786305,77.9186305,560067,Hosakote,BANGALORE RURAL,KARNATAKA
124,Naduvathi,Naduvathi B.O,,,,,,,560067,Hosakote,BANGALORE RURAL,KARNATAKA
125,S.Narayanakere,Kalkunte B.O,12.943855000000001,77.858466,12.923855,12.963855,77.838466,77.878466,560067,Hosakote,BANGALORE RURAL,KARNATAKA
126,Thathnur,Kalkunte B.O,,,,,,,560067,Hosakote,BANGALORE RURAL,KARNATAKA
127,Thirumalasettihalli,Samethanahalli B.O,,,,,,,560067,Hosakote,BANGALORE RURAL,KARNATAKA
128,Bhaktharahalli,Naduvathi B.O,13.0185058,77.784368,13.0184558,13.0185558,77.784318,77.784418,560067,Hosakote,BANGALORE RURAL,KARNATAKA
129,Bhodanahosahalli,Samethanahalli B.O,,,,,,,560067,Hosakote,BANGALORE RURAL,KARNATAKA
130,Bylahalli,Medimallasandra B.O,13.1690516,77.680815,13.1490516,13.1890516,77.660815,77.700815,560067,Hosakote,BANGALORE RURAL,KARNATAKA
131,Mattanahalli,Kalkunte B.O,12.871844300000001,77.8298072,12.851844300000002,12.8918443,77.80980720000001,77.8498072,560067,Hosakote,BANGALORE RURAL,KARNATAKA
132,Naganayakanakote,Samethanahalli B.O,,,,,,,560067,Hosakote,BANGALORE RURAL,KARNATAKA
133,Samethanahalli,Samethanahalli B.O,12.979363000000001,77.7907328,12.959363,12.999363,77.7707328,77.8107328,560067,Hosakote,BANGALORE RURAL,KARNATAKA
134,Yedagondahalli,Medimallasandra B.O,,,,,,,560067,Hosakote,BANGALORE RURAL,KARNATAKA
135,Banarahalli,Devanagundi B.O,12.957058900000002,77.86279,12.9370589,12.977058900000001,77.84279000000001,77.88279,560067,Hosakote,BANGALORE RURAL,KARNATAKA
136,Basabathanahalli,Devanagundi B.O,,,,,,,560067,Hosakote,BANGALORE RURAL,KARNATAKA
137,Devalapura,Devanagundi B.O,,,,,,,560067,Hosakote,BANGALORE RURAL,KARNATAKA
138,Doddadunnasandra,Devanagundi B.O,,,,,,,560067,Hosakote,BANGALORE RURAL,KARNATAKA
139,Mallasandra,Naduvathi B.O,13.109199300000002,77.9541312,13.0891993,13.129199300000002,77.93413120000001,77.9741312,560067,Hosakote,BANGALORE RURAL,KARNATAKA
140,Anugondahalli,Medimallasandra B.O,,,,,,,560067,Hosakote,BANGALORE RURAL,KARNATAKA
141,Bisanahalli,Naduvathi B.O,12.993164199999999,77.8227766,12.9731642,13.013164199999999,77.8027766,77.8427766,560067,Hosakote,BANGALORE RURAL,KARNATAKA
142,Deshapande Guttahalli,Kadugodi S.O,,,,,,,560067,Anekal,BANGALORE,KARNATAKA
143,Kadugodi Plantation,Kadugodi S.O,12.9985767,77.76097159999999,12.974267999999999,13.0161065,77.7312293,77.7785383,560067,Bangalore South,BANGALORE,KARNATAKA
144,Kalkunte Agrahara,Kalkunte B.O,12.932417999999998,77.8408056,12.912417999999999,12.952418,77.8208056,77.86080559999999,560067,Hosakote,BANGALORE RURAL,KARNATAKA
145,Kumbena Agrahara,Kadugodi S.O,13.0017965,77.7473882,12.9817965,13.021796499999999,77.7273882,77.7673882,560067,Bangalore South,BANGALORE,KARNATAKA
146,Thiruvaranga,Kalkunte B.O,12.901566599999999,77.82757559999999,12.8815666,12.9215666,77.80757559999999,77.8475756,560067,Hosakote,BANGALORE RURAL,KARNATAKA
147,Muthkur,Medimallasandra B.O,13.1557209,77.5084305,13.1556709,13.1557709,77.5083805,77.5084805,560067,Hosakote,BANGALORE RURAL,KARNATAKA
148,Thindlu,Devanagundi B.O,12.9900077,77.8653418,12.970007699999998,13.0100077,77.8453418,77.88534179999999,560067,Hosakote,BANGALORE RURAL,KARNATAKA
149,Thindlu Plantation,Kalkunte B.O,12.9900077,77.8653418,12.970007699999998,13.0100077,77.8453418,77.88534179999999,560067,Hosakote,BANGALORE RURAL,KARNATAKA
150,Begur,Bommanahalli S.O (Bangalore),12.863388699999998,77.613011205039,12.8340125,12.892767800000001,77.5829439,77.6664661,560068,Bangalore South,BANGALORE,KARNATAKA
151,Bettadasanapura,Bommanahalli S.O (Bangalore),12.847541099999999,77.64970629999999,12.8435866,12.8512016,77.6442662,77.6550975,560068,Bangalore South,BANGALORE,KARNATAKA
152,Kudlu,Bommanahalli S.O (Bangalore),12.8889126,77.65557159999999,12.8689126,12.908912599999999,77.63557159999999,77.67557159999998,560068,Anekal,BANGALORE,KARNATAKA
153,Chandrasekarapura,Bommanahalli S.O (Bangalore),,,,,,,560068,Bangalore South,BANGALORE,KARNATAKA
154,Yelenahalli,Bommanahalli S.O (Bangalore),12.8669074,77.61590190000001,12.8668574,12.8669574,77.61585190000001,77.61595190000001,560068,Bangalore South,BANGALORE,KARNATAKA
155,Mylasandra,Bommanahalli S.O (Bangalore),12.851498300000001,77.62040970000001,12.851448300000001,12.851548300000001,77.62035970000001,77.62045970000001,560068,Bangalore South,BANGALORE,KARNATAKA
156,Singasandra,Singasandra B.O,12.88027485,77.6547537489424,12.86598,12.894697500000001,77.6371799,77.6754505,560068,Anekal,BANGALORE,KARNATAKA
157,Vittasandra,Bommanahalli S.O (Bangalore),12.8533901,77.63834809999999,12.833390099999999,12.8733901,77.61834809999999,77.6583481,560068,Bangalore South,BANGALORE,KARNATAKA
158,Doddabidarakallu,Nagasandra S.O (Bangalore),13.035216900000002,77.4939999,13.0351669,13.035266900000002,77.4939499,77.49404990000001,560073,Bangalore North,BANGALORE,KARNATAKA
159,Sidedahalli,Nagasandra S.O (Bangalore),13.0625424,77.4953754,13.0624924,13.0625924,77.49532540000001,77.4954254,560073,Bangalore North,BANGALORE,KARNATAKA
160,Totadaguddadahalli,Nagasandra S.O (Bangalore),,,,,,,560073,Bangalore North,BANGALORE,KARNATAKA
161,Kariobanahalli,Nagasandra S.O (Bangalore),,,,,,,560073,Bangalore North,BANGALORE,KARNATAKA
162,Chikkellur Venkatapura,Ramohalli B.O,,,,,,,560074,Bangalore South,BANGALORE,KARNATAKA
163,Gerupalya,Kumbalagodu S.O,12.8846483,77.44247490000001,12.8845983,12.8846983,77.4424249,77.44252490000001,560074,Bangalore South,BANGALORE,KARNATAKA
164,Maligondanahalli,Ramohalli B.O,12.915956900000001,77.41458349999999,12.8959569,12.9359569,77.3945835,77.4345835,560074,Bangalore South,BANGALORE,KARNATAKA
165,Chinnakurchi,Kumbalgodu Gollahalli B.O,,,,,,,560074,Bangalore South,BANGALORE,KARNATAKA
166,Kolur,Ramohalli B.O,,,,,,,560074,Bangalore South,BANGALORE,KARNATAKA
167,Kumbalagodu,Kumbalagodu S.O,12.878616699999998,77.44676290000001,12.858616699999999,12.898616699999998,77.42676290000001,77.4667629,560074,Bangalore South,BANGALORE,KARNATAKA
168,Hosaspalya,Kumbalagodu S.O,,,,,,,560074,Bangalore South,BANGALORE,KARNATAKA
169,Kanimidka,Kumbalagodu S.O,,,,,,,560074,Bangalore South,BANGALORE,KARNATAKA
170,Ramayanapalya,Kumbalagodu S.O,,,,,,,560074,Bangalore South,BANGALORE,KARNATAKA
171,Anchepalya,Kumbalagodu S.O,13.0577334,77.4804128,13.0377334,13.0777334,77.4604128,77.5004128,560074,Bangalore South,BANGALORE,KARNATAKA
172,Chikkellur,Ramohalli B.O,,,,,,,560074,Bangalore South,BANGALORE,KARNATAKA
173,Seshagiripura,Ramohalli B.O,,,,,,,560074,Bangalore South,BANGALORE,KARNATAKA
174,Vasanthanahalli,Kumbalgodu Gollahalli B.O,,,,,,,560074,Bangalore South,BANGALORE,KARNATAKA
175,Bheemanakuppe,Ramohalli B.O,12.9040883,77.43835179999999,12.9040383,12.9041383,77.43830179999999,77.4384018,560074,Bangalore South,BANGALORE,KARNATAKA
176,Chikkellur Ramapura,Ramohalli B.O,,,,,,,560074,Bangalore South,BANGALORE,KARNATAKA
177,Karigiripura,Ramohalli B.O,,,,,,,560074,Bangalore South,BANGALORE,KARNATAKA
178,Krishnarajapura,Kumbalgodu Gollahalli B.O,,,,,,,560074,Bangalore South,BANGALORE,KARNATAKA
179,Devagere,Kumbalagodu S.O,12.8571436,77.46557059999999,12.837143600000001,12.8771436,77.44557059999998,77.48557059999999,560074,Bangalore South,BANGALORE,KARNATAKA
180,Gangasandra,Kumbalgodu Gollahalli B.O,13.355399499999999,77.551506,13.3353995,13.3753995,77.53150600000001,77.571506,560074,Bangalore South,BANGALORE,KARNATAKA
181,Hulimavu,Kumbalagodu S.O,12.8773486,77.6028031,12.857348599999998,12.897348599999999,77.58280309999999,77.6228031,560074,Bangalore South,BANGALORE,KARNATAKA
182,Kambipura,Kumbalagodu S.O,13.0558284,77.93870390000001,13.0358284,13.0758284,77.91870390000001,77.95870390000002,560074,Bangalore South,BANGALORE,KARNATAKA
183,Kolur Gururayanapura,Ramohalli B.O,,,,,,,560074,Bangalore South,BANGALORE,KARNATAKA
184,Thagachaguppe,Kumbalagodu S.O,,,,,,,560074,Bangalore South,BANGALORE,KARNATAKA
185,Lakshmipura,Kumbalgodu Gollahalli B.O,12.8306075,77.294852,12.8106075,12.850607499999999,77.274852,77.314852,560074,Bangalore North,BANGALORE,KARNATAKA
186,Seegehalli,Kumbalgodu Gollahalli B.O,13.387351999999998,77.9543375,13.367351999999999,13.407352,77.9343375,77.9743375,560074,Bangalore North,BANGALORE,KARNATAKA
187,Chalaghatta,Kumbalagodu S.O,,,,,,,560074,Bangalore South,BANGALORE,KARNATAKA
188,Gonipura,Kumbalgodu Gollahalli B.O,,,,,,,560074,Bangalore South,BANGALORE,KARNATAKA
189,Kolur Nanjundapura,Ramohalli B.O,,,,,,,560074,Bangalore South,BANGALORE,KARNATAKA
190,Kothnur Narayanapura,Kothanur S.O,,,,,,,560077,Bangalore South,BANGALORE,KARNATAKA
191,Kothnur,Kothanur S.O,12.8742546,77.5837252,12.8542546,12.8942546,77.5637252,77.6037252,560077,Bangalore South,BANGALORE,KARNATAKA
192,Geddalahalli,Kothanur S.O,13.1798508,77.2552288,13.159850800000001,13.1998508,77.23522879999999,77.2752288,560077,Bangalore South,BANGALORE,KARNATAKA
193,Doddagubbi,Doddagubbi B.O,,,,,,,560077,Bangalore South,BANGALORE,KARNATAKA
194,Bovipalya,Basaveshwaranagar S.O,,,,,,,560079,Bangalore North,BANGALORE,KARNATAKA
195,Chandapura,Chandapura S.O,12.8004439,77.7062826,12.8003939,12.8004939,77.70623259999999,77.70633259999998,560081,Bangalore South,BANGALORE,KARNATAKA
196,Kaggalipura,Udaypura S.O,12.801698599999998,77.50824449999999,12.781698599999999,12.8216986,77.4882445,77.5282445,560082,Anekal,BANGALORE,KARNATAKA
197,Sunkadakatte,Bolare B.O,12.995024,77.5065272,12.975024000000001,13.015024,77.4865272,77.5265272,560082,Bangalore South,BANGALORE,KARNATAKA
198,Gandhinagara,Kagalipura B.O,12.7967519,77.5017843,12.7967019,12.7968019,77.5017343,77.5018343,560082,Bangalore South,BANGALORE,KARNATAKA
199,Nowkalpalya,Somanhalli B.O,,,,,,,560082,Bangalore South,BANGALORE,KARNATAKA
200,Rameshnagar,Udaypura S.O,,,,,,,560082,Bangalore South,BANGALORE,KARNATAKA
201,Thattaguppe,Thattekuppe B.O,12.7740662,77.537103775,12.7695,12.778836199999999,77.53324029999999,77.539,560082,Bangalore South,BANGALORE,KARNATAKA
202,Gulakamale,Taralu B.O,,,,,,,560082,Bangalore South,BANGALORE,KARNATAKA
203,Mariapura,Thattekuppe B.O,,,,,,,560082,Bangalore South,BANGALORE,KARNATAKA
204,Ravugodlu colony,Bolare B.O,,,,,,,560082,Bangalore South,BANGALORE,KARNATAKA
205,Thopur,Thattekuppe B.O,,,,,,,560082,Bangalore South,BANGALORE,KARNATAKA
206,Udipalya,Udaypura S.O,,,,,,,560082,Bangalore South,BANGALORE,KARNATAKA
207,Uttari,Kagalipura B.O,,,,,,,560082,Bangalore South,BANGALORE,KARNATAKA
208,Dinnepalya,Kagalipura B.O,,,,,,,560082,Bangalore South,BANGALORE,KARNATAKA
209,O.B.Chudahalli,Udaypura S.O,12.8397599,77.532890805357,12.834081800000002,12.843876199999999,77.5287194,77.53748879999999,560082,Bangalore South,BANGALORE,KARNATAKA
210,Rangappa Estate,Udaypura S.O,,,,,,,560082,Bangalore South,BANGALORE,KARNATAKA
211,Alakabelalu,Taralu B.O,,,,,,,560082,Bangalore South,BANGALORE,KARNATAKA
212,Nelaguli,Bolare B.O,,,,,,,560082,Bangalore South,BANGALORE,KARNATAKA
213,Rachanamadu,Thataguni B.O,,,,,,,560082,Bangalore South,BANGALORE,KARNATAKA
214,Tharalu,Taralu B.O,,,,,,,560082,Bangalore South,BANGALORE,KARNATAKA
215,K. Chudahalli,Somanhalli B.O,12.8397599,77.532890805357,12.834081800000002,12.843876199999999,77.5287194,77.53748879999999,560082,Bangalore South,BANGALORE,KARNATAKA
216,Naganayakanahalli,Somanhalli B.O,,,,,,,560082,Bangalore South,BANGALORE,KARNATAKA
217,Ravugodlu,Bolare B.O,12.7482973,77.5006684,12.728297300000001,12.7682973,77.4806684,77.5206684,560082,Bangalore South,BANGALORE,KARNATAKA
218,Saluhunse,Udaypura S.O,,,,,,,560082,Bangalore South,BANGALORE,KARNATAKA
219,Somanahalli,Somanhalli B.O,12.772462599999999,77.504685,12.7524626,12.792462599999999,77.484685,77.52468499999999,560082,Bangalore South,BANGALORE,KARNATAKA
220,Thittahalli,Bolare B.O,,,,,,,560082,Bangalore South,BANGALORE,KARNATAKA
221,Kanthayyanapalya,Kagalipura B.O,,,,,,,560082,Bangalore South,BANGALORE,KARNATAKA
222,Nettigere,Bolare B.O,12.759055900000002,77.4952108,12.7390559,12.779055900000001,77.4752108,77.5152108,560082,Bangalore South,BANGALORE,KARNATAKA
223,Bujangadasanakere,Sakalavara B.O,,,,,,,560083,Anekal,BANGALORE,KARNATAKA
224,Hullahalli,Sakalavara B.O,12.8267311,77.6170537,12.8067311,12.8467311,77.5970537,77.6370537,560083,Anekal,BANGALORE,KARNATAKA
225,Ragihalli,Ragihalli B.O,12.738642599999999,77.5745803,12.718642599999999,12.7586426,77.5545803,77.59458029999999,560083,Anekal,BANGALORE,KARNATAKA
226,Shivanahalli,Ragihalli B.O,12.9283964,77.4907404,12.9283464,12.9284464,77.4906904,77.49079040000001,560083,Anekal,BANGALORE,KARNATAKA
227,Kalkere,Kalkere B.O,12.8328089,77.5906929,12.8128089,12.852808900000001,77.5706929,77.6106929,560083,Anekal,BANGALORE,KARNATAKA
228,Sakalawara,Sakalavara B.O,,,,,,,560083,Anekal,BANGALORE,KARNATAKA
229,Ramnaikanahalli,Ragihalli B.O,,,,,,,560083,Anekal,BANGALORE,KARNATAKA
230,Hullukasavanahalli,Sakalavara B.O,,,,,,,560083,Anekal,BANGALORE,KARNATAKA
231,Janthagondanahalli,Muthusandra B.O,,,,,,,560087,Anekal,BANGALORE,KARNATAKA
232,Ajjagondahalli,Muthusandra B.O,,,,,,,560087,Hosakote,BANGALORE RURAL,KARNATAKA
233,Halasahalli,Gunjur B.O,12.924052,77.76264590000001,12.904052,12.944052000000001,77.7426459,77.7826459,560087,Hosakote,BANGALORE RURAL,KARNATAKA
234,Heggondahalli,Gunjur B.O,12.905543199999999,77.7471953,12.885543199999999,12.925543199999998,77.72719529999999,77.7671953,560087,Anekal,BANGALORE,KARNATAKA
235,Sorahunise,Vartur S.O,,,,,,,560087,Bangalore South,BANGALORE,KARNATAKA
236,Nekkundi Dommasandra,Muthusandra B.O,12.927462,77.7761449,12.907461999999999,12.947462,77.7561449,77.7961449,560087,Anekal,BANGALORE,KARNATAKA
237,Varthur,Vartur S.O,12.940615199999998,77.7469937,12.920615199999999,12.9606152,77.72699370000001,77.7669937,560087,Bangalore South,BANGALORE,KARNATAKA
238,Varthur Narasimhapura,Vartur S.O,,,,,,,560087,Bangalore South,BANGALORE,KARNATAKA
239,Dommasandra,Muthusandra B.O,12.877709800000002,77.75347690000001,12.857709800000002,12.897709800000001,77.73347690000001,77.7734769,560087,Bangalore South,BANGALORE,KARNATAKA
240,Gunjur,Gunjur B.O,13.427934500000001,77.5131493,13.4079345,13.4479345,77.4931493,77.5331493,560087,Bangalore South,BANGALORE,KARNATAKA
241,Hosahalli,Gunjur B.O,13.350099300000002,77.7429078,13.330099300000002,13.370099300000001,77.7229078,77.7629078,560087,Bangalore South,BANGALORE,KARNATAKA
242,Kotur,Muthusandra B.O,12.9451546,77.7828792,12.9251546,12.9651546,77.7628792,77.8028792,560087,Hosakote,BANGALORE RURAL,KARNATAKA
243,Valepura,Vartur S.O,12.956224800000001,77.766079,12.936224800000002,12.9762248,77.74607900000001,77.786079,560087,Bangalore South,BANGALORE,KARNATAKA
244,Chikkanekkundi,Muthusandra B.O,,,,,,,560087,Anekal,BANGALORE,KARNATAKA
245,Kacharakanahalli,Muthusandra B.O,12.9957647,77.81456800000001,12.9757647,13.0157647,77.794568,77.834568,560087,Hosakote,BANGALORE RURAL,KARNATAKA
246,Muthasandra,Muthusandra B.O,,,,,,,560087,Hosakote,BANGALORE RURAL,KARNATAKA
247,Thimmadahalli,Muthusandra B.O,,,,,,,560087,Hosakote,BANGALORE RURAL,KARNATAKA
248,Bellikere,Muthusandra B.O,12.930451800000002,77.7969984,12.9104518,12.950451800000002,77.77699840000001,77.8169984,560087,Hosakote,BANGALORE RURAL,KARNATAKA
249,Halasahalli Thippasandra,Gunjur B.O,12.9182432,77.7543508,12.9181932,12.918293199999999,77.7543008,77.75440079999998,560087,Anekal,BANGALORE,KARNATAKA
250,Kachamaranahalli,Gunjur B.O,12.9123295,77.7327804,12.8923295,12.9323295,77.7127804,77.7527804,560087,Bangalore South,BANGALORE,KARNATAKA
251,Hesaraghatta,Hessarghatta S.O,13.1393984,77.4783628,13.1193984,13.159398399999999,77.4583628,77.49836280000001,560088,Bangalore North,BANGALORE,KARNATAKA
252,Bilijaji,Hessarghatta S.O,,,,,,,560088,Bangalore North,BANGALORE,KARNATAKA
253,Guddadahalli,Hessarghatta S.O,12.833749099999999,77.345075,12.813749099999999,12.8537491,77.325075,77.365075,560088,Bangalore North,BANGALORE,KARNATAKA
254,Dasenahalli,Hessarghatta S.O,,,,,,,560088,Bangalore North,BANGALORE,KARNATAKA
255,Channasandra,Hessarghatta Lake S.O,13.252003,77.963371,13.232003,13.272003,77.943371,77.98337099999999,560089,Bangalore North,BANGALORE,KARNATAKA
256,Kakolu,Kakolu B.O,13.1875001,77.5198462,13.167500099999998,13.207500099999999,77.49984620000001,77.5398462,560089,Bangalore North,BANGALORE,KARNATAKA
257,Kalathammanahalli,Hessarghatta Lake S.O,13.1037512,77.51649470000001,13.103701199999998,13.1038012,77.51644470000001,77.51654470000001,560089,Bangalore North,BANGALORE,KARNATAKA
258,Kamakshipura,Hessarghatta Lake S.O,,,,,,,560089,Bangalore North,BANGALORE,KARNATAKA
259,Muthugada Halli,Shivakote B.O,,,,,,,560089,Bangalore North,BANGALORE,KARNATAKA
260,Seethakempanahalli,Hessarghatta Lake S.O,,,,,,,560089,Bangalore North,BANGALORE,KARNATAKA
261,Byatha,Byatha B.O,,,,,,,560089,Bangalore North,BANGALORE,KARNATAKA
262,Guniagrahara,Shivakote B.O,13.093558900000001,77.5279746,13.093508900000002,13.093608900000001,77.52792459999999,77.5280246,560089,Bangalore North,BANGALORE,KARNATAKA
263,Koluvarayanahalli,Kakolu B.O,13.165429300000001,77.5224075,13.1454293,13.185429300000001,77.50240749999999,77.5424075,560089,Bangalore North,BANGALORE,KARNATAKA
264,Kondashetti Halli,Shivakote B.O,,,,,,,560089,Bangalore North,BANGALORE,KARNATAKA
265,Lingarajapura,Hessarghatta Lake S.O,13.00958575,77.6267549493119,13.0045557,13.0144772,77.6206295,77.63255059999999,560089,Bangalore North,BANGALORE,KARNATAKA
266,Mavallipura,Shivakote B.O,13.127704999999999,77.5290402,13.127654999999999,13.127754999999999,77.5289902,77.5290902,560089,Bangalore North,BANGALORE,KARNATAKA
267,Mylappanahalli,Shivakote B.O,13.137046799999998,77.5352283,13.136996799999999,13.1370968,77.5351783,77.53527829999999,560089,Bangalore North,BANGALORE,KARNATAKA
268,Seeresandra,Hessarghatta Lake S.O,,,,,,,560089,Bangalore North,BANGALORE,KARNATAKA
269,Thammarasanahalli,Hessarghatta Lake S.O,13.1260639,77.4969136,13.1060639,13.1460639,77.47691359999999,77.5169136,560089,Bangalore North,BANGALORE,KARNATAKA
270,Kalenahalli,Shivakote B.O,13.1475434,77.51172059999999,13.1275434,13.167543400000001,77.4917206,77.53172059999999,560089,Bangalore North,BANGALORE,KARNATAKA
271,Linganahalli,Kakolu B.O,13.3198946,77.6173239,13.2998946,13.3398946,77.5973239,77.63732390000001,560089,Bangalore North,BANGALORE,KARNATAKA
272,Madhugirihalli,Shivakote B.O,13.1279864,77.50742790000001,13.1079864,13.1479864,77.48742790000001,77.5274279,560089,Bangalore North,BANGALORE,KARNATAKA
273,Muthagada Halli,Hessarghatta Lake S.O,,,,,,,560089,Bangalore North,BANGALORE,KARNATAKA
274,Mathkur,Kakolu B.O,,,,,,,560089,Bangalore North,BANGALORE,KARNATAKA
275,Dibburu,Kakolu B.O,13.167945699999999,77.5289978,13.1479457,13.1879457,77.5089978,77.5489978,560089,Bangalore North,BANGALORE,KARNATAKA
276,Shivakote,Hessarghatta Lake S.O,13.1345489,77.5134137,13.1145489,13.1545489,77.4934137,77.5334137,560089,Bangalore North,BANGALORE,KARNATAKA
277,Ivar Kandapura,Hessarghatta Lake S.O,,,,,,,560089,Bangalore North,BANGALORE,KARNATAKA
278,Thirumalapura,Hessarghatta Lake S.O,13.1253053,77.4835502,13.125255300000001,13.1253553,77.4835002,77.4836002,560089,Bangalore North,BANGALORE,KARNATAKA
279,Bylakere,Shivakote B.O,,,,,,,560089,Bangalore North,BANGALORE,KARNATAKA
280,Hesaraghatta Grass Farm,Hessarghatta Lake S.O,,,,,,,560089,Bangalore North,BANGALORE,KARNATAKA
281,Kodagi Thirumalapura,Hessarghatta Lake S.O,,,,,,,560089,Bangalore North,BANGALORE,KARNATAKA
282,Hurali Chikkanahalli,Chikkabanavara S.O,13.115529800000001,77.4837382,13.095529800000001,13.1355298,77.4637382,77.5037382,560090,Bangalore North,BANGALORE,KARNATAKA
283,Kumbarahalli,Chikkabanavara S.O,13.1030959,77.49165649999999,13.0830959,13.123095900000001,77.4716565,77.5116565,560090,Bangalore North,BANGALORE,KARNATAKA
284,Somashetti Halli,Chikkabanavara S.O,,,,,,,560090,Bangalore North,BANGALORE,KARNATAKA
285,Chikkabanavara,Chikkabanavara S.O,13.083115,77.50417829999999,13.0815415,13.086138499999999,77.50277879999999,77.50593029999999,560090,Bangalore North,BANGALORE,KARNATAKA
286,Myadarahalli,Chikkabanavara S.O,,,,,,,560090,Bangalore North,BANGALORE,KARNATAKA
287,Thammenahalli,Chikkabanavara S.O,,,,,,,560090,Bangalore North,BANGALORE,KARNATAKA
288,Kasagattapura,Silvepura B.O,,,,,,,560090,Bangalore North,BANGALORE,KARNATAKA
289,Kempapura,Chikkabanavara S.O,13.1311691,77.8020446,13.1111691,13.151169099999999,77.7820446,77.8220446,560090,Bangalore North,BANGALORE,KARNATAKA
290,Tharabanahalli,Chikkabanavara S.O,13.1024779,77.4804347,13.0824779,13.122477900000002,77.46043470000001,77.50043470000001,560090,Bangalore North,BANGALORE,KARNATAKA
291,Soladevanahalli,Chikkabanavara S.O,13.0071985,77.3501716,12.9871985,13.0271985,77.33017159999999,77.37017159999999,560090,Bangalore North,BANGALORE,KARNATAKA
292,Abbigere,Chikkabanavara S.O,13.0742739,77.52886529999999,13.0542739,13.094273900000001,77.5088653,77.54886529999999,560090,Bangalore North,BANGALORE,KARNATAKA
293,Guddahalli,Chikkabanavara S.O,12.9322392,77.2635627,12.9122392,12.9522392,77.2435627,77.2835627,560090,Bangalore North,BANGALORE,KARNATAKA
294,Sasiveghatta,Chikkabanavara S.O,,,,,,,560090,Bangalore North,BANGALORE,KARNATAKA
295,Ganigarahalli,Chikkabanavara S.O,13.0890496,77.51098950000001,13.0690496,13.109049599999999,77.4909895,77.5309895,560090,Bangalore North,BANGALORE,KARNATAKA
296,Kannahalli,Kodigehalli B.O,,,,,,,560091,Bangalore North,BANGALORE,KARNATAKA
297,Lingadeeranahalli,Viswaneedam S.O,,,,,,,560091,Bangalore North,BANGALORE,KARNATAKA
298,Machohalli,Viswaneedam S.O,13.0065559,77.45206429999999,12.9865559,13.0265559,77.4320643,77.47206429999999,560091,Bangalore North,BANGALORE,KARNATAKA
299,Handrahalli,Viswaneedam S.O,13.120944,77.7505854,13.100944,13.140944000000001,77.73058540000001,77.7705854,560091,Bangalore North,BANGALORE,KARNATAKA
300,Gidadakonenahalli,Viswaneedam S.O,12.971532400000001,77.4878382,12.971482400000001,12.9715824,77.4877882,77.4878882,560091,Bangalore North,BANGALORE,KARNATAKA
301,Medi Agrahara,Vidyaranyapura S.O,,,,,,,560097,Bangalore North,BANGALORE,KARNATAKA
302,Kenchanahalli NDBO,Rajarajeshwarinagar S.O,,,,,,,560098,Bangalore South,BANGALORE,KARNATAKA
303,Ali Bommasandra,Muthanallur B.O,,,,,,,560099,Anekal,BANGALORE,KARNATAKA
304,Singena Agrahara,Huskur B.O,12.838352699999998,77.71531209999999,12.818352699999998,12.8583527,77.6953121,77.73531209999999,560099,Anekal,BANGALORE,KARNATAKA
305,Adigondanahalli,Muthanallur B.O,12.8141478,77.75189920000001,12.794147800000001,12.8341478,77.73189920000002,77.77189920000001,560099,Anekal,BANGALORE,KARNATAKA
306,Chintalmadivala,Huskur B.O,,,,,,,560099,Anekal,BANGALORE,KARNATAKA
307,Chokkasandra,Huskur B.O,13.187970800000002,77.9010899,13.1679708,13.207970800000002,77.8810899,77.92108990000001,560099,Anekal,BANGALORE,KARNATAKA
308,Gopasandra,Muthanallur B.O,13.2337188,77.826673,13.213718799999999,13.2537188,77.806673,77.846673,560099,Anekal,BANGALORE,KARNATAKA
309,Gulimangala,Huskur B.O,,,,,,,560099,Anekal,BANGALORE,KARNATAKA
310,Muthanallur,Muthanallur B.O,,,,,,,560099,Anekal,BANGALORE,KARNATAKA
311,Muthanallur Amanikere,Bommasandra Industrial Estate S.O,,,,,,,560099,Anekal,BANGALORE,KARNATAKA
312,Bhovi Palya (Shanthi Pur),Huskur B.O,,,,,,,560099,Anekal,BANGALORE,KARNATAKA
313,Chikkanagamangala,Huskur B.O,,,,,,,560099,Anekal,BANGALORE,KARNATAKA
314,Kittaganahalli,Bommasandra Industrial Estate S.O,12.8020888,77.69333420000001,12.7820888,12.822088800000001,77.6733342,77.7133342,560099,Anekal,BANGALORE,KARNATAKA
315,Narayanaghatta,Muthanallur B.O,12.8364852,77.72600229999999,12.8164852,12.8564852,77.7060023,77.74600229999999,560099,Anekal,BANGALORE,KARNATAKA
316,Chikkathimmasandra,Muthanallur B.O,,,,,,,560099,Anekal,BANGALORE,KARNATAKA
317,Gottamaranahalli,Huskur B.O,,,,,,,560099,Anekal,BANGALORE,KARNATAKA
318,Rayasandra,Huskur B.O,13.2197274,77.72644559999999,13.1997274,13.239727400000001,77.7064456,77.74644559999999,560099,Anekal,BANGALORE,KARNATAKA
319,Thirupalya,Bommasandra Industrial Estate S.O,12.8172771,77.66947059999998,12.816925999999999,12.817674900000002,77.668465,77.67065240000001,560099,Anekal,BANGALORE,KARNATAKA
320,Choodasandra,Huskur B.O,12.8929726,77.6787428,12.8883954,12.895717999999999,77.6729696,77.6814041,560099,Anekal,BANGALORE,KARNATAKA
321,Gattahalli,Huskur B.O,,,,,,,560099,Anekal,BANGALORE,KARNATAKA
322,Ramasagara,Muthanallur B.O,12.8203279,77.7186392,12.800327900000001,12.8403279,77.6986392,77.7386392,560099,Anekal,BANGALORE,KARNATAKA
323,Parappana Agrahara,Electronics City S.O,12.8814541,77.6674463,12.8814041,12.881504099999999,77.6673963,77.6674963,560100,Bangalore South,BANGALORE,KARNATAKA
324,Naganathapura,Electronics City S.O,,,,,,,560100,Bangalore South,BANGALORE,KARNATAKA
325,Veerasandra,Electronics City S.O,12.8415204,77.6800540996325,12.837885,12.845510800000001,77.6765056,77.68602320000001,560100,Anekal,BANGALORE,KARNATAKA
326,Konappana Agrahara,Electronics City S.O,12.8528618,77.66816899999999,12.8528118,12.852911800000001,77.66811899999999,77.668219,560100,Bangalore South,BANGALORE,KARNATAKA
327,Pillaganahalli,Electronics City S.O,,,,,,,560100,Bangalore South,BANGALORE,KARNATAKA
328,Doddanagamangala,Electronics City S.O,12.8621626,77.6750136,12.8621126,12.8622126,77.6749636,77.67506359999999,560100,Bangalore South,BANGALORE,KARNATAKA
329,Beratena Agrahara,Electronics City S.O,12.8661456,77.6585897,12.8660956,12.8661956,77.6585397,77.6586397,560100,Bangalore South,BANGALORE,KARNATAKA
330,Doddathoguru,Electronics City S.O,12.8529125,77.6556155,12.8528625,12.8529625,77.65556550000001,77.6556655,560100,Bangalore South,BANGALORE,KARNATAKA
331,Basapura,Electronics City S.O,12.8656409,77.65154140000001,12.862556300000001,12.8696514,77.64855759999999,77.65333840000001,560100,Bangalore South,BANGALORE,KARNATAKA
332,Devara Beesana Halli,Bellandur S.O,,,,,,,560103,Bangalore South,BANGALORE,KARNATAKA
333,Kariyammana Agrahara,Bellandur S.O,12.9380248,77.6880886,12.937974800000001,12.9380748,77.6880386,77.68813859999999,560103,Bangalore South,BANGALORE,KARNATAKA
334,Bhoganahalli,Panathur B.O,,,,,,,560103,Bangalore South,BANGALORE,KARNATAKA
335,Panathur,Panathur B.O,12.9351457,77.7047541,12.9151457,12.9551457,77.68475409999999,77.7247541,560103,Bangalore South,BANGALORE,KARNATAKA
336,Kadabeesanahalli,Panathur B.O,,,,,,,560103,Bangalore South,BANGALORE,KARNATAKA
337,Kasavanahalli,Bellandur S.O,13.2414761,77.5675665,13.2214761,13.2614761,77.5475665,77.58756650000001,560103,Bangalore South,BANGALORE,KARNATAKA
338,Balagere,Panathur B.O,12.937724300000001,77.7280705,12.9177243,12.9577243,77.70807049999999,77.7480705,560103,Bangalore South,BANGALORE,KARNATAKA
339,Bellandur,Bellandur S.O,12.936120800000001,77.6666171141339,12.9269087,12.945801600000001,77.64273390000001,77.6802375,560103,Bangalore South,BANGALORE,KARNATAKA
340,Bellandur Amanikere,Bellandur S.O,,,,,,,560103,Bangalore South,BANGALORE,KARNATAKA
341,Bande Nalla Sandra,Jigani S.O,,,,,,,560105,Anekal,BANGALORE,KARNATAKA
342,Hinnakki,Hennagara B.O,,,,,,,560105,Anekal,BANGALORE,KARNATAKA
343,Kalbalu,Jigani S.O,,,,,,,560105,Anekal,BANGALORE,KARNATAKA
344,Mahanthalingapura,Kallubalu B.O,,,,,,,560105,Anekal,BANGALORE,KARNATAKA
345,Masthena Halli,Jigani S.O,,,,,,,560105,Anekal,BANGALORE,KARNATAKA
346,Nanjapura,Hulimangala B.O,12.809234199999999,77.6403353,12.7892342,12.829234199999998,77.6203353,77.6603353,560105,Anekal,BANGALORE,KARNATAKA
347,S.Bingipura,Hulimangala B.O,12.83551175,77.62657146958341,12.833702,12.8373894,77.624985,77.6290781,560105,Anekal,BANGALORE,KARNATAKA
348,Vabasandra,Jigani S.O,13.122145499999998,77.7797076,13.1021455,13.142145499999998,77.75970759999998,77.79970759999999,560105,Anekal,BANGALORE,KARNATAKA
349,Hulimangala,Hulimangala B.O,12.8188956,77.6384041,12.7988956,12.838895599999999,77.61840409999999,77.6584041,560105,Anekal,BANGALORE,KARNATAKA
350,Suragajakkanahalli,Jigani S.O,12.739776699999998,77.6689543,12.739726699999999,12.7398267,77.6689043,77.6690043,560105,Anekal,BANGALORE,KARNATAKA
351,Bukkasagara,Kallubalu B.O,12.7798042,77.62003709999999,12.759804199999998,12.799804199999999,77.6000371,77.64003709999999,560105,Anekal,BANGALORE,KARNATAKA
352,Kyalasanahalli,Jigani S.O,13.0564575,77.6591321,13.0364575,13.0764575,77.6391321,77.6791321,560105,Anekal,BANGALORE,KARNATAKA
353,Podu,Hulimangala B.O,,,,,,,560105,Anekal,BANGALORE,KARNATAKA
354,Vaderamanchanahalli,Kallubalu B.O,,,,,,,560105,Anekal,BANGALORE,KARNATAKA
355,Yarandahalli,Jigani S.O,12.8087698,77.6673579,12.7887698,12.8287698,77.6473579,77.68735790000001,560105,Anekal,BANGALORE,KARNATAKA
356,Dyavasandra,Jigani S.O,13.201259099999998,77.8407921,13.181259099999998,13.2212591,77.82079209999999,77.8607921,560105,Anekal,BANGALORE,KARNATAKA
357,Giddenahalli,Kallubalu B.O,12.993142599999999,77.41877020000001,12.9731426,13.013142599999998,77.3987702,77.43877020000001,560105,Anekal,BANGALORE,KARNATAKA
358,Kachanaikanahalli,Hennagara B.O,,,,,,,560105,Anekal,BANGALORE,KARNATAKA
359,Koppa,Hulimangala B.O,12.805378999999999,77.62741770000001,12.785378999999999,12.825379,77.6074177,77.6474177,560105,Anekal,BANGALORE,KARNATAKA
360,Haragadde,Jigani S.O,12.763736900000001,77.655377,12.7437369,12.783736900000001,77.635377,77.675377,560105,Anekal,BANGALORE,KARNATAKA
361,Mada Patna,Jigani S.O,,,,,,,560105,Anekal,BANGALORE,KARNATAKA
362,Seethanaikana Halli,Jigani S.O,,,,,,,560105,Anekal,BANGALORE,KARNATAKA
363,Hennagara,Hennagara B.O,12.7883084,77.6733345,12.7683084,12.8083084,77.6533345,77.69333449999999,560105,Anekal,BANGALORE,KARNATAKA
364,Konasandra,Kallubalu B.O,12.8897814,77.48568709999999,12.8897314,12.8898314,77.48563709999999,77.4857371,560105,Anekal,BANGALORE,KARNATAKA
365,Manchanahalli,Jigani S.O,12.7662516,77.752579,12.7462516,12.7862516,77.732579,77.77257900000001,560105,Anekal,BANGALORE,KARNATAKA
366,Maragondahalli,Hulimangala B.O,,,,,,,560105,Anekal,BANGALORE,KARNATAKA
367,Rajapura,Hennagara B.O,12.776470699999999,77.6739438,12.7564707,12.796470699999999,77.6539438,77.6939438,560105,Anekal,BANGALORE,KARNATAKA
368,J.Bingipura,Jigani S.O,,,,,,,560105,Anekal,BANGALORE,KARNATAKA
369,Hennagara Amanikere,Jigani S.O,,,,,,,560105,Anekal,BANGALORE,KARNATAKA
370,Kumbaranahalli,Jigani S.O,,,,,,,560105,Anekal,BANGALORE,KARNATAKA
371,Lingapura,Jigani S.O,13.022563900000002,77.95555590000001,13.0025639,13.042563900000001,77.9355559,77.9755559,560105,Anekal,BANGALORE,KARNATAKA
372,Sriramapura,Jigani S.O,12.990987400000002,77.56380920000001,12.9709874,13.010987400000001,77.54380920000001,77.5838092,560105,Anekal,BANGALORE,KARNATAKA
373,Ganapathinagara,Achitnagar S.O,,,,,,,560107,Bangalore North,BANGALORE,KARNATAKA
374,Thammenahalli palya,Achitnagar S.O,,,,,,,560107,Bangalore North,BANGALORE,KARNATAKA
375,Bairaveshwarangara,Achitnagar S.O,,,,,,,560107,Bangalore North,BANGALORE,KARNATAKA
376,Shanthinagara,Achitnagar S.O,12.879475099999999,77.346999,12.879425099999999,12.879525099999999,77.346949,77.347049,560107,Bangalore North,BANGALORE,KARNATAKA
377,Achitnagar,Achitnagar S.O,,,,,,,560107,Nelamangala,BANGALORE RURAL,KARNATAKA
378,Jnanajyothinagara,Achitnagar S.O,,,,,,,560107,Bangalore North,BANGALORE,KARNATAKA
379,Sasuveghatta,Achitnagar S.O,,,,,,,560107,Bangalore North,BANGALORE,KARNATAKA
380,Veerashettihalli,Achitnagar S.O,,,,,,,560107,Bangalore North,BANGALORE,KARNATAKA
381,Ajjegowdanapalya,Achitnagar S.O,,,,,,,560107,Bangalore North,BANGALORE,KARNATAKA
382,Harinagar,Anjanapura S.O,,,,,,,560108,Bangalore South,BANGALORE,KARNATAKA
383,Amrutanagar,Anjanapura S.O,,,,,,,560108,Bangalore South,BANGALORE,KARNATAKA
384,Anjanapura,Anjanapura S.O,12.8580811,77.5580713,12.839118899999999,12.8855649,77.54491490000001,77.58204429999999,560108,Bangalore South,BANGALORE,KARNATAKA
385,Gollahalli,Anjanapura S.O,13.2591462,77.5057245,13.2391462,13.2791462,77.4857245,77.5257245,560108,Bangalore South,BANGALORE,KARNATAKA
386,Kulumepalya,Anjanapura S.O,,,,,,,560108,Bangalore South,BANGALORE,KARNATAKA
387,Tulsipura,Anjanapura S.O,,,,,,,560108,Bangalore South,BANGALORE,KARNATAKA
388,Thalaghattapura,Thalaghattapura S.O,12.869816900000002,77.5356688,12.8697669,12.869866900000002,77.5356188,77.5357188,560109,Bangalore South,BANGALORE,KARNATAKA
389,ULLAL UPANAGAR,Ullalu Upanagar S.O,,,,,,,560110,Bangalore South,BANGALORE,KARNATAKA
390,Bangalore International Airport,Bangalore International Airport S.O,13.1980958,77.680357,13.1979229,13.198279199999998,77.6802818,77.680357,560300,Bangalore North,BANGALORE,KARNATAKA
391,Mayasandra,Mayasandra B.O,13.3095936,77.6600805,13.289593599999998,13.329593599999999,77.64008050000001,77.6800805,561101,Anekal,BANGALORE,KARNATAKA
392,Ramanahalli,Sirigiripura B.O,12.7412519,77.40095079999999,12.7212519,12.7612519,77.3809508,77.42095079999999,561101,Nelamangala,BANGALORE RURAL,KARNATAKA
393,Gavipalya,Ajjanahalli B.O,,,,,,,561201,Bangalore North,BANGALORE,KARNATAKA
394,Thimmasandra,Thimmasandra B.O,13.123887900000001,77.7733157,13.123837900000002,13.123937900000001,77.7732657,77.7733657,561201,Hosakote,BANGALORE RURAL,KARNATAKA
395,Bommahalli,Hanabe B.O,,,,,,,561203,Dod Ballapur,BANGALORE RURAL,KARNATAKA
396,Bommanahalli,Hanabe B.O,13.2356503,77.7594545,13.2156503,13.2556503,77.73945450000001,77.7794545,561203,Dod Ballapur,BANGALORE RURAL,KARNATAKA
397,Doddavadagere,Kannamangala B.O,13.2124712,77.4063564,13.1924712,13.232471199999999,77.3863564,77.4263564,561203,Dod Ballapur,BANGALORE RURAL,KARNATAKA
398,Gangadharapura,Dodballapura S.O,,,,,,,561203,Dod Ballapur,BANGALORE RURAL,KARNATAKA
399,Hosakote,Gundamgere B.O,13.4599411,77.2148778,13.439941099999999,13.4799411,77.19487779999999,77.23487779999999,561203,Dod Ballapur,BANGALORE RURAL,KARNATAKA
400,K.G. Sastry Palya,Kanasavadi B.O,,,,,,,561203,Dod Ballapur,BANGALORE RURAL,KARNATAKA
401,Kakkehalli,Kodigehalli B.O,13.2152761,77.52840490000001,13.1952761,13.2352761,77.50840490000002,77.54840490000001,561203,Dod Ballapur,BANGALORE RURAL,KARNATAKA
402,Kamalur,Antharahalli B.O,,,,,,,561203,Dod Ballapur,BANGALORE RURAL,KARNATAKA
403,Kanchiganala,Rajaghatta B.O,13.338823199999998,77.5885911,13.318823199999999,13.3588232,77.56859109999999,77.6085911,561203,Dod Ballapur,BANGALORE RURAL,KARNATAKA
404,Kannamangala,Kannamangala B.O,13.3297518,77.932886,13.3097518,13.349751800000002,77.912886,77.95288599999999,561203,Dod Ballapur,BANGALORE RURAL,KARNATAKA
405,Nagasandra,Kodigehalli B.O,13.047949699999998,77.5001349,13.0429497,13.0529497,77.49513490000001,77.5051349,561203,Dod Ballapur,BANGALORE RURAL,KARNATAKA
406,Nellukunte,Antharahalli B.O,,,,,,,561203,Bangalore North,BANGALORE,KARNATAKA
407,Neralaghatta,Hanabe B.O,13.3155603,77.4813983,13.2955603,13.335560300000001,77.4613983,77.5013983,561203,Dod Ballapur,BANGALORE RURAL,KARNATAKA
408,Palanjogihalli,Mallathahalli B.O,,,,,,,561203,Dod Ballapur,BANGALORE RURAL,KARNATAKA
409,Dasagondanahalli,Rajaghatta B.O,,,,,,,561203,Dod Ballapur,BANGALORE RURAL,KARNATAKA
410,Gundumgere,Gundamgere B.O,,,,,,,561203,Dod Ballapur,BANGALORE RURAL,KARNATAKA
411,Hasanghatta,Mallathahalli B.O,,,,,,,561203,Dod Ballapur,BANGALORE RURAL,KARNATAKA
412,Jakkasandra,Arallumallige B.O,13.089284699999999,77.96639420000001,13.069284699999999,13.109284699999998,77.9463942,77.9863942,561203,Dod Ballapur,BANGALORE RURAL,KARNATAKA
413,Kesthur,Kodigehalli B.O,,,,,,,561203,Dod Ballapur,BANGALORE RURAL,KARNATAKA
414,Kuntanahalli,Arallumallige B.O,13.280292300000001,77.4872723,13.260292300000001,13.3002923,77.4672723,77.5072723,561203,Dod Ballapur,BANGALORE RURAL,KARNATAKA
415,Lagumenahalli,Sri Subramanyaghati B.O,13.4158141,77.53749470000001,13.3958141,13.4358141,77.5174947,77.5574947,561203,Bangalore South,BANGALORE,KARNATAKA
416,Melinajuganahalli,Sri Subramanyaghati B.O,,,,,,,561203,Dod Ballapur,BANGALORE RURAL,KARNATAKA
417,Melinanaikaradahalli,Antharahalli B.O,,,,,,,561203,Dod Ballapur,BANGALORE RURAL,KARNATAKA
418,Puttenahalli,Kannamangala B.O,12.895432000000001,77.58069909999999,12.875432,12.915432000000001,77.5606991,77.60069909999999,561203,Dod Ballapur,BANGALORE RURAL,KARNATAKA
419,S.M. Gollahalli,Arallumallige B.O,13.4496688,77.63401759999999,13.4296688,13.469668799999999,77.6140176,77.6540176,561203,Dod Ballapur,BANGALORE RURAL,KARNATAKA
420,Shravanur,Hanabe B.O,,,,,,,561203,Dod Ballapur,BANGALORE RURAL,KARNATAKA
421,Tapasihalli,Antharahalli B.O,13.3490636,77.5201876,13.3290636,13.3690636,77.50018759999999,77.5401876,561203,Dod Ballapur,BANGALORE RURAL,KARNATAKA
422,Ujjani,Hosahalli B.O,13.4402025,77.4442278,13.4202025,13.4602025,77.4242278,77.46422779999999,561203,Dod Ballapur,BANGALORE RURAL,KARNATAKA
423,Yaramuddenahalli,Hosahalli B.O,,,,,,,561203,Dod Ballapur,BANGALORE RURAL,KARNATAKA
424,Antharahalli,Antharahalli B.O,,,,,,,561203,Dod Ballapur,BANGALORE RURAL,KARNATAKA
425,Bankenahalli,Gundamgere B.O,13.460959299999999,77.47986920000001,13.4409593,13.480959299999999,77.4598692,77.4998692,561203,Dod Ballapur,BANGALORE RURAL,KARNATAKA
426,Dod Ballapur,Dodballapura Bazar S.O,,,,,,,561203,Dod Ballapur,BANGALORE RURAL,KARNATAKA
427,Galipuje,Kodigehalli B.O,,,,,,,561203,Dod Ballapur,BANGALORE RURAL,KARNATAKA
428,Gejjigadahalli,Arallumallige B.O,,,,,,,561203,Dod Ballapur,BANGALORE RURAL,KARNATAKA
429,Halenahalli,Kanasavadi B.O,13.278796300000002,77.241407,13.258796300000002,13.298796300000001,77.221407,77.26140699999999,561203,Dod Ballapur,BANGALORE RURAL,KARNATAKA
430,Hanabe,Hanabe B.O,13.3249793,77.4635565,13.304979300000001,13.3449793,77.4435565,77.48355649999999,561203,Dod Ballapur,BANGALORE RURAL,KARNATAKA
431,Kallodu,Kannamangala B.O,13.1781342,77.4341688,13.158134200000001,13.1981342,77.4141688,77.45416879999999,561203,Dod Ballapur,BANGALORE RURAL,KARNATAKA
432,Kantanakunte,Mallathahalli B.O,13.333532,77.5278079,13.313532,13.353532000000001,77.5078079,77.54780790000001,561203,Dod Ballapur,BANGALORE RURAL,KARNATAKA
433,Kugonahalli,Hanabe B.O,13.309406599999999,77.4613585,13.2894066,13.329406599999999,77.44135849999999,77.4813585,561203,Dod Ballapur,BANGALORE RURAL,KARNATAKA
434,Kukkanahalli,Kanasavadi B.O,13.174947699999999,77.44170890000001,13.1549477,13.194947699999998,77.4217089,77.4617089,561203,Dod Ballapur,BANGALORE RURAL,KARNATAKA
435,Nagenahalli,Kannamangala B.O,13.379740099999998,77.552688,13.359740099999998,13.399740099999999,77.53268800000001,77.572688,561203,Dod Ballapur,BANGALORE RURAL,KARNATAKA
436,Suthahalli,Tippur B.O,,,,,,,561203,Dod Ballapur,BANGALORE RURAL,KARNATAKA
437,Byadarajakkasandra,Arallumallige B.O,,,,,,,561203,Dod Ballapur,BANGALORE RURAL,KARNATAKA
438,Galibilikote,Hanabe B.O,13.3399082,77.4332651,13.319908199999999,13.3599082,77.41326509999999,77.4532651,561203,Dod Ballapur,BANGALORE RURAL,KARNATAKA
439,K.G.Devapala,Hosahalli B.O,,,,,,,561203,Dod Ballapur,BANGALORE RURAL,KARNATAKA
440,Kadakunte,Hosahalli B.O,,,,,,,561203,Dod Ballapur,BANGALORE RURAL,KARNATAKA
441,Kalludevanahalli,Tippur B.O,13.351664900000001,77.46879440000001,13.3316649,13.3716649,77.4487944,77.4887944,561203,Dod Ballapur,BANGALORE RURAL,KARNATAKA
442,Kanasavadi,Kanasavadi B.O,13.209361,77.43731629999999,13.189360999999998,13.229360999999999,77.4173163,77.45731629999999,561203,Dod Ballapur,BANGALORE RURAL,KARNATAKA
443,Madhurana Hosahalli,Antharahalli B.O,13.2819435,77.43310699999999,13.2619435,13.3019435,77.413107,77.45310699999999,561203,Dod Ballapur,BANGALORE RURAL,KARNATAKA
444,Maralenahalli,Hanabe B.O,13.3282266,77.4767056,13.308226600000001,13.3482266,77.45670559999999,77.4967056,561203,Dod Ballapur,BANGALORE RURAL,KARNATAKA
445,Palya,Kannamangala B.O,13.1740696,77.7061858,13.1540696,13.194069599999999,77.6861858,77.7261858,561203,Devanahalli,BANGALORE RURAL,KARNATAKA
446,Rajaghatta Amanikere,Rajaghatta B.O,,,,,,,561203,Dod Ballapur,BANGALORE RURAL,KARNATAKA
447,Srinivasapura,Hanabe B.O,12.9900798,77.6549474,12.9900298,12.990129800000002,77.65489740000001,77.6549974,561203,Hosakote,BANGALORE RURAL,KARNATAKA
448,Tekalahalli,Hosahalli B.O,,,,,,,561203,Dod Ballapur,BANGALORE RURAL,KARNATAKA
449,Alahalli,Arallumallige B.O,13.276586300000002,77.52233690000001,13.2565863,13.296586300000001,77.5023369,77.54233690000001,561203,Dod Ballapur,BANGALORE RURAL,KARNATAKA
450,Allalasandra,Antharahalli B.O,13.3592126,77.51159109999999,13.3392126,13.379212599999999,77.4915911,77.5315911,561203,Dod Ballapur,BANGALORE RURAL,KARNATAKA
451,Ekasipura,Arallumallige B.O,13.2584887,77.5142689,13.2384887,13.278488699999999,77.4942689,77.5342689,561203,Dod Ballapur,BANGALORE RURAL,KARNATAKA
452,Honnaghatta,Kodigehalli B.O,,,,,,,561203,Dod Ballapur,BANGALORE RURAL,KARNATAKA
453,Hosanagenahalli,Gundamgere B.O,,,,,,,561203,Dod Ballapur,BANGALORE RURAL,KARNATAKA
454,K.G. Kuntanahalli,Arallumallige B.O,13.280292300000001,77.4872723,13.260292300000001,13.3002923,77.4672723,77.5072723,561203,Dod Ballapur,BANGALORE RURAL,KARNATAKA
455,Kallukunte,Hosahalli B.O,13.4487919,77.42569300000001,13.4287919,13.4687919,77.405693,77.445693,561203,Dod Ballapur,BANGALORE RURAL,KARNATAKA
456,Kurubarahalli,Kodigehalli B.O,12.7470321,77.2468512,12.727032099999999,12.7670321,77.2268512,77.2668512,561203,Dod Ballapur,BANGALORE RURAL,KARNATAKA
457,Madhure,Kanasavadi B.O,13.21866295,77.4439873591661,13.2069165,13.230472199999998,77.43308470000001,77.4513064,561203,Dod Ballapur,BANGALORE RURAL,KARNATAKA
458,Mallathahalli,Mallathahalli B.O,12.961066699999998,77.5099088,12.961066699999998,12.9610772,77.5099088,77.5099853,561203,Dod Ballapur,BANGALORE RURAL,KARNATAKA
459,Mandibyadarahalli,Hanabe B.O,13.3060201,77.4709512,13.2860201,13.326020100000001,77.4509512,77.4909512,561203,Dod Ballapur,BANGALORE RURAL,KARNATAKA
460,Ojenahalli,Gundamgere B.O,13.4353285,77.4753345,13.415328500000001,13.4553285,77.45533449999999,77.4953345,561203,Dod Ballapur,BANGALORE RURAL,KARNATAKA
461,Rajaghatta,Rajaghatta B.O,13.3252905,77.59181009999999,13.3052905,13.345290499999999,77.5718101,77.61181009999999,561203,Dod Ballapur,BANGALORE RURAL,KARNATAKA
462,Shivalinga Pura,Antharahalli B.O,,,,,,,561203,Dod Ballapur,BANGALORE RURAL,KARNATAKA
463,Talagavara,Kodigehalli B.O,13.3144137,77.5074765,13.294413699999998,13.334413699999999,77.4874765,77.5274765,561203,Dod Ballapur,BANGALORE RURAL,KARNATAKA
464,Vanigarahalli,Tippur B.O,13.3495,77.452523,13.3295,13.3695,77.432523,77.472523,561203,Dod Ballapur,BANGALORE RURAL,KARNATAKA
465,Amani Palankere,Mallathahalli B.O,,,,,,,561203,Dod Ballapur,BANGALORE RURAL,KARNATAKA
466,Aralamallige,Arallumallige B.O,,,,,,,561203,Dod Ballapur,BANGALORE RURAL,KARNATAKA
467,Bachchahalli,Antharahalli B.O,13.356144400000002,77.516092,13.336144400000002,13.376144400000001,77.496092,77.53609200000001,561203,Dod Ballapur,BANGALORE RURAL,KARNATAKA
468,Jaligere,Tippur B.O,13.3746135,77.4358821,13.354613500000001,13.3946135,77.4158821,77.4558821,561203,Dod Ballapur,BANGALORE RURAL,KARNATAKA
469,Jodi Karapura,Hanabe B.O,,,,,,,561203,Dod Ballapur,BANGALORE RURAL,KARNATAKA
470,Kadabyadarahalli,Tippur B.O,13.3601995,77.4327235,13.340199499999999,13.3801995,77.4127235,77.4527235,561203,Dod Ballapur,BANGALORE RURAL,KARNATAKA
471,Kenjiganahalli,Kannamangala B.O,,,,,,,561203,Dod Ballapur,BANGALORE RURAL,KARNATAKA
472,Menasi,Arallumallige B.O,13.287363699999998,77.4887069,13.267363699999999,13.307363699999998,77.4687069,77.5087069,561203,Dod Ballapur,BANGALORE RURAL,KARNATAKA
473,Ramadevanahalli,Kannamangala B.O,13.190652800000002,77.4326879,13.170652800000003,13.210652800000002,77.41268790000001,77.4526879,561203,Dod Ballapur,BANGALORE RURAL,KARNATAKA
474,Siravara,Antharahalli B.O,,,,,,,561203,Dod Ballapur,BANGALORE RURAL,KARNATAKA
475,Uddichikkanahalli,Kannamangala B.O,13.177478299999999,77.40026879999999,13.1574783,13.1974783,77.3802688,77.4202688,561203,Dod Ballapur,BANGALORE RURAL,KARNATAKA
476,Chikkanahalli,Hanabe B.O,13.314318,77.7871125,13.294317999999999,13.334318,77.7671125,77.8071125,561203,Dod Ballapur,BANGALORE RURAL,KARNATAKA
477,Gundasandra,Hanabe B.O,13.3367142,77.4441077,13.3167142,13.356714199999999,77.42410770000001,77.4641077,561203,Dod Ballapur,BANGALORE RURAL,KARNATAKA
478,Kolur Plantation,Antharahalli B.O,,,,,,,561203,Dod Ballapur,BANGALORE RURAL,KARNATAKA
479,Kottige Machenahalli,Hosahalli B.O,,,,,,,561203,Dod Ballapur,BANGALORE RURAL,KARNATAKA
480,Somasettihalli,Tippur B.O,,,,,,,561203,Dod Ballapur,BANGALORE RURAL,KARNATAKA
481,Thippur,Tippur B.O,,,,,,,561203,Dod Ballapur,BANGALORE RURAL,KARNATAKA
482,Byadarahalli,Hanabe B.O,13.2908479,77.6083775,13.2708479,13.310847899999999,77.5883775,77.6283775,561203,Dod Ballapur,BANGALORE RURAL,KARNATAKA
483,Byrasandra,Arallumallige B.O,13.224344699999998,77.8532441,13.204344699999998,13.2443447,77.8332441,77.8732441,561203,Dod Ballapur,BANGALORE RURAL,KARNATAKA
484,Cheelenahalli,Tippur B.O,,,,,,,561203,Dod Ballapur,BANGALORE RURAL,KARNATAKA
485,Chikkavadagere,Kannamangala B.O,,,,,,,561203,Dod Ballapur,BANGALORE RURAL,KARNATAKA
486,Jodithimasandra,Kannamangala B.O,,,,,,,561203,Dod Ballapur,BANGALORE RURAL,KARNATAKA
487,Karenahalli,Antharahalli B.O,12.8178377,77.3651779,12.797837699999999,12.8378377,77.34517790000001,77.38517790000002,561203,Dod Ballapur,BANGALORE RURAL,KARNATAKA
488,Kelaginajuganahalli,Sri Subramanyaghati B.O,,,,,,,561203,Dod Ballapur,BANGALORE RURAL,KARNATAKA
489,Kelaginanaikaradahalli,Antharahalli B.O,,,,,,,561203,Dod Ballapur,BANGALORE RURAL,KARNATAKA
490,Kukkalahalli,Hosahalli B.O,,,,,,,561203,Dod Ballapur,BANGALORE RURAL,KARNATAKA
491,Madagondahalli,Kodigehalli B.O,,,,,,,561203,Dod Ballapur,BANGALORE RURAL,KARNATAKA
492,Madeswara,Hanabe B.O,,,,,,,561203,Dod Ballapur,BANGALORE RURAL,KARNATAKA
493,Madhure Amanikere,Kanasavadi B.O,,,,,,,561203,Dod Ballapur,BANGALORE RURAL,KARNATAKA
494,Majarahosahalli,Antharahalli B.O,,,,,,,561203,Dod Ballapur,BANGALORE RURAL,KARNATAKA
495,Adakavala,Baktharahalli B.O,,,,,,,561204,Dod Ballapur,BANGALORE RURAL,KARNATAKA
496,Akkathammanahalli,Sakkaaregollahalli B.O,,,,,,,561204,Dod Ballapur,BANGALORE RURAL,KARNATAKA
497,Aroodi,Arudi B.O,,,,,,,561204,Dod Ballapur,BANGALORE RURAL,KARNATAKA
498,Badrapura,Purushanahalli B.O,,,,,,,561204,Dod Ballapur,BANGALORE RURAL,KARNATAKA
499,Bheemarauthanahalli,Sakkaaregollahalli B.O,,,,,,,561204,Dod Ballapur,BANGALORE RURAL,KARNATAKA
500,Channadevi Agrahara,Kadanur B.O,13.2178549,77.455611,13.1978549,13.2378549,77.435611,77.475611,561204,Dod Ballapur,BANGALORE RURAL,KARNATAKA
501,Gummanahalli,Sasalu B.O,13.414945499999998,77.386528,13.394945499999999,13.4349455,77.366528,77.40652800000001,561204,Dod Ballapur,BANGALORE RURAL,KARNATAKA
502,Halekote,Kadalappanahalli B.O,13.353701500000001,77.4154474,13.333701500000002,13.373701500000001,77.39544740000001,77.4354474,561204,Dod Ballapur,BANGALORE RURAL,KARNATAKA
503,Karepura,Purushanahalli B.O,13.251328200000001,77.4003007,13.2313282,13.271328200000001,77.38030069999999,77.4203007,561204,Dod Ballapur,BANGALORE RURAL,KARNATAKA
504,Madagondanahalli,Kadanur B.O,13.318394099999999,77.2008932,13.2983941,13.338394099999999,77.1808932,77.2208932,561204,Dod Ballapur,BANGALORE RURAL,KARNATAKA
505,Purusanahalli,Purushanahalli B.O,,,,,,,561204,Dod Ballapur,BANGALORE RURAL,KARNATAKA
506,Alappanahalli,Baktharahalli B.O,13.3588023,77.361789,13.338802300000001,13.378802300000002,77.341789,77.381789,561204,Dod Ballapur,BANGALORE RURAL,KARNATAKA
507,Channaveeranahalli,Kadalappanahalli B.O,,,,,,,561204,Dod Ballapur,BANGALORE RURAL,KARNATAKA
508,Dadighattamadagu,Sasalu B.O,,,,,,,561204,Dod Ballapur,BANGALORE RURAL,KARNATAKA
509,Doddahejjaji,Doddahejjaji B.O,13.2708182,77.4152371,13.2508182,13.2908182,77.39523709999999,77.4352371,561204,Dod Ballapur,BANGALORE RURAL,KARNATAKA
510,Ganadalu,Sasalu B.O,,,,,,,561204,Dod Ballapur,BANGALORE RURAL,KARNATAKA
511,Gowdanakunte,Sasalu B.O,,,,,,,561204,Dod Ballapur,BANGALORE RURAL,KARNATAKA
512,Honnadevipura,Syakaladevanapura B.O,13.2428824,77.4158414,13.2228824,13.262882399999999,77.39584140000001,77.43584140000002,561204,Dod Ballapur,BANGALORE RURAL,KARNATAKA
513,Honnavara,Purushanahalli B.O,13.2217293,77.41895229999999,13.2017293,13.241729300000001,77.39895229999999,77.4389523,561204,Dod Ballapur,BANGALORE RURAL,KARNATAKA
514,Kadathippur,Baktharahalli B.O,,,,,,,561204,Dod Ballapur,BANGALORE RURAL,KARNATAKA
515,Machenahalli,Sasalu B.O,,,,,,,561204,Dod Ballapur,BANGALORE RURAL,KARNATAKA
516,Narasaihna Agrahara,Kadanur B.O,,,,,,,561204,Dod Ballapur,BANGALORE RURAL,KARNATAKA
517,Thambenahalli,Kadalappanahalli B.O,,,,,,,561204,Dod Ballapur,BANGALORE RURAL,KARNATAKA
518,Buchanahalli,Sakkaaregollahalli B.O,13.408771599999998,77.3218069,13.388771599999998,13.4287716,77.3018069,77.34180690000001,561204,Dod Ballapur,BANGALORE RURAL,KARNATAKA
519,Chikkakalenahalli,Sakkaaregollahalli B.O,,,,,,,561204,Dod Ballapur,BANGALORE RURAL,KARNATAKA
520,Doddamankanala,Koligere B.O,,,,,,,561204,Dod Ballapur,BANGALORE RURAL,KARNATAKA
521,Mallanaikanahalli,Sakkaaregollahalli B.O,,,,,,,561204,Dod Ballapur,BANGALORE RURAL,KARNATAKA
522,Venkateshpura,Doddahejjaji B.O,,,,,,,561204,Dod Ballapur,BANGALORE RURAL,KARNATAKA
523,Banavathi,Arudi B.O,,,,,,,561204,Dod Ballapur,BANGALORE RURAL,KARNATAKA
524,Benakinamadugu,Kadalappanahalli B.O,13.3942552,77.4076511,13.3728351,13.407807199999999,77.38736899999999,77.41498320000001,561204,Dod Ballapur,BANGALORE RURAL,KARNATAKA
525,Bokipura,Rameshwara B.O,,,,,,,561204,Dod Ballapur,BANGALORE RURAL,KARNATAKA
526,Chikkabelavangala,Doddabelavangala S.O,13.2873466,77.4085631,13.267346599999998,13.307346599999999,77.3885631,77.42856309999999,561204,Dod Ballapur,BANGALORE RURAL,KARNATAKA
527,Joyis Agrahara,Doddahejjaji B.O,,,,,,,561204,Dod Ballapur,BANGALORE RURAL,KARNATAKA
528,K.G.Thammaganahalli,Sasalu B.O,,,,,,,561204,Dod Ballapur,BANGALORE RURAL,KARNATAKA
529,Kadanur,Kadanur B.O,,,,,,,561204,Dod Ballapur,BANGALORE RURAL,KARNATAKA
530,Kadathippenahalli,Koligere B.O,,,,,,,561204,Dod Ballapur,BANGALORE RURAL,KARNATAKA
531,Kamana Agrahara,Koligere B.O,13.3035288,77.3799897,13.283528800000001,13.3235288,77.3599897,77.3999897,561204,Dod Ballapur,BANGALORE RURAL,KARNATAKA
532,Kilarlahalli,Sasalu B.O,,,,,,,561204,Dod Ballapur,BANGALORE RURAL,KARNATAKA
533,Lakkenahalli,Sasalu B.O,13.0434903,77.3972985,13.0234903,13.0634903,77.3772985,77.4172985,561204,Dod Ballapur,BANGALORE RURAL,KARNATAKA
534,Lingadaveeranahalli,Sasalu B.O,,,,,,,561204,Dod Ballapur,BANGALORE RURAL,KARNATAKA
535,Muttugadahalli,Hulikunte B.O,13.437021300000001,77.78210759999999,13.417021300000002,13.457021300000001,77.7621076,77.80210759999999,561204,Dod Ballapur,BANGALORE RURAL,KARNATAKA
536,Naranahalli,Rameshwara B.O,13.291136800000002,77.4401671,13.271136800000003,13.311136800000002,77.4201671,77.46016709999999,561204,Dod Ballapur,BANGALORE RURAL,KARNATAKA
537,Puttaiana Agrahara,Syakaladevanapura B.O,,,,,,,561204,Dod Ballapur,BANGALORE RURAL,KARNATAKA
538,Simpadipura,Purushanahalli B.O,,,,,,,561204,Dod Ballapur,BANGALORE RURAL,KARNATAKA
539,Todalabande,Sasalu B.O,,,,,,,561204,Dod Ballapur,BANGALORE RURAL,KARNATAKA
540,Ambalagere,Purushanahalli B.O,13.243471,77.3876811,13.223471,13.263471,77.3676811,77.4076811,561204,Dod Ballapur,BANGALORE RURAL,KARNATAKA
541,Chikkahejjaji,Doddahejjaji B.O,13.268336499999998,77.43135090000001,13.248336499999999,13.2883365,77.4113509,77.45135090000001,561204,Dod Ballapur,BANGALORE RURAL,KARNATAKA
542,Chikkahejjaji Amanikere,Doddahejjaji B.O,,,,,,,561204,Dod Ballapur,BANGALORE RURAL,KARNATAKA
543,Doddabelavangala,Doddabelavangala S.O,13.288879500000002,77.42157540000001,13.2688795,13.308879500000002,77.40157540000001,77.4415754,561204,Dod Ballapur,BANGALORE RURAL,KARNATAKA
544,Goraghatta,Hulikunte B.O,13.286110899999999,77.3395172,13.2661109,13.3061109,77.3195172,77.3595172,561204,Nelamangala,BANGALORE RURAL,KARNATAKA
545,Hulikunte,Hulikunte B.O,13.276758,77.35121409999999,13.256758,13.296757999999999,77.3312141,77.37121409999999,561204,Dod Ballapur,BANGALORE RURAL,KARNATAKA
546,Hulikunte State Forest,Hulikunte B.O,13.276758,77.35121409999999,13.256758,13.296757999999999,77.3312141,77.37121409999999,561204,Dod Ballapur,BANGALORE RURAL,KARNATAKA
547,Kangalapura,Sakkaaregollahalli B.O,,,,,,,561204,Dod Ballapur,BANGALORE RURAL,KARNATAKA
548,Kanikenahalli,Kadalappanahalli B.O,,,,,,,561204,Dod Ballapur,BANGALORE RURAL,KARNATAKA
549,Karimaranahalli,Hulikunte B.O,,,,,,,561204,Nelamangala,BANGALORE RURAL,KARNATAKA
550,Mugenahalli,Doddahejjaji B.O,13.278522800000001,77.39543359999999,13.2585228,13.2985228,77.3754336,77.41543359999999,561204,Dod Ballapur,BANGALORE RURAL,KARNATAKA
551,Rameswara,Rameshwara B.O,,,,,,,561204,Dod Ballapur,BANGALORE RURAL,KARNATAKA
552,Sakkaregollahalli,Sakkaaregollahalli B.O,,,,,,,561204,Dod Ballapur,BANGALORE RURAL,KARNATAKA
553,Sasalu,Sasalu B.O,13.4082992,77.3844828,13.3882992,13.4282992,77.3644828,77.4044828,561204,Dod Ballapur,BANGALORE RURAL,KARNATAKA
554,Syakaldevanapura,Syakaladevanapura B.O,,,,,,,561204,Dod Ballapur,BANGALORE RURAL,KARNATAKA
555,Chigaranahalli,Baktharahalli B.O,,,,,,,561204,Dod Ballapur,BANGALORE RURAL,KARNATAKA
556,Garudagallu,Sasalu B.O,13.397679,77.3486698,13.377679,13.417679000000001,77.3286698,77.36866979999999,561204,Dod Ballapur,BANGALORE RURAL,KARNATAKA
557,Hadripura,Kadanur B.O,13.2588166,77.4422704,13.2388166,13.278816599999999,77.4222704,77.46227040000001,561204,Dod Ballapur,BANGALORE RURAL,KARNATAKA
558,Jyotipura,Baktharahalli B.O,13.2944699,77.6276794,13.2744699,13.314469899999999,77.60767940000001,77.64767940000002,561204,Dod Ballapur,BANGALORE RURAL,KARNATAKA
559,Kattiihosahalli,Koligere B.O,,,,,,,561204,Dod Ballapur,BANGALORE RURAL,KARNATAKA
560,Konenahalli,Sakkaaregollahalli B.O,,,,,,,561204,Dod Ballapur,BANGALORE RURAL,KARNATAKA
561,Mavinakunte,Hulikunte B.O,,,,,,,561204,Nelamangala,BANGALORE RURAL,KARNATAKA
562,Ramapura,Doddabelavangala S.O,13.052449000000001,77.69128409999999,13.032449,13.072449,77.6712841,77.71128409999999,561204,Dod Ballapur,BANGALORE RURAL,KARNATAKA
563,Sankarasanahalli,Sakkaaregollahalli B.O,,,,,,,561204,Dod Ballapur,BANGALORE RURAL,KARNATAKA
564,Singenahalli,Sasalu B.O,,,,,,,561204,Dod Ballapur,BANGALORE RURAL,KARNATAKA
565,Tubakunte,Koligere B.O,,,,,,,561204,Dod Ballapur,BANGALORE RURAL,KARNATAKA
566,Chunchegowdanahosahalli,Rameshwara B.O,,,,,,,561204,Dod Ballapur,BANGALORE RURAL,KARNATAKA
567,Gundlahalli,Sakkaaregollahalli B.O,13.3191294,77.3681822,13.2991294,13.3391294,77.34818220000001,77.3881822,561204,Dod Ballapur,BANGALORE RURAL,KARNATAKA
568,Kadlapanahalli,Kadalappanahalli B.O,,,,,,,561204,Dod Ballapur,BANGALORE RURAL,KARNATAKA
569,Koligere,Koligere B.O,,,,,,,561204,Dod Ballapur,BANGALORE RURAL,KARNATAKA
570,Mallegowdanahalli,Kadalappanahalli B.O,,,,,,,561204,Dod Ballapur,BANGALORE RURAL,KARNATAKA
571,Mudlakalenahalli,Baktharahalli B.O,,,,,,,561204,Dod Ballapur,BANGALORE RURAL,KARNATAKA
572,Ankonahalli,Baktharahalli B.O,13.2046769,77.7990662,13.1846769,13.2246769,77.7790662,77.8190662,561204,Dod Ballapur,BANGALORE RURAL,KARNATAKA
573,Appkarenahalli,Hulikunte B.O,,,,,,,561204,Dod Ballapur,BANGALORE RURAL,KARNATAKA
574,Chikkamankanala,Koligere B.O,13.3080837,77.36039040000001,13.2880837,13.3280837,77.3403904,77.38039040000001,561204,Dod Ballapur,BANGALORE RURAL,KARNATAKA
575,Gandragolipura,Syakaladevanapura B.O,,,,,,,561204,Dod Ballapur,BANGALORE RURAL,KARNATAKA
576,Isthur,Syakaladevanapura B.O,,,,,,,561204,Dod Ballapur,BANGALORE RURAL,KARNATAKA
577,K.G. Basavanapura,Baktharahalli B.O,13.225281900000002,77.57601899999999,13.205281900000001,13.245281900000002,77.55601899999999,77.596019,561204,Dod Ballapur,BANGALORE RURAL,KARNATAKA
578,Kasaghatta,Doddahejjaji B.O,13.268240300000002,77.38867459999999,13.248240300000003,13.288240300000002,77.36867459999999,77.4086746,561204,Dod Ballapur,BANGALORE RURAL,KARNATAKA
579,Mallohalli,Kadanur B.O,13.230297699999998,77.4505637,13.210297699999998,13.250297699999999,77.4305637,77.4705637,561204,Dod Ballapur,BANGALORE RURAL,KARNATAKA
580,Muppadighatta,Kadanur B.O,13.2438079,77.44853420000001,13.2238079,13.2638079,77.4285342,77.46853420000001,561204,Dod Ballapur,BANGALORE RURAL,KARNATAKA
581,Nallenahalli,Purushanahalli B.O,13.3029785,77.8652536,13.2829785,13.3229785,77.84525359999999,77.8852536,561204,Dod Ballapur,BANGALORE RURAL,KARNATAKA
582,Sirigondanahalli,Baktharahalli B.O,,,,,,,561204,Dod Ballapur,BANGALORE RURAL,KARNATAKA
583,Bhumenahalli,Melekote S.O,13.3787378,77.61103840000001,13.3587378,13.3987378,77.5910384,77.63103840000001,561205,Dod Ballapur,BANGALORE RURAL,KARNATAKA
584,Chikkarayappanahalli,Melekote S.O,13.3827734,77.6423345,13.3627734,13.4027734,77.6223345,77.6623345,561205,Dod Ballapur,BANGALORE RURAL,KARNATAKA
585,Doddarayappanahalli,Melekote S.O,13.376051,77.6367019,13.356051,13.396051000000002,77.61670190000001,77.65670190000002,561205,Dod Ballapur,BANGALORE RURAL,KARNATAKA
586,Gedlapalya,Hadonahalli B.O,,,,,,,561205,Dod Ballapur,BANGALORE RURAL,KARNATAKA
587,Heggadihalli,Heggadahalli B.O,13.358725199999999,77.6498881,13.338725199999997,13.378725199999998,77.62988809999999,77.6698881,561205,Dod Ballapur,BANGALORE RURAL,KARNATAKA
588,Hireanaguddadahalli,Tubugere B.O,,,,,,,561205,Dod Ballapur,BANGALORE RURAL,KARNATAKA
589,Mukkadigatta,Tubugere B.O,,,,,,,561205,Dod Ballapur,BANGALORE RURAL,KARNATAKA
590,Udanahalli,Melekote S.O,,,,,,,561205,Dod Ballapur,BANGALORE RURAL,KARNATAKA
591,Yedlahalli,Tubugere B.O,,,,,,,561205,Dod Ballapur,BANGALORE RURAL,KARNATAKA
592,Masthimmanahalli,Tubugere B.O,,,,,,,561205,Dod Ballapur,BANGALORE RURAL,KARNATAKA
593,Sonnamaranahalli,Heggadahalli B.O,13.3324654,77.6467328,13.3124654,13.352465400000002,77.6267328,77.66673279999999,561205,Dod Ballapur,BANGALORE RURAL,KARNATAKA
594,Subraya Nagenahalli,Hadonahalli B.O,,,,,,,561205,Dod Ballapur,BANGALORE RURAL,KARNATAKA
595,Beedikere Agrahara,Gantiganahalli B.O,,,,,,,561205,Dod Ballapur,BANGALORE RURAL,KARNATAKA
596,Chowgondanahalli,Melekote S.O,,,,,,,561205,Dod Ballapur,BANGALORE RURAL,KARNATAKA
597,Durgenahalli,Hadonahalli B.O,13.386085699999999,77.5606948,13.3660857,13.406085699999998,77.5406948,77.5806948,561205,Dod Ballapur,BANGALORE RURAL,KARNATAKA
598,Beedikere,Gantiganahalli B.O,,,,,,,561205,Dod Ballapur,BANGALORE RURAL,KARNATAKA
599,Channapura,Heggadahalli B.O,13.108276000000002,77.8663268,13.088275999999999,13.128276000000001,77.84632679999999,77.88632679999999,561205,Dod Ballapur,BANGALORE RURAL,KARNATAKA
600,Kallukote,Tubugere B.O,13.418355599999998,77.5952377,13.398355599999999,13.438355599999998,77.5752377,77.6152377,561205,Dod Ballapur,BANGALORE RURAL,KARNATAKA
601,Karnala,Tubugere B.O,,,,,,,561205,Dod Ballapur,BANGALORE RURAL,KARNATAKA
602,Lakshmidevipura,Hadonahalli B.O,13.355986600000001,77.55804040000001,13.3359866,13.375986600000001,77.53804040000001,77.5780404,561205,Dod Ballapur,BANGALORE RURAL,KARNATAKA
603,Machagondahalli,Heggadahalli B.O,13.350603,77.6398356,13.330603,13.370603,77.61983559999999,77.6598356,561205,Dod Ballapur,BANGALORE RURAL,KARNATAKA
604,Sothenahalli,Tubugere B.O,13.380475099999998,77.576092,13.360475099999999,13.4004751,77.556092,77.596092,561205,Dod Ballapur,BANGALORE RURAL,KARNATAKA
605,Acharlahalli,Heggadahalli B.O,,,,,,,561205,Dod Ballapur,BANGALORE RURAL,KARNATAKA
606,Chikkamuddenahalli,Tubugere B.O,13.405776500000002,77.57635379999999,13.385776500000002,13.425776500000001,77.5563538,77.59635379999999,561205,Dod Ballapur,BANGALORE RURAL,KARNATAKA
607,Hiremuddenahalli,Tubugere B.O,13.4113191,77.5829262,13.391319099999999,13.4313191,77.56292619999999,77.6029262,561205,Dod Ballapur,BANGALORE RURAL,KARNATAKA
608,Myakalahalli,Tubugere B.O,,,,,,,561205,Dod Ballapur,BANGALORE RURAL,KARNATAKA
609,Thirumagondanahalli,Hadonahalli B.O,,,,,,,561205,Dod Ballapur,BANGALORE RURAL,KARNATAKA
610,Tubagere,Tubugere B.O,13.3737552,77.570174,13.3537552,13.3937552,77.550174,77.590174,561205,Dod Ballapur,BANGALORE RURAL,KARNATAKA
611,Vaddarahalli,Hadonahalli B.O,13.3427922,77.5405822,13.322792199999999,13.3627922,77.5205822,77.5605822,561205,Dod Ballapur,BANGALORE RURAL,KARNATAKA
612,Gulyanandigunda,Heggadahalli B.O,13.3475392,77.64217790000001,13.327539199999999,13.3675392,77.62217790000001,77.6621779,561205,Dod Ballapur,BANGALORE RURAL,KARNATAKA
613,Hadonahalli,Hadonahalli B.O,13.369241800000001,77.5449548,13.3492418,13.3892418,77.52495479999999,77.5649548,561205,Dod Ballapur,BANGALORE RURAL,KARNATAKA
614,Kachahalli,Tubugere B.O,13.330569,77.82100679999999,13.310569000000001,13.350569,77.8010068,77.8410068,561205,Dod Ballapur,BANGALORE RURAL,KARNATAKA
615,Dandu Dasakodigehalli,Melekote S.O,,,,,,,561205,Dod Ballapur,BANGALORE RURAL,KARNATAKA
616,Gulya,Heggadahalli B.O,13.237039600000001,77.4065036,13.217039600000001,13.2570396,77.3865036,77.42650359999999,561205,Dod Ballapur,BANGALORE RURAL,KARNATAKA
617,K.G.Lakkasandra,Tubugere B.O,12.794324900000001,77.3278888,12.774324900000002,12.8143249,77.30788879999999,77.34788879999999,561205,Dod Ballapur,BANGALORE RURAL,KARNATAKA
618,Kuruvigere,Gantiganahalli B.O,13.356974,77.5944467,13.336974,13.376973999999999,77.57444670000001,77.6144467,561205,Dod Ballapur,BANGALORE RURAL,KARNATAKA
619,Melekote,Melekote S.O,,,,,,,561205,Dod Ballapur,BANGALORE RURAL,KARNATAKA
620,Mugachinnenahalli,Melekote S.O,,,,,,,561205,Dod Ballapur,BANGALORE RURAL,KARNATAKA
621,Naraganahalli,Tubugere B.O,,,,,,,561205,Dod Ballapur,BANGALORE RURAL,KARNATAKA
622,Marahalli,Melekote S.O,13.361814,77.6151063,13.341814000000001,13.381814000000002,77.5951063,77.63510629999999,561205,Dod Ballapur,BANGALORE RURAL,KARNATAKA
623,Tapasipura,Heggadahalli B.O,,,,,,,561205,Dod Ballapur,BANGALORE RURAL,KARNATAKA
624,Thogarighatta,Hadonahalli B.O,,,,,,,561205,Dod Ballapur,BANGALORE RURAL,KARNATAKA
625,Kambadahalli,Melur S.O (Kolar),13.4816372,77.3049009,13.4616372,13.501637200000001,77.28490090000001,77.3249009,562102,Devanahalli,BANGALORE RURAL,KARNATAKA
626,Bhattrenahalli,Melur S.O (Kolar),,,,,,,562102,Devanahalli,BANGALORE RURAL,KARNATAKA
627,Chudenahalli,Vanakanahalli B.O,12.8808096,77.75902640000001,12.8807596,12.880859599999999,77.75897640000001,77.75907640000001,562106,Anekal,BANGALORE,KARNATAKA
628,Honnakalasapura,Sidihoskote B.O,,,,,,,562106,Anekal,BANGALORE,KARNATAKA
629,Kalanaikanahalli,Vanakanahalli B.O,,,,,,,562106,Anekal,BANGALORE,KARNATAKA
630,Karakalaghatta,Thammanayakanahalli B.O,,,,,,,562106,Anekal,BANGALORE,KARNATAKA
631,Karakalaghatta janatha Colony,Thammanayakanahalli B.O,,,,,,,562106,Anekal,BANGALORE,KARNATAKA
632,Kuvempunagara,Guddanahalli B.O,12.9159361,77.61623767716229,12.9151038,12.9163084,77.61561490000001,77.61696579999999,562106,Anekal,BANGALORE,KARNATAKA
633,Shettihalli,Marsur B.O,13.4535989,77.85210699999999,13.4335989,13.4735989,77.832107,77.872107,562106,Anekal,BANGALORE,KARNATAKA
634,Sidihoskote,Sidihoskote B.O,,,,,,,562106,Anekal,BANGALORE,KARNATAKA
635,SSB International School,Samandur B.O,12.97365535,77.640032068617,12.973457199999999,12.9738535,77.63982309999999,77.6402327,562106,Anekal,BANGALORE,KARNATAKA
636,Thimmaiahnadoddi,Indalavadi B.O,,,,,,,562106,Anekal,BANGALORE,KARNATAKA
637,Badarhalli,Sidihoskote B.O,,,,,,,562106,Anekal,BANGALORE,KARNATAKA
638,Basavanapura,Thammanayakanahalli B.O,13.225281900000002,77.57601899999999,13.205281900000001,13.245281900000002,77.55601899999999,77.596019,562106,Anekal,BANGALORE,KARNATAKA
639,Dodda Hagade,Sidihoskote B.O,12.7461886,77.68963690000001,12.7261886,12.7661886,77.6696369,77.7096369,562106,Anekal,BANGALORE,KARNATAKA
640,Geratiganabele,Samandur B.O,,,,,,,562106,Anekal,BANGALORE,KARNATAKA
641,K.Dommsandra,Vanakanahalli B.O,,,,,,,562106,Anekal,BANGALORE,KARNATAKA
642,Karpur Janatha Colony,Bestamaranahalli B.O,,,,,,,562106,Anekal,BANGALORE,KARNATAKA
643,Kaval Hosahalli,Sidihoskote B.O,,,,,,,562106,Anekal,BANGALORE,KARNATAKA
644,Kunmadivala,Sidihoskote B.O,,,,,,,562106,Anekal,BANGALORE,KARNATAKA
645,Madivala,Marsur B.O,13.216174100000002,77.9649502,13.1961741,13.236174100000001,77.9449502,77.9849502,562106,Anekal,BANGALORE,KARNATAKA
646,Marasur,Marsur B.O,,,,,,,562106,Anekal,BANGALORE,KARNATAKA
647,Mattagatti janatha Colony,Bestamaranahalli B.O,,,,,,,562106,Anekal,BANGALORE,KARNATAKA
648,Muttur,Thammanayakanahalli B.O,13.2999025,77.5493829,13.2998985,13.2999025,77.5493829,77.55032800000001,562106,Anekal,BANGALORE,KARNATAKA
649,A Medihalli,Sidihoskote B.O,12.9681562,77.845242,12.9481562,12.988156199999999,77.825242,77.86524200000001,562106,Anekal,BANGALORE,KARNATAKA
650,Amani Doddakere,Anekal S.O,,,,,,,562106,Anekal,BANGALORE,KARNATAKA
651,Avadadenahalli,Marsur B.O,12.747135400000001,77.7110012,12.7271354,12.7671354,77.6910012,77.7310012,562106,Anekal,BANGALORE,KARNATAKA
652,Bidaragere,Bestamaranahalli B.O,,,,,,,562106,Anekal,BANGALORE,KARNATAKA
653,Byagadadenahalli,Marsur B.O,12.7426294,77.7014816,12.7226294,12.762629400000002,77.6814816,77.7214816,562106,Anekal,BANGALORE,KARNATAKA
654,Indlawadi,Indalavadi B.O,,,,,,,562106,Anekal,BANGALORE,KARNATAKA
655,Kempavaderahalli,Sidihoskote B.O,12.7397987,77.68783990000001,12.7197987,12.7597987,77.6678399,77.70783990000001,562106,Anekal,BANGALORE,KARNATAKA
656,Kurubarahatti,Samandur B.O,,,,,,,562106,Anekal,BANGALORE,KARNATAKA
657,Madiwala,Samandur B.O,12.9212269,77.61795079999999,12.9012269,12.9412269,77.59795079999999,77.63795079999998,562106,Anekal,BANGALORE,KARNATAKA
658,Muthagatti,Guddanahalli B.O,,,,,,,562106,Anekal,BANGALORE,KARNATAKA
659,Siddanapalya,Indalavadi B.O,,,,,,,562106,Anekal,BANGALORE,KARNATAKA
660,Sonnanayakanapura,Indalavadi B.O,,,,,,,562106,Anekal,BANGALORE,KARNATAKA
661,Vanakanahalli,Vanakanahalli B.O,,,,,,,562106,Anekal,BANGALORE,KARNATAKA
662,Aravantigepura,Bestamaranahalli B.O,,,,,,,562106,Anekal,BANGALORE,KARNATAKA
663,Bagganadoddi,Indalavadi B.O,,,,,,,562106,Anekal,BANGALORE,KARNATAKA
664,Bidaraguppegunduthopu,Bestamaranahalli B.O,,,,,,,562106,Anekal,BANGALORE,KARNATAKA
665,Gudnahalli,Guddanahalli B.O,,,,,,,562106,Anekal,BANGALORE,KARNATAKA
666,Halevuru,Marsur B.O,13.204495600000001,77.8901465,13.1844956,13.224495600000001,77.87014649999999,77.9101465,562106,Anekal,BANGALORE,KARNATAKA
667,Hompalaghatta,Vanakanahalli B.O,,,,,,,562106,Anekal,BANGALORE,KARNATAKA
668,Indlawadipura,Thammanayakanahalli B.O,,,,,,,562106,Anekal,BANGALORE,KARNATAKA
669,Karpur,Bestamaranahalli B.O,,,,,,,562106,Anekal,BANGALORE,KARNATAKA
670,KK Nag Ltd,Bestamaranahalli B.O,,,,,,,562106,Anekal,BANGALORE,KARNATAKA
671,Laxmipura,Thammanayakanahalli B.O,13.0371308,77.4612093,13.0370808,13.0371808,77.4611593,77.4612593,562106,Anekal,BANGALORE,KARNATAKA
672,Mutyalamadagu,Vanakanahalli B.O,,,,,,,562106,Anekal,BANGALORE,KARNATAKA
673,Naganaikanahalli,Marsur B.O,,,,,,,562106,Anekal,BANGALORE,KARNATAKA
674,Rachamanahalli,Bestamaranahalli B.O,,,,,,,562106,Anekal,BANGALORE,KARNATAKA
675,Shiradi Sai Engineering College,Samandur B.O,,,,,,,562106,Anekal,BANGALORE,KARNATAKA
676,Soppahalli,Sidihoskote B.O,13.494601000000001,77.7736559,13.474601000000002,13.514601,77.7536559,77.7936559,562106,Anekal,BANGALORE,KARNATAKA
677,Submangala,Samandur B.O,,,,,,,562106,Anekal,BANGALORE,KARNATAKA
678,Telagarahalli,Vanakanahalli B.O,,,,,,,562106,Anekal,BANGALORE,KARNATAKA
679,Thattanahalli,Marsur B.O,,,,,,,562106,Anekal,BANGALORE,KARNATAKA
680,Adurpalya,Indalavadi B.O,,,,,,,562106,Anekal,BANGALORE,KARNATAKA
681,Anekal,Anekal S.O,12.7849128,77.7031193,12.7674006,12.8021995,77.7012578,77.70661340000001,562106,Anekal,BANGALORE,KARNATAKA
682,Jayashree School,Samandur B.O,12.881611,77.6260763,12.881561,12.881661,77.62602629999999,77.6261263,562106,Anekal,BANGALORE,KARNATAKA
683,Kammasandra Agrahara,Sidihoskote B.O,12.8295012,77.688501,12.8281609,12.830811099999998,77.6860191,77.6912599,562106,Anekal,BANGALORE,KARNATAKA
684,Menasiganahalli,Vanakanahalli B.O,,,,,,,562106,Anekal,BANGALORE,KARNATAKA
685,St.Joseph's School,Samandur B.O,12.96273935,77.5699167986416,12.9622492,12.9634303,77.5692228,77.5704823,562106,Anekal,BANGALORE,KARNATAKA
686,Venkateswarapura,Thammanayakanahalli B.O,,,,,,,562106,Anekal,BANGALORE,KARNATAKA
687,Anekal (Rural),Anekal S.O,,,,,,,562106,Anekal,BANGALORE,KARNATAKA
688,Asraya Yojana Manegalu,Samandur B.O,,,,,,,562106,Anekal,BANGALORE,KARNATAKA
689,Bommandahalli,Indalavadi B.O,,,,,,,562106,Anekal,BANGALORE,KARNATAKA
690,Chikka Hosahalli,Thammanayakanahalli B.O,13.2025341,77.7544907,13.182534099999998,13.222534099999999,77.7344907,77.7744907,562106,Anekal,BANGALORE,KARNATAKA
691,Dinnnur,Bestamaranahalli B.O,,,,,,,562106,Anekal,BANGALORE,KARNATAKA
692,GTB Cruster,Thammanayakanahalli B.O,,,,,,,562106,Anekal,BANGALORE,KARNATAKA
693,Kempegowdnagara,Samandur B.O,,,,,,,562106,Anekal,BANGALORE,KARNATAKA
694,Mysaramaradoddi,Indalavadi B.O,,,,,,,562106,Anekal,BANGALORE,KARNATAKA
695,Patnagere Gollahalli,Vanakanahalli B.O,,,,,,,562106,Anekal,BANGALORE,KARNATAKA
696,Rachamanhalli Jnatha Colony,Bestamaranahalli B.O,,,,,,,562106,Anekal,BANGALORE,KARNATAKA
697,Solur,Vanakanahalli B.O,13.0698018,77.2586709,13.064801800000001,13.074801800000001,77.2536709,77.26367090000001,562106,Anekal,BANGALORE,KARNATAKA
698,Thammanaikanahalli,Thammanayakanahalli B.O,,,,,,,562106,Anekal,BANGALORE,KARNATAKA
699,Yellamanapalya,Sidihoskote B.O,,,,,,,562106,Anekal,BANGALORE,KARNATAKA
700,Anekal railway Station,Bestamaranahalli B.O,12.7849128,77.7031193,12.7674006,12.8021995,77.7012578,77.70661340000001,562106,Anekal,BANGALORE,KARNATAKA
701,Bestammanahalli,Bestamaranahalli B.O,,,,,,,562106,Anekal,BANGALORE,KARNATAKA
702,Channena Agrahara,Samandur B.O,,,,,,,562106,Anekal,BANGALORE,KARNATAKA
703,Haldenahalli Janatha Colony,Bestamaranahalli B.O,,,,,,,562106,Anekal,BANGALORE,KARNATAKA
704,Indalwadi Cross,Indalavadi B.O,,,,,,,562106,Anekal,BANGALORE,KARNATAKA
705,Marasur Agrahara,Marsur B.O,,,,,,,562106,Anekal,BANGALORE,KARNATAKA
706,Amani Bidarakere,Anekal S.O,,,,,,,562106,Anekal,BANGALORE,KARNATAKA
707,Chikka Hagade,Sidihoskote B.O,,,,,,,562106,Anekal,BANGALORE,KARNATAKA
708,Gowrenahalli,Sidihoskote B.O,,,,,,,562106,Anekal,BANGALORE,KARNATAKA
709,Haldenahalli,Bestamaranahalli B.O,,,,,,,562106,Anekal,BANGALORE,KARNATAKA
710,Kadajakkanahalli,Indalavadi B.O,12.737735800000001,77.6344478,12.717735800000002,12.7577358,77.6144478,77.6544478,562106,Anekal,BANGALORE,KARNATAKA
711,Maranaikanahalli,Samandur B.O,,,,,,,562106,Anekal,BANGALORE,KARNATAKA
712,Nallaiahanadoddi,Thammanayakanahalli B.O,,,,,,,562106,Anekal,BANGALORE,KARNATAKA
713,Nosenur,Indalavadi B.O,,,,,,,562106,Anekal,BANGALORE,KARNATAKA
714,Pearlvali Farm,Thammanayakanahalli B.O,,,,,,,562106,Anekal,BANGALORE,KARNATAKA
715,Samandur,Samandur B.O,,,,,,,562106,Anekal,BANGALORE,KARNATAKA
716,Sidihosakote,Sidihoskote B.O,,,,,,,562106,Anekal,BANGALORE,KARNATAKA
717,Sunavara,Vanakanahalli B.O,,,,,,,562106,Anekal,BANGALORE,KARNATAKA
718,Arenur,Bidaraguppe B.O,,,,,,,562107,Anekal,BANGALORE,KARNATAKA
719,Attibele Ind Area,Yadavanahalli B.O,13.284321300000002,77.71775059999999,13.264321300000002,13.304321300000002,77.69775059999999,77.7377506,562107,Anekal,BANGALORE,KARNATAKA
720,Balagaranahalli,Neralur B.O,,,,,,,562107,Anekal,BANGALORE,KARNATAKA
721,Byalahalli,Bidaraguppe B.O,12.9396109,77.81594559999999,12.9196109,12.9596109,77.79594559999998,77.83594559999999,562107,Anekal,BANGALORE,KARNATAKA
722,Dasanapura,Mayasandra B.O,13.0758896,77.4364795,13.055889599999999,13.0958896,77.41647950000001,77.4564795,562107,Anekal,BANGALORE,KARNATAKA
723,Bhaktipura,Mayasandra B.O,,,,,,,562107,Anekal,BANGALORE,KARNATAKA
724,M.Medihalli,Mayasandra B.O,12.9681562,77.845242,12.9481562,12.988156199999999,77.825242,77.86524200000001,562107,Anekal,BANGALORE,KARNATAKA
725,Narasapura,Bidaraguppe B.O,13.2043595,77.3245045,13.1843595,13.2243595,77.30450450000001,77.3445045,562107,Anekal,BANGALORE,KARNATAKA
726,Hanuman Lay Out,Yadavanahalli B.O,,,,,,,562107,Anekal,BANGALORE,KARNATAKA
727,Kamblipura,Mayasandra B.O,,,,,,,562107,Anekal,BANGALORE,KARNATAKA
728,Kodlipura,Mayasandra B.O,,,,,,,562107,Anekal,BANGALORE,KARNATAKA
729,Neralur,Neralur B.O,,,,,,,562107,Anekal,BANGALORE,KARNATAKA
730,R.C.Lay Out,Yadavanahalli B.O,,,,,,,562107,Anekal,BANGALORE,KARNATAKA
731,Silk Farm,Bidaraguppe B.O,12.8537732,77.5235173,12.8537232,12.853823199999999,77.5234673,77.5235673,562107,Anekal,BANGALORE,KARNATAKA
732,Tyayakana Halli,Bidaraguppe B.O,,,,,,,562107,Anekal,BANGALORE,KARNATAKA
733,Vaddara Palya,Yadavanahalli B.O,,,,,,,562107,Anekal,BANGALORE,KARNATAKA
734,Jigala,Yadavanahalli B.O,,,,,,,562107,Anekal,BANGALORE,KARNATAKA
735,Mallenahalli,Bidaraguppe B.O,13.2503059,77.8865009,13.230305900000001,13.2703059,77.8665009,77.90650090000001,562107,Anekal,BANGALORE,KARNATAKA
736,Ballur,Attibele S.O,,,,,,,562107,Anekal,BANGALORE,KARNATAKA
737,Canara College,Yadavanahalli B.O,12.958280300000002,77.7027141,12.958230300000002,12.958330300000002,77.70266409999999,77.7027641,562107,Anekal,BANGALORE,KARNATAKA
738,Soma Habbu,Mayasandra B.O,,,,,,,562107,Anekal,BANGALORE,KARNATAKA
739,Sultanapalya,Bidaraguppe B.O,,,,,,,562107,Anekal,BANGALORE,KARNATAKA
740,Abbanna Palya,Yadavanahalli B.O,,,,,,,562107,Anekal,BANGALORE,KARNATAKA
741,Bidarguppe Extn,Bidaraguppe B.O,,,,,,,562107,Anekal,BANGALORE,KARNATAKA
742,Guddahatti,Neralur B.O,12.8037087,77.7423358,12.7837087,12.8237087,77.7223358,77.7623358,562107,Anekal,BANGALORE,KARNATAKA
743,Indlabele,Bidaraguppe B.O,12.7909618,77.77777579999999,12.7709618,12.8109618,77.75777579999999,77.7977758,562107,Anekal,BANGALORE,KARNATAKA
744,"T.V.S.Road, Dasanapura",Mayasandra B.O,,,,,,,562107,Anekal,BANGALORE,KARNATAKA
745,Vinatage Residency,Yadavanahalli B.O,,,,,,,562107,Anekal,BANGALORE,KARNATAKA
746,Yadavanahalli,Yadavanahalli B.O,12.789855300000001,77.7514537,12.769855300000001,12.8098553,77.7314537,77.7714537,562107,Anekal,BANGALORE,KARNATAKA
747,Bidaraguppe,Bidaraguppe B.O,12.8060574,77.7862873,12.7860574,12.826057400000002,77.7662873,77.80628730000001,562107,Anekal,BANGALORE,KARNATAKA
748,Itchangur,Yadavanahalli B.O,,,,,,,562107,Anekal,BANGALORE,KARNATAKA
749,Adigarakallahalli,Bidaraguppe B.O,,,,,,,562107,Anekal,BANGALORE,KARNATAKA
750,Attibele,Attibele S.O,12.7782588,77.7712834,12.7582588,12.798258800000001,77.7512834,77.7912834,562107,Anekal,BANGALORE,KARNATAKA
751,Ragahvendra Lay Out,Yadavanahalli B.O,,,,,,,562107,Anekal,BANGALORE,KARNATAKA
752,Ramachandranagara,Yadavanahalli B.O,,,,,,,562107,Anekal,BANGALORE,KARNATAKA
753,S.Medihalli,Bidaraguppe B.O,12.9681562,77.845242,12.9481562,12.988156199999999,77.825242,77.86524200000001,562107,Anekal,BANGALORE,KARNATAKA
754,Hampapura,Manchanayakanahalli B.O,12.8311136,77.4291715,12.8111136,12.8511136,77.4091715,77.44917149999999,562109,Bangalore South,BANGALORE,KARNATAKA
755,Arasanahalli Peddanahalli,Uganavadi B.O,,,,,,,562110,Devanahalli,BANGALORE RURAL,KARNATAKA
756,Bommawara,Uganavadi B.O,13.252448800000002,77.6709181,13.232448800000002,13.272448800000001,77.6509181,77.6909181,562110,Devanahalli,BANGALORE RURAL,KARNATAKA
757,Byradenahalli,Alurduddanahalli B.O,,,,,,,562110,Devanahalli,BANGALORE RURAL,KARNATAKA
758,Doddagollahalli,Alurduddanahalli B.O,,,,,,,562110,Devanahalli,BANGALORE RURAL,KARNATAKA
759,Sadahalli,Sadahalli B.O,13.211108800000002,77.64702199999999,13.191108800000002,13.231108800000001,77.627022,77.667022,562110,Devanahalli,BANGALORE RURAL,KARNATAKA
760,Southegowdanahalli,Yeliyur B.O,,,,,,,562110,Devanahalli,BANGALORE RURAL,KARNATAKA
761,Udayagiri,Doddasanne B.O,,,,,,,562110,Devanahalli,BANGALORE RURAL,KARNATAKA
762,Vajarahalli,Vishwanathapura B.O,12.8238977,77.39113359999999,12.8038977,12.8438977,77.3711336,77.41113359999999,562110,Devanahalli,BANGALORE RURAL,KARNATAKA
763,Devanahalli,Devanahalli S.O,13.248350199999997,77.7134377,13.208350199999998,13.288350199999998,77.6734377,77.75343769999999,562110,Devanahalli,BANGALORE RURAL,KARNATAKA
764,Doddacheemanahalli,Kundana B.O,,,,,,,562110,Devanahalli,BANGALORE RURAL,KARNATAKA
765,Gokere Bachenahalli,Yeliyur B.O,,,,,,,562110,Devanahalli,BANGALORE RURAL,KARNATAKA
766,Juttanahalli,Jalige B.O,12.9536998,77.18814379999999,12.933699800000001,12.9736998,77.1681438,77.2081438,562110,Devanahalli,BANGALORE RURAL,KARNATAKA
767,Lingadeeragollahalli,Kundana B.O,,,,,,,562110,Devanahalli,BANGALORE RURAL,KARNATAKA
768,Mattabaralu,Yeliyur B.O,,,,,,,562110,Devanahalli,BANGALORE RURAL,KARNATAKA
769,Mattabarlu,Yeliyur B.O,13.2462994,77.7693806,13.2262994,13.266299400000001,77.7493806,77.7893806,562110,Hosakote,BANGALORE RURAL,KARNATAKA
770,Mulli Amanikere,Devanahalli S.O,,,,,,,562110,Devanahalli,BANGALORE RURAL,KARNATAKA
771,Shanappanahalli,Vishwanathapura B.O,,,,,,,562110,Devanahalli,BANGALORE RURAL,KARNATAKA
772,Singrahalli,Hegganahalli B.O,,,,,,,562110,Devanahalli,BANGALORE RURAL,KARNATAKA
773,Sunnagatta,Alurduddanahalli B.O,,,,,,,562110,Devanahalli,BANGALORE RURAL,KARNATAKA
774,Thellohalli Agrahara,Yeliyur B.O,,,,,,,562110,Devanahalli,BANGALORE RURAL,KARNATAKA
775,Akkupet,Devanahalli S.O,,,,,,,562110,Devanahalli,BANGALORE RURAL,KARNATAKA
776,Anneswara,Anneshwara B.O,,,,,,,562110,Devanahalli,BANGALORE RURAL,KARNATAKA
777,Boovanahalli,Doddasanne B.O,,,,,,,562110,Devanahalli,BANGALORE RURAL,KARNATAKA
778,Doddasanne,Doddasanne B.O,13.2177635,77.69410390000002,13.1977635,13.237763500000002,77.6741039,77.71410390000001,562110,Devanahalli,BANGALORE RURAL,KARNATAKA
779,Haralur Nagenahalli,Yeliyur B.O,,,,,,,562110,Devanahalli,BANGALORE RURAL,KARNATAKA
780,Sanne Amanikere,Devanahalli S.O,,,,,,,562110,Devanahalli,BANGALORE RURAL,KARNATAKA
781,Yerrappanahalli,Anneshwara B.O,13.2172834,77.7027166,13.1972834,13.2372834,77.68271659999999,77.7227166,562110,Devanahalli,BANGALORE RURAL,KARNATAKA
782,Bammanahalli,Yeliyur B.O,,,,,,,562110,Devanahalli,BANGALORE RURAL,KARNATAKA
783,Bannimangala Amanikere,Alurduddanahalli B.O,,,,,,,562110,Devanahalli,BANGALORE RURAL,KARNATAKA
784,Chikkannanahosahalli,Aradeshanahalli B.O,,,,,,,562110,Devanahalli,BANGALORE RURAL,KARNATAKA
785,Dyavarahalli,Jalige B.O,13.2401967,77.5986857,13.2201967,13.2601967,77.57868570000001,77.61868570000001,562110,Devanahalli,BANGALORE RURAL,KARNATAKA
786,Nagamangala,Hegganahalli B.O,13.303352300000002,77.8419141,13.283352300000002,13.323352300000002,77.8219141,77.86191409999999,562110,Devanahalli,BANGALORE RURAL,KARNATAKA
787,Neraganahalli,Kundana B.O,13.2361351,77.6297013,13.216135099999999,13.2561351,77.6097013,77.64970129999999,562110,Devanahalli,BANGALORE RURAL,KARNATAKA
788,Thimmegowdana Hosahalli,Uganavadi B.O,,,,,,,562110,Devanahalli,BANGALORE RURAL,KARNATAKA
789,Aradeshahalli,Aradeshanahalli B.O,,,,,,,562110,Devanahalli,BANGALORE RURAL,KARNATAKA
790,Boodihal,Yeliyur B.O,,,,,,,562110,Devanahalli,BANGALORE RURAL,KARNATAKA
791,Chowdenahalli,Hegganahalli B.O,12.8816103,77.75687629999999,12.8815603,12.8816603,77.75682629999999,77.75692629999999,562110,Devanahalli,BANGALORE RURAL,KARNATAKA
792,Gangamuthanahalli,Anneshwara B.O,,,,,,,562110,Devanahalli,BANGALORE RURAL,KARNATAKA
793,Gururayana Hosur,Devanahalli S.O,,,,,,,562110,Devanahalli,BANGALORE RURAL,KARNATAKA
794,Hegganahalli,Hegganahalli B.O,13.218732600000001,77.6104355,13.1987326,13.2387326,77.5904355,77.6304355,562110,Devanahalli,BANGALORE RURAL,KARNATAKA
795,Indrasanahalli,Hegganahalli B.O,13.225742000000002,77.6140746,13.205742,13.245742000000002,77.5940746,77.63407459999999,562110,Devanahalli,BANGALORE RURAL,KARNATAKA
796,Jalige,Jalige B.O,13.2265508,77.58439820000001,13.2065508,13.2465508,77.56439820000001,77.6043982,562110,Devanahalli,BANGALORE RURAL,KARNATAKA
797,Kempalingapura,Kannamangala B.O,,,,,,,562110,Devanahalli,BANGALORE RURAL,KARNATAKA
798,Pandithapura,Jalige B.O,,,,,,,562110,Devanahalli,BANGALORE RURAL,KARNATAKA
799,Sadenahalli,Aradeshanahalli B.O,13.475491199999999,77.6015103,13.455491199999997,13.495491199999998,77.5815103,77.6215103,562110,Bangalore North,BANGALORE,KARNATAKA
800,Setterahalli,Vishwanathapura B.O,,,,,,,562110,Devanahalli,BANGALORE RURAL,KARNATAKA
801,Chikkachimanahalli,Kundana B.O,,,,,,,562110,Devanahalli,BANGALORE RURAL,KARNATAKA
802,Chinnakempanahalli,Uganavadi B.O,,,,,,,562110,Devanahalli,BANGALORE RURAL,KARNATAKA
803,Guduvanahalli,Yeliyur B.O,,,,,,,562110,Devanahalli,BANGALORE RURAL,KARNATAKA
804,Hire Amanikere,Devanahalli S.O,,,,,,,562110,Devanahalli,BANGALORE RURAL,KARNATAKA
805,Jogahalli,Sadahalli B.O,,,,,,,562110,Devanahalli,BANGALORE RURAL,KARNATAKA
806,Pujanahalli,Kannamangala B.O,13.430801800000001,77.7531182,13.410801800000002,13.4508018,77.7331182,77.7731182,562110,Devanahalli,BANGALORE RURAL,KARNATAKA
807,Srothreyathellohalli,Yeliyur B.O,,,,,,,562110,Devanahalli,BANGALORE RURAL,KARNATAKA
808,Uganavadi,Uganavadi B.O,13.236587900000002,77.665414,13.216587900000002,13.256587900000001,77.645414,77.685414,562110,Devanahalli,BANGALORE RURAL,KARNATAKA
809,Vishwanathapura,Vishwanathapura B.O,13.273528500000001,77.64909940000001,13.2535285,13.2935285,77.6290994,77.66909940000001,562110,Devanahalli,BANGALORE RURAL,KARNATAKA
810,Alurdoddanahalli,Alurduddanahalli B.O,,,,,,,562110,Devanahalli,BANGALORE RURAL,KARNATAKA
811,Bettenahalli,Hegganahalli B.O,13.2086636,77.5886003,13.1886636,13.228663599999999,77.5686003,77.6086003,562110,Devanahalli,BANGALORE RURAL,KARNATAKA
812,Binnamangala,Yeliyur B.O,13.460950199999997,77.87361820000001,13.440950199999998,13.480950199999997,77.8536182,77.8936182,562110,Devanahalli,BANGALORE RURAL,KARNATAKA
813,Bychapura,Anneshwara B.O,,,,,,,562110,Devanahalli,BANGALORE RURAL,KARNATAKA
814,Chikkasanne,Doddasanne B.O,,,,,,,562110,Devanahalli,BANGALORE RURAL,KARNATAKA
815,Chikkobanahalli,Alurduddanahalli B.O,13.2893807,77.62192879999999,13.2693807,13.3093807,77.6019288,77.64192879999999,562110,Devanahalli,BANGALORE RURAL,KARNATAKA
816,Doddappanahalli,Kannamangala B.O,,,,,,,562110,Devanahalli,BANGALORE RURAL,KARNATAKA
817,Ilathore,Hegganahalli B.O,,,,,,,562110,Devanahalli,BANGALORE RURAL,KARNATAKA
818,Kamenahalli,Jalige B.O,13.2242288,77.5925117,13.2042288,13.2442288,77.5725117,77.61251170000001,562110,Devanahalli,BANGALORE RURAL,KARNATAKA
819,Kurubarakunte,Yeliyur B.O,13.272051600000001,77.7378897,13.2520516,13.2920516,77.7178897,77.75788969999999,562110,Devanahalli,BANGALORE RURAL,KARNATAKA
820,Sulakunte,Kundana B.O,13.254022500000001,77.6005202,13.2340225,13.274022500000001,77.58052020000001,77.6205202,562110,Devanahalli,BANGALORE RURAL,KARNATAKA
821,Suradenpura,Aradeshanahalli B.O,,,,,,,562110,Bangalore North,BANGALORE,KARNATAKA
822,Thimmanahalli,Yeliyur B.O,12.962634699999999,77.7770775,12.9426347,12.9826347,77.75707750000001,77.7970775,562110,Devanahalli,BANGALORE RURAL,KARNATAKA
823,Yaleyur,Yeliyur B.O,,,,,,,562110,Devanahalli,BANGALORE RURAL,KARNATAKA
824,Bachahalli,Kundana B.O,13.2466758,77.53227209999999,13.2266758,13.2666758,77.51227209999999,77.5522721,562110,Devanahalli,BANGALORE RURAL,KARNATAKA
825,Beerasandra,Alurduddanahalli B.O,,,,,,,562110,Devanahalli,BANGALORE RURAL,KARNATAKA
826,Devaganahalli,Uganavadi B.O,13.2531396,77.6485304,13.233139600000001,13.2731396,77.6285304,77.6685304,562110,Devanahalli,BANGALORE RURAL,KARNATAKA
827,Gokare,Yeliyur B.O,,,,,,,562110,Devanahalli,BANGALORE RURAL,KARNATAKA
828,Kundana,Kundana B.O,13.257088000000001,77.6284828,13.237088,13.277088000000001,77.6084828,77.6484828,562110,Devanahalli,BANGALORE RURAL,KARNATAKA
829,Aladahalli,Billanakote B.O,,,,,,,562111,Nelamangala,BANGALORE RURAL,KARNATAKA
830,Gottikere,Shivagange B.O,,,,,,,562111,Nelamangala,BANGALORE RURAL,KARNATAKA
831,Govindapura,Heggunda B.O,13.130898,77.30810509999999,13.110898,13.150898000000002,77.2881051,77.3281051,562111,Bangalore North,BANGALORE,KARNATAKA
832,Kamalapura,Devarahosahalli B.O,13.2308346,77.19307049999999,13.210834599999998,13.2508346,77.1730705,77.2130705,562111,Nelamangala,BANGALORE RURAL,KARNATAKA
833,Lakkasandra,Arebommnahalli B.O,12.794324900000001,77.3278888,12.774324900000002,12.8143249,77.30788879999999,77.34788879999999,562111,Nelamangala,BANGALORE RURAL,KARNATAKA
834,Madaga,Maralakunte B.O,,,,,,,562111,Nelamangala,BANGALORE RURAL,KARNATAKA
835,Avverahalli,Billanakote B.O,13.192457000000001,77.2529148,13.172457000000001,13.212457,77.23291479999999,77.2729148,562111,Nelamangala,BANGALORE RURAL,KARNATAKA
836,Billanakote,Billanakote B.O,,,,,,,562111,Nelamangala,BANGALORE RURAL,KARNATAKA
837,Chandanahosahalli,Dobbespet S.O,,,,,,,562111,Nelamangala,BANGALORE RURAL,KARNATAKA
838,Kengalkempohalli,Billanakote B.O,,,,,,,562111,Nelamangala,BANGALORE RURAL,KARNATAKA
839,Kerekattiganoor,Billanakote B.O,,,,,,,562111,Nelamangala,BANGALORE RURAL,KARNATAKA
840,Kuruvel Thimmanahalli,Yelekyathanahalli B.O,,,,,,,562111,Nelamangala,BANGALORE RURAL,KARNATAKA
841,Melekattiganoor,Arebommnahalli B.O,,,,,,,562111,Nelamangala,BANGALORE RURAL,KARNATAKA
842,Nijagal Kempohalli,Lakkur B.O,13.2557649,77.2471588,13.235764900000001,13.2757649,77.2271588,77.2671588,562111,Nelamangala,BANGALORE RURAL,KARNATAKA
843,Agalakuppa,Dobbespet S.O,,,,,,,562111,Nelamangala,BANGALORE RURAL,KARNATAKA
844,Alunaikanahalli,Kuluvanahalli B.O,,,,,,,562111,Nelamangala,BANGALORE RURAL,KARNATAKA
845,Arebommanahalli,Arebommnahalli B.O,13.143150199999997,77.2852137,13.123150199999998,13.163150199999999,77.2652137,77.3052137,562111,Nelamangala,BANGALORE RURAL,KARNATAKA
846,Bettadahosahalli,Narasipura B.O,,,,,,,562111,Nelamangala,BANGALORE RURAL,KARNATAKA
847,Bharathipura,Billanakote B.O,,,,,,,562111,Nelamangala,BANGALORE RURAL,KARNATAKA
848,Imchanahalli,Narasipura B.O,,,,,,,562111,Nelamangala,BANGALORE RURAL,KARNATAKA
849,Lakkuru,Lakkur B.O,13.2385902,77.2439768,13.2185902,13.2585902,77.22397679999999,77.2639768,562111,Nelamangala,BANGALORE RURAL,KARNATAKA
850,Nijagal,Devarahosahalli B.O,13.2557649,77.2471588,13.235764900000001,13.2757649,77.2271588,77.2671588,562111,Nelamangala,BANGALORE RURAL,KARNATAKA
851,Basavapatna,Kambalu B.O,,,,,,,562111,Nelamangala,BANGALORE RURAL,KARNATAKA
852,DOBBESPET,Dobbespet S.O,13.230746100000001,77.2425462,13.230696100000001,13.230796100000001,77.2424962,77.24259620000001,562111,Nelamangala,BANGALORE RURAL,KARNATAKA
853,Gantehosahalli,Kambalu B.O,,,,,,,562111,Nelamangala,BANGALORE RURAL,KARNATAKA
854,Goravanahalli,Kambalu B.O,13.472142800000002,77.2827029,13.4521428,13.492142800000002,77.26270290000001,77.30270290000001,562111,Nelamangala,BANGALORE RURAL,KARNATAKA
855,Halenijagal,Devarahosahalli B.O,13.2528905,77.2025111,13.2328905,13.272890499999999,77.18251109999999,77.22251109999999,562111,Nelamangala,BANGALORE RURAL,KARNATAKA
856,Hanumanthapura,Billanakote B.O,,,,,,,562111,Nelamangala,BANGALORE RURAL,KARNATAKA
857,Kambal,Kambalu B.O,12.986667,77.60442040000001,12.9855324,12.9872888,77.60391429999999,77.605358,562111,Nelamangala,BANGALORE RURAL,KARNATAKA
858,Kasaragatta,Kambalu B.O,,,,,,,562111,Nelamangala,BANGALORE RURAL,KARNATAKA
859,Kuthagatta,Shivagange B.O,,,,,,,562111,Nelamangala,BANGALORE RURAL,KARNATAKA
860,Shivagange,Shivagange B.O,13.178154199999998,77.2287036,13.158154199999998,13.1981542,77.20870359999999,77.2487036,562111,Nelamangala,BANGALORE RURAL,KARNATAKA
861,Sripathihalli,Baragenahalli B.O,,,,,,,562111,Nelamangala,BANGALORE RURAL,KARNATAKA
862,Benchanahalli,Yelekyathanahalli B.O,,,,,,,562111,Nelamangala,BANGALORE RURAL,KARNATAKA
863,Chikkanapalya,Maralakunte B.O,,,,,,,562111,Nelamangala,BANGALORE RURAL,KARNATAKA
864,Gangenapura,Shivagange B.O,13.1747274,77.2112628,13.1547274,13.1947274,77.1912628,77.2312628,562111,Nelamangala,BANGALORE RURAL,KARNATAKA
865,Jajoor,Narasipura B.O,,,,,,,562111,Nelamangala,BANGALORE RURAL,KARNATAKA
866,Kallunaikanahalli,Dobbespet S.O,,,,,,,562111,Nelamangala,BANGALORE RURAL,KARNATAKA
867,Karimanne,Heggunda B.O,13.2583811,77.25996500000001,13.238381099999998,13.278381099999999,77.239965,77.279965,562111,Nelamangala,BANGALORE RURAL,KARNATAKA
868,Kuluvanahalli,Kuluvanahalli B.O,,,,,,,562111,Nelamangala,BANGALORE RURAL,KARNATAKA
869,Narasipura,Narasipura B.O,13.110049900000002,77.4630552,13.0900499,13.130049900000001,77.4430552,77.4830552,562111,Bangalore North,BANGALORE,KARNATAKA
870,Pemmanahalli,Lakkur B.O,13.0171123,77.30355870000001,12.997112300000001,13.0371123,77.2835587,77.3235587,562111,Nelamangala,BANGALORE RURAL,KARNATAKA
871,Sulkunte,Kuluvanahalli B.O,,,,,,,562111,Nelamangala,BANGALORE RURAL,KARNATAKA
872,Thimmanaikanahalli,Lakkur B.O,,,,,,,562111,Nelamangala,BANGALORE RURAL,KARNATAKA
873,Baragoor,Maralakunte B.O,,,,,,,562111,Nelamangala,BANGALORE RURAL,KARNATAKA
874,Gowrapura,Shivagange B.O,,,,,,,562111,Nelamangala,BANGALORE RURAL,KARNATAKA
875,Totanahalli,Billanakote B.O,,,,,,,562111,Nelamangala,BANGALORE RURAL,KARNATAKA
876,Yelekyathanahalli,Yelekyathanahalli B.O,,,,,,,562111,Nelamangala,BANGALORE RURAL,KARNATAKA
877,Biragondanahalli,Devarahosahalli B.O,,,,,,,562111,Nelamangala,BANGALORE RURAL,KARNATAKA
878,Devarahosahalli,Devarahosahalli B.O,,,,,,,562111,Nelamangala,BANGALORE RURAL,KARNATAKA
879,Giriyanapalya,Maralakunte B.O,,,,,,,562111,Nelamangala,BANGALORE RURAL,KARNATAKA
880,Heggunda,Heggunda B.O,13.2775355,77.2599783,13.257535500000001,13.2975355,77.23997829999999,77.2799783,562111,Nelamangala,BANGALORE RURAL,KARNATAKA
881,Hulleharve,Maralakunte B.O,,,,,,,562111,Nelamangala,BANGALORE RURAL,KARNATAKA
882,Kempapura Agrahara,Arebommnahalli B.O,13.154848199999998,77.2895786,13.134848199999999,13.1748482,77.2695786,77.3095786,562111,Nelamangala,BANGALORE RURAL,KARNATAKA
883,Mahimapura,Kuluvanahalli B.O,,,,,,,562111,Nelamangala,BANGALORE RURAL,KARNATAKA
884,Makenahalli,Narasipura B.O,13.2977286,77.2360378,13.2777286,13.317728599999999,77.21603780000001,77.2560378,562111,Nelamangala,BANGALORE RURAL,KARNATAKA
885,Thalekere,Kuluvanahalli B.O,,,,,,,562111,Nelamangala,BANGALORE RURAL,KARNATAKA
886,Yedehalli,Dobbespet S.O,,,,,,,562111,Nelamangala,BANGALORE RURAL,KARNATAKA
887,Bargenahalli,Baragenahalli B.O,,,,,,,562111,Nelamangala,BANGALORE RURAL,KARNATAKA
888,Bennegere,Yelekyathanahalli B.O,,,,,,,562111,Nelamangala,BANGALORE RURAL,KARNATAKA
889,Bugadihalli,Narasipura B.O,13.2740521,77.2445941,13.254052100000001,13.2940521,77.2245941,77.2645941,562111,Nelamangala,BANGALORE RURAL,KARNATAKA
890,Channohalli,Narasipura B.O,13.262766699999998,77.2417304,13.242766699999999,13.282766699999998,77.2217304,77.2617304,562111,Nelamangala,BANGALORE RURAL,KARNATAKA
891,Dodderi,Kuluvanahalli B.O,13.1717322,77.30949790000001,13.151732199999998,13.191732199999999,77.2894979,77.3294979,562111,Nelamangala,BANGALORE RURAL,KARNATAKA
892,Govenahalli,Kuluvanahalli B.O,13.179766,77.3081442,13.159766000000001,13.199766,77.2881442,77.3281442,562111,Nelamangala,BANGALORE RURAL,KARNATAKA
893,Halkur,Arebommnahalli B.O,,,,,,,562111,Nelamangala,BANGALORE RURAL,KARNATAKA
894,Kengal,Baragenahalli B.O,13.210209599999999,77.2272543,13.1902096,13.230209599999998,77.20725429999999,77.2472543,562111,Nelamangala,BANGALORE RURAL,KARNATAKA
895,Kodigebommanahalli,Arebommnahalli B.O,,,,,,,562111,Nelamangala,BANGALORE RURAL,KARNATAKA
896,Kuntbommanahalli,Maralakunte B.O,,,,,,,562111,Nelamangala,BANGALORE RURAL,KARNATAKA
897,Maddenahalli,Lakkur B.O,,,,,,,562111,Nelamangala,BANGALORE RURAL,KARNATAKA
898,Maralakunte,Maralakunte B.O,13.455622,77.7949398,13.435622,13.475622,77.7749398,77.81493979999999,562111,Nelamangala,BANGALORE RURAL,KARNATAKA
899,Sompura,Dobbespet S.O,12.877828300000001,77.4972385,12.857828300000001,12.8978283,77.4772385,77.5172385,562111,Nelamangala,BANGALORE RURAL,KARNATAKA
900,Sulikunte,Kuluvanahalli B.O,13.4964256,77.7374318,13.476425599999999,13.5164256,77.7174318,77.75743179999999,562111,Dod Ballapur,BANGALORE RURAL,KARNATAKA
901,Belamangala,Jadigenahalli B.O,13.0515684,77.86476280000001,13.031568400000001,13.0715684,77.8447628,77.8847628,562114,Hosakote,BANGALORE RURAL,KARNATAKA
902,Bommanabande,Kattigenahalli B.O,13.012377800000001,77.87319740000001,12.9923778,13.0323778,77.8531974,77.8931974,562114,Hosakote,BANGALORE RURAL,KARNATAKA
903,Chikkagattiganabbe,Doddagattiganabbe B.O,,,,,,,562114,Hosakote,BANGALORE RURAL,KARNATAKA
904,Doddagattiganabbe,Doddagattiganabbe B.O,,,,,,,562114,Hosakote,BANGALORE RURAL,KARNATAKA
905,Doddanallurahalli,Kembliganahalli B.O,13.118813699999999,77.86262959999999,13.0988137,13.138813699999998,77.8426296,77.8826296,562114,Hosakote,BANGALORE RURAL,KARNATAKA
906,Doddathaggali,Jadigenahalli B.O,,,,,,,562114,Hosakote,BANGALORE RURAL,KARNATAKA
907,Kannurahalli,Doddagattiganabbe B.O,13.0598957,77.8075369,13.039895699999999,13.0798957,77.7875369,77.82753690000001,562114,Hosakote,BANGALORE RURAL,KARNATAKA
908,Karibeeranahosahalli,Jadigenahalli B.O,,,,,,,562114,Hosakote,BANGALORE RURAL,KARNATAKA
909,M.Sathyawara,Hasigala B.O,,,,,,,562114,Hosakote,BANGALORE RURAL,KARNATAKA
910,Mugabala Hosahalli,Mugabala B.O,13.1060681,77.88073840000001,13.0860681,13.126068099999998,77.8607384,77.90073840000001,562114,Hosakote,BANGALORE RURAL,KARNATAKA
911,Nakkanahalli,Kembliganahalli B.O,13.128400099999999,77.86879509999999,13.108400099999999,13.148400099999998,77.84879509999999,77.88879509999998,562114,Hosakote,BANGALORE RURAL,KARNATAKA
912,Sarakariguttahalli,Doddagattiganabbe B.O,,,,,,,562114,Hosakote,BANGALORE RURAL,KARNATAKA
913,Siddanapura,Kembliganahalli B.O,12.874067,77.8533053,12.854067,12.894067,77.83330529999999,77.8733053,562114,Hosakote,BANGALORE RURAL,KARNATAKA
914,Chikkanallala,Doddanallala B.O,13.097328599999999,77.8961209,13.0773286,13.117328599999999,77.8761209,77.91612090000001,562114,Hosakote,BANGALORE RURAL,KARNATAKA
915,Devasettihalli,Mugabala B.O,,,,,,,562114,Hosakote,BANGALORE RURAL,KARNATAKA
916,Ganagalu,Doddagattiganabbe B.O,,,,,,,562114,Hosakote,BANGALORE RURAL,KARNATAKA
917,Jadigenahalli,Jadigenahalli B.O,13.0510014,77.85255140000001,13.031001400000001,13.071001400000002,77.83255140000001,77.8725514,562114,Hosakote,BANGALORE RURAL,KARNATAKA
918,Kolathur,Kollathur B.O,13.0850337,77.825159,13.0849837,13.0850837,77.825109,77.825209,562114,Hosakote,BANGALORE RURAL,KARNATAKA
919,Orohalli,Jadigenahalli B.O,13.0593883,77.8742955,13.0393883,13.0793883,77.85429549999999,77.8942955,562114,Hosakote,BANGALORE RURAL,KARNATAKA
920,Paramanahalli,Vagata Agrahara B.O,13.0085338,77.84375940000001,12.9885338,13.0285338,77.8237594,77.8637594,562114,Hosakote,BANGALORE RURAL,KARNATAKA
921,Sarakar Vaddahalli,Doddagattiganabbe B.O,,,,,,,562114,Hosakote,BANGALORE RURAL,KARNATAKA
922,Yelachammanahalli,Doddanallala B.O,,,,,,,562114,Hosakote,BANGALORE RURAL,KARNATAKA
923,Chokkahalli,Hoskote Indl. Area B.O,13.396047400000002,77.73532890000001,13.376047400000001,13.416047400000002,77.71532890000002,77.75532890000001,562114,Hosakote,BANGALORE RURAL,KARNATAKA
924,Doddadenahalli,Doddanallala B.O,13.0669382,77.9210437,13.0469382,13.0869382,77.9010437,77.94104370000001,562114,Hosakote,BANGALORE RURAL,KARNATAKA
925,Ganagalur,Doddagattiganabbe B.O,,,,,,,562114,Hosakote,BANGALORE RURAL,KARNATAKA
926,Halasakaipura,Doddanallala B.O,,,,,,,562114,Hosakote,BANGALORE RURAL,KARNATAKA
927,Jodidasarahalli,Jodidasarahalli B.O,,,,,,,562114,Hosakote,BANGALORE RURAL,KARNATAKA
928,Poojena Agrahara,Doddagattiganabbe B.O,,,,,,,562114,Hosakote,BANGALORE RURAL,KARNATAKA
929,Sonnahallipura,Hasigala B.O,,,,,,,562114,Hosakote,BANGALORE RURAL,KARNATAKA
930,Cheemandahalli,Doddagattiganabbe B.O,,,,,,,562114,Hosakote,BANGALORE RURAL,KARNATAKA
931,Doddadasarahalli,Vagata Agrahara B.O,13.352878,77.8984036,13.332878,13.372878,77.8784036,77.91840359999999,562114,Hosakote,BANGALORE RURAL,KARNATAKA
932,Gonakanahalli,Jadigenahalli B.O,13.0511629,77.8691213,13.0311629,13.071162900000001,77.8491213,77.8891213,562114,Hosakote,BANGALORE RURAL,KARNATAKA
933,K.G.Govindapura,Jadigenahalli B.O,13.130898,77.30810509999999,13.110898,13.150898000000002,77.2881051,77.3281051,562114,Dod Ballapur,BANGALORE RURAL,KARNATAKA
934,Valagerepura,Mugabala B.O,,,,,,,562114,Hosakote,BANGALORE RURAL,KARNATAKA
935,Attur,Jodidasarahalli B.O,13.107470499999998,77.5656853,13.107420499999998,13.107520499999998,77.5656353,77.5657353,562114,Hosakote,BANGALORE RURAL,KARNATAKA
936,Bhakthagondahalli,Kattigenahalli B.O,,,,,,,562114,Hosakote,BANGALORE RURAL,KARNATAKA
937,Chikkahullur,Jodidasarahalli B.O,,,,,,,562114,Hosakote,BANGALORE RURAL,KARNATAKA
938,Doddanallala Plantation,Doddanallala B.O,13.0834921,77.8973974,13.0634921,13.1034921,77.8773974,77.9173974,562114,Hosakote,BANGALORE RURAL,KARNATAKA
939,Ekarajapura,Hasigala B.O,13.145725099999998,77.81669690000001,13.125725099999999,13.1657251,77.7966969,77.8366969,562114,Hosakote,BANGALORE RURAL,KARNATAKA
940,Gottipura,Jodidasarahalli B.O,13.1080522,77.85052259999999,13.0880522,13.128052199999999,77.8305226,77.87052259999999,562114,Hosakote,BANGALORE RURAL,KARNATAKA
941,Hunasehalli,Vagata Agrahara B.O,,,,,,,562114,Hosakote,BANGALORE RURAL,KARNATAKA
942,Jinnagara,Doddagattiganabbe B.O,13.0335782,77.821995,13.0135782,13.053578199999999,77.80199499999999,77.841995,562114,Hosakote,BANGALORE RURAL,KARNATAKA
943,Kamarasanahalli,Kattigenahalli B.O,13.0168093,77.86139159999999,12.9968093,13.036809300000002,77.8413916,77.8813916,562114,Hosakote,BANGALORE RURAL,KARNATAKA
944,Kurubara Gollahalli,Kattigenahalli B.O,,,,,,,562114,Hosakote,BANGALORE RURAL,KARNATAKA
945,Mugabala,Mugabala B.O,13.118766899999999,77.8897585,13.098766900000001,13.1387669,77.8697585,77.9097585,562114,Hosakote,BANGALORE RURAL,KARNATAKA
946,Poojaramanahalli,Mugabala B.O,13.121405800000002,77.9033624,13.1014058,13.141405800000001,77.88336240000001,77.9233624,562114,Hosakote,BANGALORE RURAL,KARNATAKA
947,Upparahalli,Kumbalahalli B.O,13.4804858,77.57385450000001,13.4604858,13.5004858,77.5538545,77.5938545,562114,Devanahalli,BANGALORE RURAL,KARNATAKA
948,Vagata Agrahara,Vagata Agrahara B.O,13.4955899,77.20148,13.475589900000001,13.5155899,77.18148000000001,77.22148,562114,Hosakote,BANGALORE RURAL,KARNATAKA
949,Alagondahalli,Doddanallala B.O,,,,,,,562114,Hosakote,BANGALORE RURAL,KARNATAKA
950,Chinnandahalli,Mugabala B.O,13.1100792,77.9053365,13.090079199999998,13.130079199999999,77.8853365,77.9253365,562114,Hosakote,BANGALORE RURAL,KARNATAKA
951,Devara Gollahalli,Kattigenahalli B.O,,,,,,,562114,Hosakote,BANGALORE RURAL,KARNATAKA
952,Doddanallala,Doddanallala B.O,13.0834921,77.8973974,13.0634921,13.1034921,77.8773974,77.9173974,562114,Hosakote,BANGALORE RURAL,KARNATAKA
953,Guguttahalli,Doddanallala B.O,13.0902249,77.9074822,13.070224900000001,13.1102249,77.88748220000001,77.9274822,562114,Hosakote,BANGALORE RURAL,KARNATAKA
954,Hasigala,Hasigala B.O,13.134522699999998,77.7756037,13.114522699999998,13.154522699999998,77.7556037,77.7956037,562114,Hosakote,BANGALORE RURAL,KARNATAKA
955,Kallahalli,Kumbalahalli B.O,13.1065809,77.7881984,13.086580900000001,13.1265809,77.7681984,77.80819840000001,562114,Hosakote,BANGALORE RURAL,KARNATAKA
956,Lakkondahalli,Lakkondanahalli B.O,13.118144000000001,77.7704722,13.098144,13.138144,77.7504722,77.79047220000001,562114,Hosakote,BANGALORE RURAL,KARNATAKA
957,Mylapura,Mugabala B.O,,,,,,,562114,Hosakote,BANGALORE RURAL,KARNATAKA
958,Pethanahalli,Doddagattiganabbe B.O,,,,,,,562114,Hosakote,BANGALORE RURAL,KARNATAKA
959,Shivadenahalli,Lakkondanahalli B.O,,,,,,,562114,Hosakote,BANGALORE RURAL,KARNATAKA
960,Vadigehalli,Jadigenahalli B.O,,,,,,,562114,Hosakote,BANGALORE RURAL,KARNATAKA
961,Vagata,Vagata Agrahara B.O,13.0233932,77.83617690000001,13.003393199999998,13.043393199999999,77.8161769,77.85617690000001,562114,Hosakote,BANGALORE RURAL,KARNATAKA
962,Yelachanayakanapura,Kumbalahalli B.O,,,,,,,562114,Hosakote,BANGALORE RURAL,KARNATAKA
963,Yenagunte,Hasigala B.O,,,,,,,562114,Hosakote,BANGALORE RURAL,KARNATAKA
964,Appasandra,Jadigenahalli B.O,13.062717,77.8963267,13.042717,13.082717,77.87632669999999,77.9163267,562114,Hosakote,BANGALORE RURAL,KARNATAKA
965,Arlemakanahalli,Jadigenahalli B.O,,,,,,,562114,Hosakote,BANGALORE RURAL,KARNATAKA
966,Attivatta,Jodidasarahalli B.O,13.086733800000001,77.8519458,13.0667338,13.1067338,77.8319458,77.87194579999999,562114,Hosakote,BANGALORE RURAL,KARNATAKA
967,Chikkathaggali,Jadigenahalli B.O,,,,,,,562114,Hosakote,BANGALORE RURAL,KARNATAKA
968,Doddahullur,Jodidasarahalli B.O,,,,,,,562114,Hosakote,BANGALORE RURAL,KARNATAKA
969,Kumbalahalli,Kumbalahalli B.O,13.0924523,77.79296640000001,13.0724523,13.112452300000001,77.77296640000002,77.81296640000001,562114,Hosakote,BANGALORE RURAL,KARNATAKA
970,Pillagumpe,Hoskote Indl. Area B.O,13.111995499999999,77.838515,13.0919955,13.131995499999999,77.818515,77.858515,562114,Hosakote,BANGALORE RURAL,KARNATAKA
971,Sadappanahalli,Hasigala B.O,13.160804,77.7973268,13.140804000000001,13.180804,77.7773268,77.81732679999999,562114,Hosakote,BANGALORE RURAL,KARNATAKA
972,Siddapura,Kembliganahalli B.O,12.954259599999999,77.7309743,12.934259599999999,12.9742596,77.7109743,77.7509743,562114,Hosakote,BANGALORE RURAL,KARNATAKA
973,Sonnadenahalli,Kumbalahalli B.O,13.0908884,77.8061182,13.070888400000001,13.110888399999999,77.7861182,77.8261182,562114,Hosakote,BANGALORE RURAL,KARNATAKA
974,Thaggali Hosahalli,Jadigenahalli B.O,,,,,,,562114,Hosakote,BANGALORE RURAL,KARNATAKA
975,Appasandra Plantation,Jadigenahalli B.O,13.062717,77.8963267,13.042717,13.082717,77.87632669999999,77.9163267,562114,Hosakote,BANGALORE RURAL,KARNATAKA
976,Arlemakanahalli Plantation,Jadigenahalli B.O,,,,,,,562114,Hosakote,BANGALORE RURAL,KARNATAKA
977,Dabbagunte,Doddanallala B.O,13.0964312,77.89131390000001,13.076431199999998,13.116431200000001,77.8713139,77.91131390000001,562114,Hosakote,BANGALORE RURAL,KARNATAKA
978,Dodda Amanikere,Doddagattiganabbe B.O,,,,,,,562114,Hosakote,BANGALORE RURAL,KARNATAKA
979,Injanahalli,Jadigenahalli B.O,13.0621725,77.8837074,13.042172500000001,13.0821725,77.8637074,77.9037074,562114,Hosakote,BANGALORE RURAL,KARNATAKA
980,Jadigenahalli Plantation,Jadigenahalli B.O,13.0510014,77.85255140000001,13.031001400000001,13.071001400000002,77.83255140000001,77.8725514,562114,Hosakote,BANGALORE RURAL,KARNATAKA
981,Kembaliganahalli,Kembliganahalli B.O,,,,,,,562114,Hosakote,BANGALORE RURAL,KARNATAKA
982,Khajihosahalli,Kattigenahalli B.O,,,,,,,562114,Hosakote,BANGALORE RURAL,KARNATAKA
983,Makanahalli,Vagata Agrahara B.O,13.0091351,77.82840920000001,12.9891351,13.0291351,77.8084092,77.8484092,562114,Hosakote,BANGALORE RURAL,KARNATAKA
984,Mallyappanahalli,Kembliganahalli B.O,,,,,,,562114,Hosakote,BANGALORE RURAL,KARNATAKA
985,Nidagatta,Jodidasarahalli B.O,,,,,,,562114,Hosakote,BANGALORE RURAL,KARNATAKA
986,Shankanipura,Lakkondanahalli B.O,13.1049101,77.77116740000001,13.0849101,13.1249101,77.75116740000001,77.7911674,562114,Hosakote,BANGALORE RURAL,KARNATAKA
987,Thavatahalli,Jadigenahalli B.O,13.0772218,77.870232,13.0572218,13.097221800000002,77.85023199999999,77.890232,562114,Hosakote,BANGALORE RURAL,KARNATAKA
988,Thimmapura,Doddanallala B.O,,,,,,,562114,Hosakote,BANGALORE RURAL,KARNATAKA
989,Ummalu,Doddanallala B.O,13.073314199999999,77.938355,13.053314199999999,13.0933142,77.918355,77.95835500000001,562114,Hosakote,BANGALORE RURAL,KARNATAKA
990,Narayanapura,Narayanapura B.O,13.3397035,77.76349499999999,13.319703500000001,13.3597035,77.743495,77.783495,562117,Nelamangala,BANGALORE RURAL,KARNATAKA
991,Sevanagara,Bachenahatti B.O,,,,,,,562120,Dod Ballapur,BANGALORE RURAL,KARNATAKA
992,Bheemapura,Shivanapura B.O,,,,,,,562122,Hosakote,BANGALORE RURAL,KARNATAKA
993,Chikkondahalli,Hindaganala B.O,13.238218700000001,77.9374066,13.218218700000001,13.2582187,77.91740659999999,77.9574066,562122,Hosakote,BANGALORE RURAL,KARNATAKA
994,Doddenahalli,K.Satyavara B.O,,,,,,,562122,Hosakote,BANGALORE RURAL,KARNATAKA
995,Gangapura,Tavarekere B.O,13.0483984,77.8926359,13.0283984,13.0683984,77.8726359,77.91263590000001,562122,Hosakote,BANGALORE RURAL,KARNATAKA
996,Hindiganala,Hindaganala B.O,13.221751500000002,77.9126342,13.201751500000002,13.241751500000001,77.8926342,77.93263420000001,562122,Hosakote,BANGALORE RURAL,KARNATAKA
997,Hosavenkatapura,Hindaganala B.O,,,,,,,562122,Hosakote,BANGALORE RURAL,KARNATAKA
998,Mothakadahalli,Bylanarasapura B.O,,,,,,,562122,Hosakote,BANGALORE RURAL,KARNATAKA
999,Yethinavadeyarapura,Nelavagilu B.O,,,,,,,562122,Hosakote,BANGALORE RURAL,KARNATAKA
1000,Bhuvanahalli,K.Satyavara B.O,13.2176918,77.6816863,13.197691800000001,13.2376918,77.6616863,77.7016863,562122,Hosakote,BANGALORE RURAL,KARNATAKA
1001,Chikkanallurahalli,Begur B.O,13.123888399999998,77.8504712,13.1038884,13.1438884,77.8304712,77.87047120000001,562122,Hosakote,BANGALORE RURAL,KARNATAKA
1002,Muddenahalli,Bylanarasapura B.O,13.407205599999998,77.696664,13.387205599999998,13.427205599999999,77.676664,77.716664,562122,Hosakote,BANGALORE RURAL,KARNATAKA
1003,Nandagudi,Nandagudi S.O,13.203219199999998,77.9013892,13.183219199999998,13.223219199999997,77.8813892,77.9213892,562122,Hosakote,BANGALORE RURAL,KARNATAKA
1004,Oblahalli,Bylanarasapura B.O,,,,,,,562122,Hosakote,BANGALORE RURAL,KARNATAKA
1005,Yeshvanthapura,Nelavagilu B.O,,,,,,,562122,Hosakote,BANGALORE RURAL,KARNATAKA
1006,Banahalli,Bylanarasapura B.O,13.214125899999999,77.9119475,13.1941259,13.234125899999999,77.8919475,77.93194749999999,562122,Hosakote,BANGALORE RURAL,KARNATAKA
1007,Banamakanahalli,Tavarekere B.O,13.1383701,77.93767640000002,13.1183701,13.1583701,77.9176764,77.95767640000001,562122,Hosakote,BANGALORE RURAL,KARNATAKA
1008,Bandahalli,Bylanarasapura B.O,13.4083841,77.703379,13.388384099999998,13.428384099999999,77.683379,77.72337900000001,562122,Hosakote,BANGALORE RURAL,KARNATAKA
1009,Bavapura,K.Satyavara B.O,,,,,,,562122,Hosakote,BANGALORE RURAL,KARNATAKA
1010,Bheemakkanahalli,Begur B.O,,,,,,,562122,Hosakote,BANGALORE RURAL,KARNATAKA
1011,Dimbahalli,K.Satyavara B.O,,,,,,,562122,Hosakote,BANGALORE RURAL,KARNATAKA
1012,Doddaramanahalli,Tavarekere B.O,,,,,,,562122,Hosakote,BANGALORE RURAL,KARNATAKA
1013,Gullenahalli,Shivanapura B.O,13.165470800000001,77.9063064,13.145470800000002,13.185470800000001,77.8863064,77.9263064,562122,Hosakote,BANGALORE RURAL,KARNATAKA
1014,Karahalli,Nelavagilu B.O,13.328109699999999,77.69035629999999,13.308109699999997,13.348109699999998,77.6703563,77.7103563,562122,Hosakote,BANGALORE RURAL,KARNATAKA
1015,Manchappanahalli,Tavarekere B.O,13.1221895,77.92273859999999,13.1021895,13.142189499999999,77.90273859999999,77.9427386,562122,Hosakote,BANGALORE RURAL,KARNATAKA
1016,N.Hosahalli,Bylanarasapura B.O,13.184356900000001,77.9286634,13.164356900000001,13.204356900000002,77.90866340000001,77.9486634,562122,Hosakote,BANGALORE RURAL,KARNATAKA
1017,Agrahara Vaddahalli,Nandagudi S.O,,,,,,,562122,Hosakote,BANGALORE RURAL,KARNATAKA
1018,Chowdasandra,Nandagudi S.O,,,,,,,562122,Hosakote,BANGALORE RURAL,KARNATAKA
1019,Gundrahalli,Korati B.O,13.167381099999998,77.9539793,13.147381099999999,13.187381099999998,77.93397929999999,77.9739793,562122,Hosakote,BANGALORE RURAL,KARNATAKA
1020,Hethakki,Bylanarasapura B.O,,,,,,,562122,Hosakote,BANGALORE RURAL,KARNATAKA
1021,K.Settihalli,Nelavagilu B.O,,,,,,,562122,Hosakote,BANGALORE RURAL,KARNATAKA
1022,Kolalachannenahalli,Tavarekere B.O,,,,,,,562122,Hosakote,BANGALORE RURAL,KARNATAKA
1023,Kondrahalli,Bylanarasapura B.O,13.179956400000002,77.9150976,13.1599564,13.199956400000001,77.89509759999999,77.93509759999999,562122,Hosakote,BANGALORE RURAL,KARNATAKA
1024,Marasandahalli,Bylanarasapura B.O,13.159831599999999,77.9444926,13.139831599999999,13.1798316,77.9244926,77.9644926,562122,Hosakote,BANGALORE RURAL,KARNATAKA
1025,Muthukadahalli,Begur B.O,,,,,,,562122,Hosakote,BANGALORE RURAL,KARNATAKA
1026,Nelavagilu,Nelavagilu B.O,13.2204772,77.93558409999999,13.2004772,13.240477199999999,77.91558409999999,77.9555841,562122,Hosakote,BANGALORE RURAL,KARNATAKA
1027,Chikkakoliga,Begur B.O,,,,,,,562122,Hosakote,BANGALORE RURAL,KARNATAKA
1028,Cholappanahalli,Begur B.O,13.1189775,77.8448493,13.0989775,13.1389775,77.8248493,77.8648493,562122,Hosakote,BANGALORE RURAL,KARNATAKA
1029,Dinnenahalli,Nandagudi S.O,,,,,,,562122,Dod Ballapur,BANGALORE RURAL,KARNATAKA
1030,Giddanahalli,Nandagudi S.O,,,,,,,562122,Hosakote,BANGALORE RURAL,KARNATAKA
1031,K.Sathyawara,K.Satyavara B.O,,,,,,,562122,Hosakote,BANGALORE RURAL,KARNATAKA
1032,Ramagovindapura,Nandagudi S.O,13.2083823,77.87892409999999,13.1883823,13.2283823,77.8589241,77.89892409999999,562122,Hosakote,BANGALORE RURAL,KARNATAKA
1033,Siddanahalli,Nelavagilu B.O,12.8942382,77.91361359999999,12.8742382,12.9142382,77.8936136,77.9336136,562122,Hosakote,BANGALORE RURAL,KARNATAKA
1034,Arlemakanahalli District Plantation,Nandagudi S.O,,,,,,,562122,Hosakote,BANGALORE RURAL,KARNATAKA
1035,Doddaganahalli,Korati B.O,13.1817041,77.9494243,13.1617041,13.2017041,77.92942430000001,77.9694243,562122,Hosakote,BANGALORE RURAL,KARNATAKA
1036,Doddakoliga,Begur B.O,13.159054800000002,77.8399397,13.1390548,13.179054800000001,77.8199397,77.8599397,562122,Hosakote,BANGALORE RURAL,KARNATAKA
1037,Esthur Amanikere,Nandagudi S.O,,,,,,,562122,Hosakote,BANGALORE RURAL,KARNATAKA
1038,Geddalahallipura,Nandagudi S.O,13.2234842,77.9155738,13.2034842,13.243484200000001,77.89557380000001,77.9355738,562122,Hosakote,BANGALORE RURAL,KARNATAKA
1039,Gerahalli,Tavarekere B.O,12.844247900000001,77.2460348,12.824247900000001,12.8642479,77.2260348,77.2660348,562122,Hosakote,BANGALORE RURAL,KARNATAKA
1040,Guddadachannenahalli,Tavarekere B.O,,,,,,,562122,Hosakote,BANGALORE RURAL,KARNATAKA
1041,Hedakanahalli,Korati B.O,13.1795418,77.95123740000001,13.159541800000001,13.1995418,77.9312374,77.9712374,562122,Hosakote,BANGALORE RURAL,KARNATAKA
1042,Korati,Korati B.O,,,,,,,562122,Hosakote,BANGALORE RURAL,KARNATAKA
1043,Malimakanapura,Begur B.O,,,,,,,562122,Hosakote,BANGALORE RURAL,KARNATAKA
1044,Medur,Bylanarasapura B.O,,,,,,,562122,Hosakote,BANGALORE RURAL,KARNATAKA
1045,Sonnebychanahalli,Begur B.O,13.145303899999998,77.84753570000001,13.125303899999999,13.1653039,77.82753570000001,77.8675357,562122,Hosakote,BANGALORE RURAL,KARNATAKA
1046,Sonnekempanahalli,Korati B.O,,,,,,,562122,Hosakote,BANGALORE RURAL,KARNATAKA
1047,Thavarekere,Tavarekere B.O,12.9221906,77.6105247,12.9221406,12.9222406,77.6104747,77.6105747,562122,Hosakote,BANGALORE RURAL,KARNATAKA
1048,Bagalur,Begur B.O,12.8310442,77.865842,12.8110442,12.851044199999999,77.845842,77.88584200000001,562122,Hosakote,BANGALORE RURAL,KARNATAKA
1049,Beerahalli,Shivanapura B.O,,,,,,,562122,Hosakote,BANGALORE RURAL,KARNATAKA
1050,D.Settihalli,K.Satyavara B.O,,,,,,,562122,Hosakote,BANGALORE RURAL,KARNATAKA
1051,Gullahalli,Begur B.O,13.169959200000001,77.83530479999999,13.1499592,13.1899592,77.81530479999999,77.8553048,562122,Hosakote,BANGALORE RURAL,KARNATAKA
1052,Huluvanahalli,Bylanarasapura B.O,13.1651772,77.9220974,13.1451772,13.1851772,77.9020974,77.94209740000001,562122,Hosakote,BANGALORE RURAL,KARNATAKA
1053,Ittasandra,Nandagudi S.O,13.219807099999999,77.88229129999999,13.1998071,13.2398071,77.8622913,77.90229129999999,562122,Hosakote,BANGALORE RURAL,KARNATAKA
1054,Kalappanahalli,Tavarekere B.O,13.1218948,77.9320513,13.1018948,13.141894800000001,77.91205129999999,77.9520513,562122,Hosakote,BANGALORE RURAL,KARNATAKA
1055,Mumynahosahalli,K.Satyavara B.O,,,,,,,562122,Hosakote,BANGALORE RURAL,KARNATAKA
1056,Nagarenahalli,Begur B.O,,,,,,,562122,Hosakote,BANGALORE RURAL,KARNATAKA
1057,Sarakanur,Nelavagilu B.O,,,,,,,562122,Hosakote,BANGALORE RURAL,KARNATAKA
1058,Sathigenahalli,Bylanarasapura B.O,,,,,,,562122,Hosakote,BANGALORE RURAL,KARNATAKA
1059,Shivanapura,Shivanapura B.O,13.0063924,77.86943559999999,12.9863924,13.0263924,77.84943559999999,77.88943559999998,562122,Hosakote,BANGALORE RURAL,KARNATAKA
1060,Agasarahalli,Tavarekere B.O,13.1530797,77.94103,13.1330797,13.173079699999999,77.92103,77.96103000000001,562122,Hosakote,BANGALORE RURAL,KARNATAKA
1061,Bylanarasapura,Bylanarasapura B.O,13.1769973,77.9356007,13.1569973,13.1969973,77.9156007,77.9556007,562122,Hosakote,BANGALORE RURAL,KARNATAKA
1062,Dalasagere,Nelavagilu B.O,13.241693,77.95651219999999,13.221693,13.261693,77.9365122,77.9765122,562122,Hosakote,BANGALORE RURAL,KARNATAKA
1063,Esthur,Nandagudi S.O,,,,,,,562122,Hosakote,BANGALORE RURAL,KARNATAKA
1064,Hosadimbahalli,K.Satyavara B.O,,,,,,,562122,Hosakote,BANGALORE RURAL,KARNATAKA
1065,Karapanahalli,K.Satyavara B.O,,,,,,,562122,Hosakote,BANGALORE RURAL,KARNATAKA
1066,Ralkunte,Hindaganala B.O,,,,,,,562122,Hosakote,BANGALORE RURAL,KARNATAKA
1067,Thiratahalli,Hindaganala B.O,,,,,,,562122,Hosakote,BANGALORE RURAL,KARNATAKA
1068,Yelachahalli,Tavarekere B.O,,,,,,,562122,Hosakote,BANGALORE RURAL,KARNATAKA
1069,Aralasandra,Madalakote B.O,,,,,,,562123,Nelamangala,BANGALORE RURAL,KARNATAKA
1070,Bardi,Mandigere B.O,,,,,,,562123,Nelamangala,BANGALORE RURAL,KARNATAKA
1071,Honnasandra,Honnasandra B.O,13.0406063,77.3373727,13.0206063,13.060606300000002,77.3173727,77.35737270000001,562123,Bangalore North,BANGALORE,KARNATAKA
1072,Kenchanahalli,Madalakote B.O,,,,,,,562123,Nelamangala,BANGALORE RURAL,KARNATAKA
1073,Kothanahalli,Honnasandra B.O,,,,,,,562123,Nelamangala,BANGALORE RURAL,KARNATAKA
1074,Machonaikanahalli,Budihal B.O,,,,,,,562123,Nelamangala,BANGALORE RURAL,KARNATAKA
1075,Nelamangala,Nelamangala S.O,13.095302400000001,77.39635859999999,13.0553024,13.1353024,77.3563586,77.43635859999999,562123,Nelamangala,BANGALORE RURAL,KARNATAKA
1076,Pallarahalli,Teppadabeguru B.O,,,,,,,562123,Nelamangala,BANGALORE RURAL,KARNATAKA
1077,Visveswarapura,Nelamangala S.O,,,,,,,562123,Nelamangala,BANGALORE RURAL,KARNATAKA
1078,Yelachagere,Nelamangala S.O,,,,,,,562123,Nelamangala,BANGALORE RURAL,KARNATAKA
1079,Araledibba,Teppadabeguru B.O,13.140653,77.3288307,13.120652999999999,13.160653,77.3088307,77.34883070000001,562123,Nelamangala,BANGALORE RURAL,KARNATAKA
1080,Arasinakunte,Arasinakunte B.O,,,,,,,562123,Nelamangala,BANGALORE RURAL,KARNATAKA
1081,Basavanahalli,Nelamangala S.O,13.468632800000002,77.4968707,13.4486328,13.488632800000001,77.4768707,77.5168707,562123,Nelamangala,BANGALORE RURAL,KARNATAKA
1082,Bidanapalya,Mandigere B.O,,,,,,,562123,Nelamangala,BANGALORE RURAL,KARNATAKA
1083,Budihal,Budihal B.O,13.131252800000002,77.3586876,13.131202800000002,13.131302800000002,77.3586376,77.3587376,562123,Nelamangala,BANGALORE RURAL,KARNATAKA
1084,Byranahalli,Teppadabeguru B.O,13.1047166,77.92969090000001,13.0847166,13.1247166,77.90969090000002,77.94969090000001,562123,Nelamangala,BANGALORE RURAL,KARNATAKA
1085,Byregowdanahalli,Mallarabanavadi B.O,,,,,,,562123,Bangalore North,BANGALORE,KARNATAKA
1086,Guddegowdana Channohalli,Jakkanahalli B.O,,,,,,,562123,Nelamangala,BANGALORE RURAL,KARNATAKA
1087,H.Kempalinganahalli,Nelamangala S.O,13.0950634,77.37432709999999,13.075063400000001,13.115063399999999,77.35432709999999,77.3943271,562123,Nelamangala,BANGALORE RURAL,KARNATAKA
1088,Hanumanapalya,Mahadevapura B.O,,,,,,,562123,Nelamangala,BANGALORE RURAL,KARNATAKA
1089,Hullegowdanahalli,Nelamangala S.O,,,,,,,562123,Bangalore North,BANGALORE,KARNATAKA
1090,Hydalu,Mylanahalli B.O,,,,,,,562123,Nelamangala,BANGALORE RURAL,KARNATAKA
1091,K.G. Srinivasapura,Mylanahalli B.O,12.9900798,77.6549474,12.9900298,12.990129800000002,77.65489740000001,77.6549974,562123,Nelamangala,BANGALORE RURAL,KARNATAKA
1092,Mallapura,Nelamangala S.O,13.1032741,77.38460490000001,13.083274099999999,13.123274100000001,77.36460490000002,77.40460490000001,562123,Nelamangala,BANGALORE RURAL,KARNATAKA
1093,Mandigere,Mandigere B.O,13.164105800000002,77.3703249,13.144105800000002,13.184105800000001,77.3503249,77.39032490000001,562123,Nelamangala,BANGALORE RURAL,KARNATAKA
1094,Mylanahalli,Mylanahalli B.O,13.185775699999999,77.6967689,13.165775699999998,13.205775699999998,77.6767689,77.7167689,562123,Nelamangala,BANGALORE RURAL,KARNATAKA
1095,Byrasettihalli,Gollahalli B.O,,,,,,,562123,Nelamangala,BANGALORE RURAL,KARNATAKA
1096,Gangadharanapalya,Nelamangala S.O,13.120910199999999,77.386151,13.1009102,13.140910199999999,77.366151,77.406151,562123,Nelamangala,BANGALORE RURAL,KARNATAKA
1097,Guruvanahalli,Yentiganahalli B.O,,,,,,,562123,Nelamangala,BANGALORE RURAL,KARNATAKA
1098,Hajipalya,Madalakote B.O,,,,,,,562123,Nelamangala,BANGALORE RURAL,KARNATAKA
1099,Hanchipura,Mallarabanavadi B.O,13.0669867,77.3711043,13.0469867,13.0869867,77.35110429999999,77.3911043,562123,Nelamangala,BANGALORE RURAL,KARNATAKA
1100,Hasurahalli,Jakkanahalli B.O,,,,,,,562123,Nelamangala,BANGALORE RURAL,KARNATAKA
1101,Huralihalli,Budihal B.O,,,,,,,562123,Nelamangala,BANGALORE RURAL,KARNATAKA
1102,Krishnarajapalya,Mylanahalli B.O,,,,,,,562123,Nelamangala,BANGALORE RURAL,KARNATAKA
1103,Lingenahalli,Mahadevapura B.O,,,,,,,562123,Nelamangala,BANGALORE RURAL,KARNATAKA
1104,Shamabhattara Palya,Gollahalli B.O,,,,,,,562123,Bangalore North,BANGALORE,KARNATAKA
1105,Bhavikere,Yentiganahalli B.O,,,,,,,562123,Nelamangala,BANGALORE RURAL,KARNATAKA
1106,Doddakarenahalli,Yentiganahalli B.O,13.0682157,77.3450953,13.0482157,13.0882157,77.3250953,77.3650953,562123,Nelamangala,BANGALORE RURAL,KARNATAKA
1107,Kempohalli,Madalakote B.O,13.119468099999999,77.3295627,13.0994681,13.139468099999998,77.3095627,77.34956269999999,562123,Nelamangala,BANGALORE RURAL,KARNATAKA
1108,Mallarabanavadi,Mallarabanavadi B.O,13.073603599999998,77.3794648,13.053603599999999,13.0936036,77.3594648,77.39946479999999,562123,Nelamangala,BANGALORE RURAL,KARNATAKA
1109,Marohalli,Teppadabeguru B.O,13.1500443,77.3386527,13.1300443,13.1700443,77.3186527,77.3586527,562123,Nelamangala,BANGALORE RURAL,KARNATAKA
1110,Narasimhapalya,Mylanahalli B.O,,,,,,,562123,Nelamangala,BANGALORE RURAL,KARNATAKA
1111,Nelamangala (Rural),Nelamangala S.O,13.095302400000001,77.39635859999999,13.0553024,13.1353024,77.3563586,77.43635859999999,562123,Nelamangala,BANGALORE RURAL,KARNATAKA
1112,Obanaikanahalli,Nelamangala S.O,,,,,,,562123,Nelamangala,BANGALORE RURAL,KARNATAKA
1113,Sitaram Bhattarapalya,Yentiganahalli B.O,,,,,,,562123,Nelamangala,BANGALORE RURAL,KARNATAKA
1114,Thippagundanahalli,Teppadabeguru B.O,,,,,,,562123,Nelamangala,BANGALORE RURAL,KARNATAKA
1115,Tirumalapura,Teppadabeguru B.O,13.1367592,77.3233429,13.1167592,13.1567592,77.3033429,77.3433429,562123,Nelamangala,BANGALORE RURAL,KARNATAKA
1116,Tonachinakuppe,Teppadabeguru B.O,13.1405021,77.34683940000001,13.120502100000001,13.1605021,77.32683940000001,77.3668394,562123,Nelamangala,BANGALORE RURAL,KARNATAKA
1117,Varadanaikanahalli,Jakkanahalli B.O,,,,,,,562123,Nelamangala,BANGALORE RURAL,KARNATAKA
1118,Bettahalli,Mandigere B.O,13.1819797,77.8215974,13.1619797,13.201979699999999,77.8015974,77.8415974,562123,Nelamangala,BANGALORE RURAL,KARNATAKA
1119,Honnarayanahalli,Madalakote B.O,13.1148611,77.2979593,13.0948611,13.1348611,77.2779593,77.3179593,562123,Nelamangala,BANGALORE RURAL,KARNATAKA
1120,Jakkanahalli,Jakkanahalli B.O,13.179837699999998,77.34478109999999,13.159837699999997,13.199837699999998,77.3247811,77.3647811,562123,Nelamangala,BANGALORE RURAL,KARNATAKA
1121,Kachanahalli,Budihal B.O,,,,,,,562123,Nelamangala,BANGALORE RURAL,KARNATAKA
1122,Kadukarenahalli,Mahadevapura B.O,,,,,,,562123,Nelamangala,BANGALORE RURAL,KARNATAKA
1123,Mahadevapura,Mahadevapura B.O,13.0671165,77.3201264,13.0471165,13.087116499999999,77.30012640000001,77.3401264,562123,Nelamangala,BANGALORE RURAL,KARNATAKA
1124,Viraraghuvanapalya,Nelamangala S.O,,,,,,,562123,Nelamangala,BANGALORE RURAL,KARNATAKA
1125,Yeramanchanahalli,Teppadabeguru B.O,,,,,,,562123,Nelamangala,BANGALORE RURAL,KARNATAKA
1126,Arjunabettahalli,Gollahalli B.O,,,,,,,562123,Nelamangala,BANGALORE RURAL,KARNATAKA
1127,Chikmaranahalli,Mahadevapura B.O,,,,,,,562123,Nelamangala,BANGALORE RURAL,KARNATAKA
1128,Jakkenahalli,Jakkanahalli B.O,13.441417300000001,77.2030742,13.421417300000002,13.4614173,77.18307420000001,77.22307420000001,562123,Dod Ballapur,BANGALORE RURAL,KARNATAKA
1129,Kanugondanahalli,Teppadabeguru B.O,,,,,,,562123,Nelamangala,BANGALORE RURAL,KARNATAKA
1130,Madalakote,Madalakote B.O,13.1149481,77.3107842,13.0949481,13.1349481,77.2907842,77.33078420000001,562123,Nelamangala,BANGALORE RURAL,KARNATAKA
1131,Minnapura,Jakkanahalli B.O,13.1732327,77.3339546,13.153232699999998,13.1932327,77.3139546,77.3539546,562123,Nelamangala,BANGALORE RURAL,KARNATAKA
1132,Narasimanapalya,Yentiganahalli B.O,,,,,,,562123,Nelamangala,BANGALORE RURAL,KARNATAKA
1133,Pillahalli,Arasinakunte B.O,13.102528900000001,77.42879959999999,13.0825289,13.122528899999999,77.4087996,77.44879959999999,562123,Bangalore North,BANGALORE,KARNATAKA
1134,Totagere,Gollahalli B.O,,,,,,,562123,Bangalore North,BANGALORE,KARNATAKA
1135,Tyagadahalli,Mandigere B.O,13.1737158,77.39425229999999,13.153715799999999,13.1937158,77.3742523,77.41425229999999,562123,Nelamangala,BANGALORE RURAL,KARNATAKA
1136,Bhattarahalli,Yentiganahalli B.O,13.0258004,77.714279,13.0257504,13.0258504,77.714229,77.714329,562123,Nelamangala,BANGALORE RURAL,KARNATAKA
1137,Kodappanahalli,Mallarabanavadi B.O,13.0645114,77.3819314,13.0445114,13.0845114,77.3619314,77.4019314,562123,Nelamangala,BANGALORE RURAL,KARNATAKA
1138,Koratagere,Yentiganahalli B.O,13.47477155,77.28304319998509,13.3208777,13.6233467,77.024114,77.3990848,562123,Nelamangala,BANGALORE RURAL,KARNATAKA
1139,Narayanappana Palya,Mylanahalli B.O,,,,,,,562123,Bangalore North,BANGALORE,KARNATAKA
1140,Narayanaraopalya,Mylanahalli B.O,,,,,,,562123,Nelamangala,BANGALORE RURAL,KARNATAKA
1141,Virananjipura,Budihal B.O,,,,,,,562123,Nelamangala,BANGALORE RURAL,KARNATAKA
1142,Balaguruvanapalya,Mahadevapura B.O,,,,,,,562123,Nelamangala,BANGALORE RURAL,KARNATAKA
1143,Bhoosandra,Mahadevapura B.O,,,,,,,562123,Nelamangala,BANGALORE RURAL,KARNATAKA
1144,Bolamaranahalli,Mandigere B.O,13.1607081,77.39733340000001,13.140708100000001,13.1807081,77.3773334,77.4173334,562123,Nelamangala,BANGALORE RURAL,KARNATAKA
1145,Deganahalli,Budihal B.O,13.138839800000001,77.36850229999999,13.118839800000002,13.1588398,77.34850229999999,77.3885023,562123,Nelamangala,BANGALORE RURAL,KARNATAKA
1146,Ghandragulupura,Nelamangala S.O,,,,,,,562123,Nelamangala,BANGALORE RURAL,KARNATAKA
1147,Gorinabele,Teppadabeguru B.O,13.0422939,77.3645637,13.0222939,13.0622939,77.3445637,77.3845637,562123,Nelamangala,BANGALORE RURAL,KARNATAKA
1148,Koolipura,Nelamangala S.O,,,,,,,562123,Nelamangala,BANGALORE RURAL,KARNATAKA
1149,Malonagathihalli,Teppadabeguru B.O,13.158103,77.33393740000001,13.138103,13.178103,77.3139374,77.3539374,562123,Nelamangala,BANGALORE RURAL,KARNATAKA
1150,T.Begur,Teppadabeguru B.O,13.146165,77.33464509999999,13.126165,13.166165,77.31464509999999,77.35464509999998,562123,Nelamangala,BANGALORE RURAL,KARNATAKA
1151,Yentiganahalli,Yentiganahalli B.O,,,,,,,562123,Nelamangala,BANGALORE RURAL,KARNATAKA
1152,B.Hosahalli,Handenahalli B.O,13.350099300000002,77.7429078,13.330099300000002,13.370099300000001,77.7229078,77.7629078,562125,Anekal,BANGALORE,KARNATAKA
1153,Chambenahalli,Dommasandra B.O,12.880673300000002,77.7622994,12.8606733,12.900673300000001,77.74229940000001,77.7822994,562125,Anekal,BANGALORE,KARNATAKA
1154,Doddathimmasandra,Sarjapura S.O,12.8805661,77.8045516,12.8605661,12.900566099999999,77.7845516,77.82455159999999,562125,Anekal,BANGALORE,KARNATAKA
1155,Gonighattapura,Neriga B.O,12.9132925,77.78866550000001,12.893292500000001,12.9332925,77.7686655,77.8086655,562125,Anekal,BANGALORE,KARNATAKA
1156,Chikkadasarahalli,Kugur B.O,13.347053299999999,77.8831686,13.3270533,13.3670533,77.8631686,77.9031686,562125,Anekal,BANGALORE,KARNATAKA
1157,Kadagrahara,Dommasandra B.O,12.8629979,77.763056,12.8429979,12.882997900000001,77.74305600000001,77.783056,562125,Anekal,BANGALORE,KARNATAKA
1158,Panditana Agrahara,Kugur B.O,,,,,,,562125,Anekal,BANGALORE,KARNATAKA
1159,Bikkanahalli,Handenahalli B.O,12.8376113,77.7599771,12.817611300000001,12.857611300000002,77.73997709999999,77.7799771,562125,Anekal,BANGALORE,KARNATAKA
1160,Kommasandra,Dommasandra B.O,12.8608656,77.7408671,12.8408656,12.8808656,77.72086709999999,77.7608671,562125,Anekal,BANGALORE,KARNATAKA
1161,Kuthaganahalli,Kugur B.O,,,,,,,562125,Anekal,BANGALORE,KARNATAKA
1162,Sarjapura,Sarjapura S.O,12.860086599999999,77.7861352,12.8200866,12.9000866,77.74613520000001,77.82613520000001,562125,Anekal,BANGALORE,KARNATAKA
1163,Yamare,Dommasandra B.O,12.8731016,77.7659742,12.8531016,12.8931016,77.7459742,77.78597420000001,562125,Anekal,BANGALORE,KARNATAKA
1164,Buragunte,Sarjapura S.O,,,,,,,562125,Anekal,BANGALORE,KARNATAKA
1165,Gudighattanahalli,Sarjapura S.O,,,,,,,562125,Anekal,BANGALORE,KARNATAKA
1166,Ittangur,Sarjapura S.O,,,,,,,562125,Anekal,BANGALORE,KARNATAKA
1167,Kathriguppe,Kugur B.O,12.9311931,77.5547931,12.9253603,12.9352453,77.54993890000001,77.56072890000002,562125,Anekal,BANGALORE,KARNATAKA
1168,Neriga,Neriga B.O,12.9117656,77.77652509999999,12.8917656,12.9317656,77.75652509999999,77.7965251,562125,Anekal,BANGALORE,KARNATAKA
1169,Kamanahalli,Kugur B.O,12.9075906,77.79717790000001,12.887590600000001,12.9275906,77.77717790000001,77.8171779,562125,Anekal,BANGALORE,KARNATAKA
1170,Kugur,Kugur B.O,,,,,,,562125,Anekal,BANGALORE,KARNATAKA
1171,Thigala Chowdadenahalli,Dommasandra B.O,,,,,,,562125,Anekal,BANGALORE,KARNATAKA
1172,Billapura,Sarjapura S.O,,,,,,,562125,Anekal,BANGALORE,KARNATAKA
1173,Mahal Chowdadenahalli,Sarjapura S.O,,,,,,,562125,Anekal,BANGALORE,KARNATAKA
1174,Sollepura,Handenahalli B.O,12.8309661,77.7559609,12.8109661,12.850966099999999,77.73596090000001,77.7759609,562125,Anekal,BANGALORE,KARNATAKA
1175,Kotiganahalli,Handenahalli B.O,,,,,,,562125,Anekal,BANGALORE,KARNATAKA
1176,Mugalur,Kugur B.O,,,,,,,562125,Anekal,BANGALORE,KARNATAKA
1177,Seeganaikanahalli,Kugur B.O,,,,,,,562125,Anekal,BANGALORE,KARNATAKA
1178,Volagerekallahalli,Sarjapura S.O,,,,,,,562125,Anekal,BANGALORE,KARNATAKA
1179,Goravihalli,Attihalli B.O,,,,,,,562126,Hosakote,BANGALORE RURAL,KARNATAKA
1180,Avalakuppe,Motagondanahalli B.O,,,,,,,562127,Nelamangala,BANGALORE RURAL,KARNATAKA
1181,Vadahalli,Manchanabele B.O,,,,,,,562128,Bangalore South,BANGALORE,KARNATAKA
1182,Balenahalli,Bendiganahalli B.O,12.8959089,77.19275479999999,12.8759089,12.915908900000002,77.17275479999999,77.2127548,562129,Hosakote,BANGALORE RURAL,KARNATAKA
1183,Bandaramanahalli,Budigere B.O,,,,,,,562129,Devanahalli,BANGALORE RURAL,KARNATAKA
1184,Doddaralagere,Bendiganahalli B.O,,,,,,,562129,Hosakote,BANGALORE RURAL,KARNATAKA
1185,Kasba Plantation,Sulebele S.O,,,,,,,562129,Devanahalli,BANGALORE RURAL,KARNATAKA
1186,Maradiane,Ibasapura B.O,,,,,,,562129,Devanahalli,BANGALORE RURAL,KARNATAKA
1187,Thimmappanahalli,Bendiganahalli B.O,,,,,,,562129,Hosakote,BANGALORE RURAL,KARNATAKA
1188,Varadenahalli,Ibasapura B.O,12.9610386,77.31280679999999,12.9410386,12.9810386,77.2928068,77.3328068,562129,Devanahalli,BANGALORE RURAL,KARNATAKA
1189,Agalakote,Bettakote B.O,,,,,,,562129,Devanahalli,BANGALORE RURAL,KARNATAKA
1190,Bathiganahalli,Sulebele S.O,,,,,,,562129,Hosakote,BANGALORE RURAL,KARNATAKA
1191,Chikkakurubarahalli,Bendiganahalli B.O,,,,,,,562129,Hosakote,BANGALORE RURAL,KARNATAKA
1192,Giddappanahalli,Sulebele S.O,13.1757789,77.8140868,13.1557789,13.195778899999999,77.7940868,77.83408680000001,562129,Hosakote,BANGALORE RURAL,KARNATAKA
1193,Ibasapura,Ibasapura B.O,13.2431585,77.82154840000001,13.223158499999998,13.2631585,77.8015484,77.84154840000001,562129,Devanahalli,BANGALORE RURAL,KARNATAKA
1194,Jonnahalli,Reddihalli B.O,13.182372699999998,77.7566587,13.162372699999999,13.202372699999998,77.7366587,77.7766587,562129,Devanahalli,BANGALORE RURAL,KARNATAKA
1195,Kachipura,Sulebele S.O,,,,,,,562129,Devanahalli,BANGALORE RURAL,KARNATAKA
1196,Kachipuradakambada Beedu,Sulebele S.O,,,,,,,562129,Hosakote,BANGALORE RURAL,KARNATAKA
1197,Papanahalli,Ibasapura B.O,13.21325,77.8020825,13.19325,13.23325,77.7820825,77.8220825,562129,Devanahalli,BANGALORE RURAL,KARNATAKA
1198,Kadaranapura,Sulebele S.O,,,,,,,562129,Hosakote,BANGALORE RURAL,KARNATAKA
1199,Mallepura,Reddihalli B.O,13.2047617,77.7783223,13.1847617,13.2247617,77.7583223,77.7983223,562129,Devanahalli,BANGALORE RURAL,KARNATAKA
1200,Nallaganahalli,Sulebele S.O,,,,,,,562129,Hosakote,BANGALORE RURAL,KARNATAKA
1201,Nallappanahalli,Reddihalli B.O,13.207327900000001,77.7793314,13.187327900000001,13.2273279,77.75933140000001,77.7993314,562129,Devanahalli,BANGALORE RURAL,KARNATAKA
1202,Shantanapura,Sulebele S.O,,,,,,,562129,Hosakote,BANGALORE RURAL,KARNATAKA
1203,Akkalenahalli Mallena - Halli,Sulebele S.O,,,,,,,562129,Devanahalli,BANGALORE RURAL,KARNATAKA
1204,Balepura,Reddihalli B.O,13.1988242,77.77812349999999,13.1788242,13.2188242,77.7581235,77.7981235,562129,Devanahalli,BANGALORE RURAL,KARNATAKA
1205,Bidalapura Amanikere,Reddihalli B.O,,,,,,,562129,Devanahalli,BANGALORE RURAL,KARNATAKA
1206,Channahalli,Bettakote B.O,13.2126844,77.74938449999999,13.192684400000001,13.232684400000002,77.7293845,77.7693845,562129,Devanahalli,BANGALORE RURAL,KARNATAKA
1207,Devanayakanahalli,Reddihalli B.O,13.175462099999999,77.7718557,13.155462099999998,13.195462099999999,77.75185570000001,77.7918557,562129,Devanahalli,BANGALORE RURAL,KARNATAKA
1208,Doddaharadi Plantation,Bendiganahalli B.O,,,,,,,562129,Hosakote,BANGALORE RURAL,KARNATAKA
1209,Imanahalli,Bendiganahalli B.O,,,,,,,562129,Hosakote,BANGALORE RURAL,KARNATAKA
1210,Kondenahalli,Budigere B.O,13.372524599999998,77.7979005,13.352524599999999,13.392524599999998,77.7779005,77.81790050000001,562129,Devanahalli,BANGALORE RURAL,KARNATAKA
1211,Manchappanahosahalli,Budigere B.O,,,,,,,562129,Bangalore North,BANGALORE,KARNATAKA
1212,Nallur,Reddihalli B.O,13.199280599999998,77.7676551525238,13.196547,13.201773600000001,77.7653957,77.7700565,562129,Devanahalli,BANGALORE RURAL,KARNATAKA
1213,Theneyur,Bendiganahalli B.O,,,,,,,562129,Hosakote,BANGALORE RURAL,KARNATAKA
1214,Arasanahalli,Sulebele S.O,13.2018656,77.7997984,13.181865599999998,13.2218656,77.7797984,77.81979840000001,562129,Hosakote,BANGALORE RURAL,KARNATAKA
1215,Baladimmanahalli,Bettakote B.O,13.1890813,77.7444271,13.1690813,13.2090813,77.7244271,77.76442709999999,562129,Devanahalli,BANGALORE RURAL,KARNATAKA
1216,Bettakote,Bettakote B.O,13.1992334,77.74092950000001,13.179233400000001,13.2192334,77.72092950000001,77.7609295,562129,Devanahalli,BANGALORE RURAL,KARNATAKA
1217,Bettakote Amanikere,Bettakote B.O,,,,,,,562129,Devanahalli,BANGALORE RURAL,KARNATAKA
1218,Bidalapura,Reddihalli B.O,13.187139300000002,77.7756191,13.1671393,13.207139300000001,77.7556191,77.7956191,562129,Devanahalli,BANGALORE RURAL,KARNATAKA
1219,Budigere Amanikere,Budigere B.O,,,,,,,562129,Devanahalli,BANGALORE RURAL,KARNATAKA
1220,Challamakunte,Budigere B.O,,,,,,,562129,Bangalore North,BANGALORE,KARNATAKA
1221,Reddihalli,Reddihalli B.O,13.189624400000001,77.7540187,13.1696244,13.209624400000001,77.73401870000001,77.7740187,562129,Devanahalli,BANGALORE RURAL,KARNATAKA
1222,Anupahalli,Bendiganahalli B.O,13.215171799999998,77.857057,13.195171799999999,13.2351718,77.837057,77.877057,562129,Hosakote,BANGALORE RURAL,KARNATAKA
1223,Arebinnamangala,Budigere B.O,13.154853099999999,77.71728420000001,13.134853099999999,13.174853099999998,77.69728420000001,77.7372842,562129,Bangalore North,BANGALORE,KARNATAKA
1224,Chikkaralagere,Bendiganahalli B.O,,,,,,,562129,Hosakote,BANGALORE RURAL,KARNATAKA
1225,Chinnathimmanagolla Halli,Budigere B.O,,,,,,,562129,Hosakote,BANGALORE RURAL,KARNATAKA
1226,Kaggalahalli,Budigere B.O,12.8307741,77.3244043,12.8107741,12.850774099999999,77.3044043,77.3444043,562129,Devanahalli,BANGALORE RURAL,KARNATAKA
1227,Nallur Amari,Reddihalli B.O,,,,,,,562129,Devanahalli,BANGALORE RURAL,KARNATAKA
1228,Somathanahalli,Reddihalli B.O,,,,,,,562129,Devanahalli,BANGALORE RURAL,KARNATAKA
1229,Aralagere Amanikere,Bendiganahalli B.O,,,,,,,562129,Hosakote,BANGALORE RURAL,KARNATAKA
1230,Budigere,Budigere B.O,13.1351402,77.74956999999999,13.1151402,13.1551402,77.72957,77.76957,562129,Devanahalli,BANGALORE RURAL,KARNATAKA
1231,Chikka Amanikere,Bendiganahalli B.O,,,,,,,562129,Hosakote,BANGALORE RURAL,KARNATAKA
1232,Hosahardi,Bendiganahalli B.O,,,,,,,562129,Hosakote,BANGALORE RURAL,KARNATAKA
1233,Konaginabele,Ibasapura B.O,13.2237342,77.8139271,13.2037342,13.2437342,77.79392709999999,77.8339271,562129,Devanahalli,BANGALORE RURAL,KARNATAKA
1234,Sashimakanahalli,Bendiganahalli B.O,,,,,,,562129,Hosakote,BANGALORE RURAL,KARNATAKA
1235,Sulibele,Sulebele S.O,13.184313500000002,77.8000225,13.1643135,13.204313500000001,77.7800225,77.8200225,562129,Hosakote,BANGALORE RURAL,KARNATAKA
1236,Thammarayasandra Agrahara,Bendiganahalli B.O,,,,,,,562129,Hosakote,BANGALORE RURAL,KARNATAKA
1237,Bhatramarenahalli,Budigere B.O,,,,,,,562129,Devanahalli,BANGALORE RURAL,KARNATAKA
1238,Doddakurubarahalli,Ibasapura B.O,,,,,,,562129,Devanahalli,BANGALORE RURAL,KARNATAKA
1239,Esthur Hosahalli,Bendiganahalli B.O,,,,,,,562129,Hosakote,BANGALORE RURAL,KARNATAKA
1240,Gangavara Chowdappana Halli,Budigere B.O,,,,,,,562129,Devanahalli,BANGALORE RURAL,KARNATAKA
1241,Kodipura,Sulebele S.O,,,,,,,562129,Hosakote,BANGALORE RURAL,KARNATAKA
1242,Singahalli,Budigere B.O,13.1617626,77.7238781,13.141762599999998,13.181762599999999,77.7038781,77.74387809999999,562129,Bangalore North,BANGALORE,KARNATAKA
1243,Venkateshapura,Sulebele S.O,13.015827900000001,77.6176968,13.015777900000002,13.015877900000001,77.6176468,77.6177468,562129,Hosakote,BANGALORE RURAL,KARNATAKA
1244,Byandahalli,Kadabagere B.O,,,,,,,562130,Bangalore North,BANGALORE,KARNATAKA
1245,Devamachohalli,Tavarekere S.O (Bangalore),12.9670037,77.3794754,12.9470037,12.987003699999999,77.35947540000001,77.39947540000001,562130,Bangalore South,BANGALORE,KARNATAKA
1246,Kethohalli,Chunchanakuppe B.O,12.907313400000001,77.4034803,12.9072634,12.907363400000001,77.4034303,77.4035303,562130,Bangalore South,BANGALORE,KARNATAKA
1247,Puradapalya,Tavarekere S.O (Bangalore),,,,,,,562130,Bangalore South,BANGALORE,KARNATAKA
1248,Doddamaranahalli,Chunchanakuppe B.O,12.930371899999999,77.382552,12.9103719,12.9503719,77.36255200000001,77.402552,562130,Bangalore South,BANGALORE,KARNATAKA
1249,Kurubarapalya,Chunchanakuppe B.O,12.911242199999998,77.3628253,12.891242199999999,12.9312422,77.3428253,77.38282530000001,562130,Bangalore South,BANGALORE,KARNATAKA
1250,Mantanakurchi,Sondekoppa B.O,13.0440426,77.38454279999999,13.0240426,13.064042599999999,77.3645428,77.4045428,562130,Nelamangala,BANGALORE RURAL,KARNATAKA
1251,Ravuthanahalli,Kithanahalli B.O,,,,,,,562130,Bangalore North,BANGALORE,KARNATAKA
1252,Banasavadi,Soladevanahalli B.O,13.01554595,77.6507153528405,13.0054661,13.0256938,77.6380241,77.66229270000001,562130,Nelamangala,BANGALORE RURAL,KARNATAKA
1253,Ganakal,Tavarekere S.O (Bangalore),,,,,,,562130,Bangalore South,BANGALORE,KARNATAKA
1254,Kethohalli Ramapura,Chunchanakuppe B.O,,,,,,,562130,Bangalore South,BANGALORE,KARNATAKA
1255,Kittana Halli,Kithanahalli B.O,,,,,,,562130,Bangalore North,BANGALORE,KARNATAKA
1256,Sondekoppa,Sondekoppa B.O,13.020441900000002,77.3825478,13.0004419,13.040441900000001,77.3625478,77.4025478,562130,Bangalore North,BANGALORE,KARNATAKA
1257,Bychaguppe,Tavarekere S.O (Bangalore),,,,,,,562130,Bangalore South,BANGALORE,KARNATAKA
1258,Donnenahalli,Chikkanahalli B.O,12.884133199999999,77.37500209999999,12.8641332,12.904133199999999,77.3550021,77.3950021,562130,Bangalore South,BANGALORE,KARNATAKA
1259,Ganapathihalli,Chunchanakuppe B.O,12.9179434,77.395783,12.8979434,12.9379434,77.375783,77.41578299999999,562130,Bangalore South,BANGALORE,KARNATAKA
1260,Gangenahalli,Tavarekere S.O (Bangalore),12.983417300000001,77.3918735,12.963417300000001,13.0034173,77.37187349999999,77.4118735,562130,Bangalore South,BANGALORE,KARNATAKA
1261,Honniganahatti,Tavarekere S.O (Bangalore),,,,,,,562130,Bangalore South,BANGALORE,KARNATAKA
1262,Jogerahalli,Tavarekere S.O (Bangalore),12.985333099999998,77.37470440000001,12.965333099999999,13.0053331,77.35470440000002,77.39470440000001,562130,Bangalore South,BANGALORE,KARNATAKA
1263,K.Kempalinganahalli,Sondekoppa B.O,13.0950634,77.37432709999999,13.075063400000001,13.115063399999999,77.35432709999999,77.3943271,562130,Nelamangala,BANGALORE RURAL,KARNATAKA
1264,Kadabagere,Kadabagere B.O,12.988909800000002,77.4492453,12.988859800000002,12.988959800000002,77.4491953,77.4492953,562130,Bangalore North,BANGALORE,KARNATAKA
1265,Madapatna,Chunchanakuppe B.O,12.772130800000001,77.64845890000001,12.772080800000001,12.772180800000001,77.6484089,77.64850890000001,562130,Bangalore South,BANGALORE,KARNATAKA
1266,Yalachaguppe Ramapura,Soladevanahalli B.O,,,,,,,562130,Bangalore South,BANGALORE,KARNATAKA
1267,Yelachaguppe,Tavarekere S.O (Bangalore),,,,,,,562130,Bangalore South,BANGALORE,KARNATAKA
1268,Byalalu,Chunchanakuppe B.O,12.8922016,77.3757879,12.8722016,12.9122016,77.35578790000001,77.3957879,562130,Bangalore South,BANGALORE,KARNATAKA
1269,Huluvenahalli,Chunchanakuppe B.O,12.888817800000002,77.1838013,12.868817800000002,12.908817800000001,77.16380129999999,77.2038013,562130,Bangalore South,BANGALORE,KARNATAKA
1270,Kethohalli Narasimhapura,Chunchanakuppe B.O,,,,,,,562130,Bangalore South,BANGALORE,KARNATAKA
1271,Channenahalli,Kadabagere B.O,12.9767271,77.428935,12.9567271,12.9967271,77.408935,77.44893499999999,562130,Bangalore South,BANGALORE,KARNATAKA
1272,Chunchanakuppe,Chunchanakuppe B.O,12.9095576,77.38664200000001,12.8895576,12.9295576,77.366642,77.406642,562130,Bangalore South,BANGALORE,KARNATAKA
1273,Devamachahalli Narayanapura,Tavarekere S.O (Bangalore),,,,,,,562130,Bangalore South,BANGALORE,KARNATAKA
1274,Sulivara,Chikkanahalli B.O,12.903844300000001,77.36241700000001,12.883844300000002,12.9238443,77.342417,77.382417,562130,Bangalore South,BANGALORE,KARNATAKA
1275,Tavarekere,Tavarekere S.O (Bangalore),13.2327079,77.30127990000001,13.2127079,13.252707899999999,77.28127990000002,77.32127990000001,562130,Bangalore South,BANGALORE,KARNATAKA
1276,Ajjanahalli,Chunchanakuppe B.O,,,,,,,562130,Bangalore South,BANGALORE,KARNATAKA
1277,Kanuvanahalli,Soladevanahalli B.O,12.9951095,77.36435259999999,12.9751095,13.0151095,77.3443526,77.3843526,562130,Nelamangala,BANGALORE RURAL,KARNATAKA
1278,Muddaiahnapalya,Chunchanakuppe B.O,,,,,,,562130,Bangalore South,BANGALORE,KARNATAKA
1279,Punagumaranahalli,Chunchanakuppe B.O,,,,,,,562130,Bangalore South,BANGALORE,KARNATAKA
1280,Sulivara Ramapura,Chikkanahalli B.O,,,,,,,562130,Bangalore South,BANGALORE,KARNATAKA
1281,Gollarapalya,Sondekoppa B.O,12.8020215,77.4255335,12.782021499999999,12.8220215,77.40553349999999,77.4455335,562130,Bangalore North,BANGALORE,KARNATAKA
1282,Hunnigere,Sondekoppa B.O,12.9244248,77.36792879999999,12.904424800000001,12.9444248,77.34792879999999,77.3879288,562130,Bangalore North,BANGALORE,KARNATAKA
1283,Peddanapalya,Tavarekere S.O (Bangalore),12.958661900000001,77.389487,12.938661900000001,12.9786619,77.369487,77.409487,562130,Bangalore South,BANGALORE,KARNATAKA
1284,Karehalli,Obalapura B.O,13.2262803,77.31460159999999,13.206280300000001,13.246280300000002,77.2946016,77.3346016,562132,Nelamangala,BANGALORE RURAL,KARNATAKA
1285,Manne,Manne B.O,13.2553542,77.296172,13.235354199999998,13.275354199999999,77.276172,77.316172,562132,Nelamangala,BANGALORE RURAL,KARNATAKA
1286,Tadasigatta,Doddabele B.O,,,,,,,562132,Nelamangala,BANGALORE RURAL,KARNATAKA
1287,Thippasettihalli,Tyamagondlu S.O,,,,,,,562132,Nelamangala,BANGALORE RURAL,KARNATAKA
1288,Vadakunte,Doddabele B.O,13.214687900000001,77.36628259999999,13.194687900000002,13.2346879,77.3462826,77.38628259999999,562132,Nelamangala,BANGALORE RURAL,KARNATAKA
1289,Isuvanahalli,Doddabele B.O,13.2026844,77.3383923,13.182684400000001,13.2226844,77.3183923,77.35839229999999,562132,Nelamangala,BANGALORE RURAL,KARNATAKA
1290,Nimbenahalli,Doddabele B.O,,,,,,,562132,Nelamangala,BANGALORE RURAL,KARNATAKA
1291,Kannohalli,Manne B.O,,,,,,,562132,Nelamangala,BANGALORE RURAL,KARNATAKA
1292,Somasagara,Manne B.O,13.2708309,77.3171562,13.2508309,13.290830900000001,77.2971562,77.33715620000001,562132,Nelamangala,BANGALORE RURAL,KARNATAKA
1293,Appagondanahalli,Manne B.O,13.2624291,77.3084583,13.242429099999999,13.2824291,77.2884583,77.3284583,562132,Nelamangala,BANGALORE RURAL,KARNATAKA
1294,Bidalur,Kollalagatta B.O,,,,,,,562132,Nelamangala,BANGALORE RURAL,KARNATAKA
1295,Byranaikanahalli,Doddabele B.O,,,,,,,562132,Nelamangala,BANGALORE RURAL,KARNATAKA
1296,Doddachannohalli,Obalapura B.O,,,,,,,562132,Nelamangala,BANGALORE RURAL,KARNATAKA
1297,Gulapura,Doddabele B.O,,,,,,,562132,Nelamangala,BANGALORE RURAL,KARNATAKA
1298,Mannerampura,Manne B.O,13.26573,77.2990148,13.245729999999998,13.28573,77.2790148,77.31901479999999,562132,Nelamangala,BANGALORE RURAL,KARNATAKA
1299,Muddalinganahalli,Manne B.O,13.241559599999999,77.29656429999999,13.221559599999999,13.261559599999998,77.27656429999999,77.3165643,562132,Nelamangala,BANGALORE RURAL,KARNATAKA
1300,Thyamagondlu,Tyamagondlu S.O,13.2155889,77.3025574,13.2155389,13.2156389,77.3025074,77.3026074,562132,Nelamangala,BANGALORE RURAL,KARNATAKA
1301,Thyamagondlu Amanikere,Tyamagondlu S.O,,,,,,,562132,Nelamangala,BANGALORE RURAL,KARNATAKA
1302,Adihosahalli,Obalapura B.O,,,,,,,562132,Nelamangala,BANGALORE RURAL,KARNATAKA
1303,Ballagere,Doddabele B.O,13.2459327,77.3605626,13.2259327,13.265932699999999,77.3405626,77.38056259999999,562132,Nelamangala,BANGALORE RURAL,KARNATAKA
1304,Harvesandra,Kollalagatta B.O,,,,,,,562132,Nelamangala,BANGALORE RURAL,KARNATAKA
1305,Lakkappanahalli,Doddabele B.O,13.2036354,77.3654759,13.1836354,13.2236354,77.34547590000001,77.3854759,562132,Nelamangala,BANGALORE RURAL,KARNATAKA
1306,Sirganahalli,Manne B.O,,,,,,,562132,Nelamangala,BANGALORE RURAL,KARNATAKA
1307,Thattekere,Niduvanda B.O,,,,,,,562132,Nelamangala,BANGALORE RURAL,KARNATAKA
1308,Gundenahalli,Kollalagatta B.O,,,,,,,562132,Nelamangala,BANGALORE RURAL,KARNATAKA
1309,Kalalghatta,Kollalagatta B.O,,,,,,,562132,Nelamangala,BANGALORE RURAL,KARNATAKA
1310,Makanakuppe,Niduvanda B.O,,,,,,,562132,Nelamangala,BANGALORE RURAL,KARNATAKA
1311,Mavinakommenahalli,Doddabele B.O,,,,,,,562132,Nelamangala,BANGALORE RURAL,KARNATAKA
1312,Vaddarapalya,Doddabele B.O,13.0786407,77.3680832,13.0586407,13.098640699999999,77.3480832,77.38808320000001,562132,Nelamangala,BANGALORE RURAL,KARNATAKA
1313,Lakshmanapura,Niduvanda B.O,,,,,,,562132,Nelamangala,BANGALORE RURAL,KARNATAKA
1314,Nidavanda,Niduvanda B.O,,,,,,,562132,Nelamangala,BANGALORE RURAL,KARNATAKA
1315,Bediganahalli,Channarayapatna B.O,,,,,,,562135,Devanahalli,BANGALORE RURAL,KARNATAKA
1316,Cheemachanahalli,Channarayapatna B.O,,,,,,,562135,Devanahalli,BANGALORE RURAL,KARNATAKA
1317,Dharmapura,Mandibele B.O,13.2683565,77.79995770000001,13.2483565,13.2883565,77.77995770000001,77.8199577,562135,Devanahalli,BANGALORE RURAL,KARNATAKA
1318,Pura,Vijayapaura S.O,13.3125631,77.7966922,13.292563099999999,13.3325631,77.7766922,77.8166922,562135,Devanahalli,BANGALORE RURAL,KARNATAKA
1319,Shettahalli,Vijayapaura S.O,,,,,,,562135,Devanahalli,BANGALORE RURAL,KARNATAKA
1320,Vijayapura,Vijayapaura S.O,13.296405599999998,77.8028933,13.256405599999999,13.336405599999999,77.7628933,77.8428933,562135,Hosakote,BANGALORE RURAL,KARNATAKA
1321,Chinnappanayakana Hosur,Narayanapura B.O,,,,,,,562135,Devanahalli,BANGALORE RURAL,KARNATAKA
1322,Dodda Thattamangala,Mandibele B.O,,,,,,,562135,Devanahalli,BANGALORE RURAL,KARNATAKA
1323,Gonur,Narayanapura B.O,,,,,,,562135,Devanahalli,BANGALORE RURAL,KARNATAKA
1324,Mandibele,Mandibele B.O,,,,,,,562135,Devanahalli,BANGALORE RURAL,KARNATAKA
1325,Polanahalli,Channarayapatna B.O,13.225229800000001,77.7670061,13.205229800000001,13.2452298,77.7470061,77.7870061,562135,Devanahalli,BANGALORE RURAL,KARNATAKA
1326,Ranganathapura,Channarayapatna B.O,13.337617999999999,77.79034,13.317618,13.357617999999999,77.77034,77.81034,562135,Devanahalli,BANGALORE RURAL,KARNATAKA
1327,Sambaragiddada Kavalu,Narayanapura B.O,,,,,,,562135,Devanahalli,BANGALORE RURAL,KARNATAKA
1328,Chikkenahalli,Vijayapaura S.O,,,,,,,562135,Devanahalli,BANGALORE RURAL,KARNATAKA
1329,Hyadala,Channarayapatna B.O,13.249799900000001,77.7897558,13.229799900000002,13.2697999,77.7697558,77.80975579999999,562135,Devanahalli,BANGALORE RURAL,KARNATAKA
1330,Yaluvahalli,Vijayapaura S.O,13.2926141,77.82333050000001,13.2726141,13.312614100000001,77.8033305,77.84333050000001,562135,Devanahalli,BANGALORE RURAL,KARNATAKA
1331,Chandenahalli,Vijayapaura S.O,,,,,,,562135,Devanahalli,BANGALORE RURAL,KARNATAKA
1332,Dandiganahalli,Harohalli B.O,13.308722099999999,77.7676001,13.2887221,13.328722099999998,77.7476001,77.78760009999999,562135,Devanahalli,BANGALORE RURAL,KARNATAKA
1333,Gaddadanagenahalli,Mandibele B.O,,,,,,,562135,Devanahalli,BANGALORE RURAL,KARNATAKA
1334,Gejjaguppe,Mandibele B.O,,,,,,,562135,Devanahalli,BANGALORE RURAL,KARNATAKA
1335,Iregenahalli,Channarayapatna B.O,,,,,,,562135,Nelamangala,BANGALORE RURAL,KARNATAKA
1336,Venkatenahalli,Vijayapaura S.O,13.30569,77.8111558,13.285689999999999,13.32569,77.7911558,77.83115579999999,562135,Devanahalli,BANGALORE RURAL,KARNATAKA
1337,Bullahalli,Harohalli B.O,13.3068084,77.7312692,13.2868084,13.3268084,77.7112692,77.75126920000001,562135,Devanahalli,BANGALORE RURAL,KARNATAKA
1338,Channarayapatna Amanikere,Channarayapatna B.O,,,,,,,562135,Devanahalli,BANGALORE RURAL,KARNATAKA
1339,Hosathota,Vijayapaura S.O,,,,,,,562135,Devanahalli,BANGALORE RURAL,KARNATAKA
1340,Kavadedasarahalli,Channarayapatna B.O,,,,,,,562135,Devanahalli,BANGALORE RURAL,KARNATAKA
1341,Vijayapura Amanikere,Vijayapaura S.O,,,,,,,562135,Devanahalli,BANGALORE RURAL,KARNATAKA
1342,Byrapura,Harohalli B.O,13.1848693,77.54417509999999,13.1848193,13.1849193,77.54412509999999,77.54422509999999,562135,Devanahalli,BANGALORE RURAL,KARNATAKA
1343,Channarayapatna,Channarayapatna B.O,13.2455918,77.797084,13.2255918,13.265591800000001,77.777084,77.817084,562135,Devanahalli,BANGALORE RURAL,KARNATAKA
1344,Chikka Thattamangala,Mandibele B.O,,,,,,,562135,Devanahalli,BANGALORE RURAL,KARNATAKA
1345,Gudla Muddenahalli,Narayanapura B.O,,,,,,,562135,Devanahalli,BANGALORE RURAL,KARNATAKA
1346,Bellahalli bande,Kannur B.O,13.099380199999999,77.6418078,13.099330199999999,13.0994302,77.6417578,77.6418578,562149,Bangalore South,BANGALORE,KARNATAKA
1347,Kadu Sonnapapnahalli Bande,Kannur B.O,,,,,,,562149,Bangalore South,BANGALORE,KARNATAKA
1348,Kadusonnappanahalli,Kannur B.O,,,,,,,562149,Bangalore South,BANGALORE,KARNATAKA
1349,Marenahalli cross,Kannur B.O,12.9796436,77.53431409999999,12.9796436,12.9798778,77.5334656,77.53431409999999,562149,Bangalore South,BANGALORE,KARNATAKA
1350,Mittaganahalli,Kannur B.O,,,,,,,562149,Bangalore South,BANGALORE,KARNATAKA
1351,Bandi Kodige Halli,Bandikodigehalli B.O,,,,,,,562149,Bangalore North,BANGALORE,KARNATAKA
1352,Dasanayakanahalli,Bagalur S.O (Bangalore),,,,,,,562149,Bangalore North,BANGALORE,KARNATAKA
1353,Gopalapura,Bagalur S.O (Bangalore),13.1414688,77.4277167,13.121468799999999,13.1614688,77.4077167,77.4477167,562149,Bangalore North,BANGALORE,KARNATAKA
1354,Mahadevakodigehalli,Bandikodigehalli B.O,,,,,,,562149,Bangalore North,BANGALORE,KARNATAKA
1355,Bandi Kodigehalli Palya,Bandikodigehalli B.O,,,,,,,562149,Bangalore North,BANGALORE,KARNATAKA
1356,Chagalahatti,Bagalur S.O (Bangalore),,,,,,,562149,Bangalore North,BANGALORE,KARNATAKA
1357,Domlur,Bandikodigehalli B.O,12.9624669,77.6381958,12.942466900000001,12.9824669,77.6181958,77.6581958,562149,Bangalore North,BANGALORE,KARNATAKA
1358,Kolipura,Bandikodigehalli B.O,13.2612163,77.55375790000001,13.2412163,13.2812163,77.5337579,77.5737579,562149,Bangalore North,BANGALORE,KARNATAKA
1359,Bhavapura,Bandikodigehalli B.O,13.1843993,77.8706844,13.164399300000001,13.204399300000002,77.8506844,77.8906844,562149,Bangalore North,BANGALORE,KARNATAKA
1360,Kadayarappanahalli,Bandikodigehalli B.O,,,,,,,562149,Bangalore North,BANGALORE,KARNATAKA
1361,Kannur,Kannur B.O,13.103799,77.60161670000001,13.103749,13.103849,77.6015667,77.6016667,562149,Bangalore South,BANGALORE,KARNATAKA
1362,Mittaganahalli bande,Kannur B.O,,,,,,,562149,Bangalore South,BANGALORE,KARNATAKA
1363,Sri Krishna Nagara,Kannur B.O,12.9791699,77.64372359999999,12.9790836,12.9792405,77.640856,77.64644679999999,562149,Bangalore South,BANGALORE,KARNATAKA
1364,Bandehosur,Kannur B.O,,,,,,,562149,Bangalore South,BANGALORE,KARNATAKA
1365,Bandikodegehalli Amanikere,Bandikodigehalli B.O,,,,,,,562149,Bangalore North,BANGALORE,KARNATAKA
1366,Marenahalli,Bagalur S.O (Bangalore),13.1199125,77.67924690000001,13.0999125,13.1399125,77.6592469,77.6992469,562149,Bangalore North,BANGALORE,KARNATAKA
1367,Boilahalli,Bandikodigehalli B.O,,,,,,,562149,Bangalore North,BANGALORE,KARNATAKA
1368,Byrathibande,Kannur B.O,,,,,,,562149,Bangalore South,BANGALORE,KARNATAKA
1369,Hunsur,Bandikodigehalli B.O,,,,,,,562149,Bangalore North,BANGALORE,KARNATAKA
1370,Huvinayakanahalli,Bandikodigehalli B.O,13.1478821,77.6896848,13.127882099999999,13.1678821,77.6696848,77.7096848,562149,Bangalore North,BANGALORE,KARNATAKA
1371,Meesaganahalli,Bandikodigehalli B.O,13.1651476,77.66847320000001,13.1650976,13.165197599999999,77.6684232,77.66852320000001,562149,Bangalore North,BANGALORE,KARNATAKA
1372,Sathnur,Bagalur S.O (Bangalore),,,,,,,562149,Bangalore North,BANGALORE,KARNATAKA
1373,B.Nagara,Vidyanagara B.O,12.903099300000001,77.42857579999999,12.8830993,12.9230993,77.4085758,77.44857579999999,562157,Bangalore North,BANGALORE,KARNATAKA
1374,Chikkajala,Chikkajala B.O,13.1715801,77.6345704,13.1515801,13.191580100000001,77.6145704,77.6545704,562157,Bangalore North,BANGALORE,KARNATAKA
1375,Kathri Nivas,Vidyanagara B.O,,,,,,,562157,Bangalore North,BANGALORE,KARNATAKA
1376,Tarahunase,Tarahunise B.O,13.1787744,77.5879515,13.1587744,13.198774400000001,77.5679515,77.6079515,562157,Bangalore North,BANGALORE,KARNATAKA
1377,Ashraya,Vidyanagara B.O,12.98368085,77.593412951931,12.9835023,12.9838714,77.5932733,77.5936306,562157,Bangalore North,BANGALORE,KARNATAKA
1378,Billamaranahalli,Vidyanagara B.O,13.1503834,77.6374474,13.1303834,13.1703834,77.6174474,77.65744740000001,562157,Bangalore North,BANGALORE,KARNATAKA
1379,Doddajala,Doddajala B.O,13.1767348,77.65205019999999,13.1567348,13.1967348,77.6320502,77.6720502,562157,Bangalore North,BANGALORE,KARNATAKA
1380,Doddajala Amanikere,Doddajala B.O,,,,,,,562157,Bangalore North,BANGALORE,KARNATAKA
1381,HSM Star Plant,Vidyanagara B.O,,,,,,,562157,Bangalore North,BANGALORE,KARNATAKA
1382,Jaipura,Doddajala B.O,,,,,,,562157,Bangalore North,BANGALORE,KARNATAKA
1383,JPN COurt Center,Vidyanagara B.O,,,,,,,562157,Bangalore North,BANGALORE,KARNATAKA
1384,Kathri Public School,Vidyanagara B.O,,,,,,,562157,Bangalore North,BANGALORE,KARNATAKA
1385,SMVIT CRoss,Hunasamaranahalli B.O,,,,,,,562157,Bangalore North,BANGALORE,KARNATAKA
1386,Telecom Lay out,Vidyanagara B.O,,,,,,,562157,Bangalore North,BANGALORE,KARNATAKA
1387,Gadenahalli,Tarahunise B.O,13.1885367,77.6178291,13.1685367,13.2085367,77.5978291,77.63782909999999,562157,Bangalore North,BANGALORE,KARNATAKA
1388,Sports School- Vidya Nagara,Vidyanagara B.O,,,,,,,562157,Bangalore North,BANGALORE,KARNATAKA
1389,Vidyanikethan School,Vidyanagara B.O,12.9248641,77.499477,12.9248141,12.9249141,77.499427,77.499527,562157,Bangalore North,BANGALORE,KARNATAKA
1390,Akkalemalaenahalli,Doddajala B.O,,,,,,,562157,Bangalore North,BANGALORE,KARNATAKA
1391,Govt High School,Vidyanagara B.O,13.072554199999999,77.7851269701518,13.0724197,13.0726731,77.7845703,77.7856566,562157,Bangalore North,BANGALORE,KARNATAKA
1392,Palekammanagara,Chikkajala B.O,,,,,,,562157,Bangalore North,BANGALORE,KARNATAKA
1393,Sadahalligate,Doddajala B.O,13.191266800000001,77.646333,13.191216800000001,13.191316800000001,77.646283,77.646383,562157,Bangalore North,BANGALORE,KARNATAKA
1394,Sonnappanahalli,Bettahalsur S.O,,,,,,,562157,Bangalore North,BANGALORE,KARNATAKA
1395,Venkateswara Colony,Vidyanagara B.O,13.0406046,77.5570069,13.0405546,13.0406546,77.5569569,77.5570569,562157,Bangalore North,BANGALORE,KARNATAKA
1396,Byanahalli,Chikkajala B.O,,,,,,,562157,Bangalore North,BANGALORE,KARNATAKA
1397,Navarathna Agrahara,Tarahunise B.O,13.199056699999998,77.6141733,13.199006699999998,13.199106699999998,77.6141233,77.6142233,562157,Bangalore North,BANGALORE,KARNATAKA
1398,"Sridevi P Ltd,BIll",Vidyanagara B.O,,,,,,,562157,Bangalore North,BANGALORE,KARNATAKA
1399,Yerthiganahalli,Doddajala B.O,,,,,,,562157,Devanahalli,BANGALORE RURAL,KARNATAKA
1400,Bill Lay Out,Vidyanagara B.O,,,,,,,562157,Bangalore North,BANGALORE,KARNATAKA
1401,Bilmaranahalli,Vidyanagara B.O,,,,,,,562157,Bangalore North,BANGALORE,KARNATAKA
1402,Meenakunte,Doddajala B.O,,,,,,,562157,Bangalore North,BANGALORE,KARNATAKA
1403,Venkateswara Central School,Vidyanagara B.O,12.9306875,77.67566820186971,12.9306282,12.930746899999999,77.6755416,77.67579479999999,562157,Bangalore North,BANGALORE,KARNATAKA
1404,Huttanahalli,Chikkajala B.O,,,,,,,562157,Bangalore North,BANGALORE,KARNATAKA
1405,Maranayakana Halli,Chikkajala B.O,,,,,,,562157,Bangalore North,BANGALORE,KARNATAKA
1406,MVIT COLLEGE,Hunasamaranahalli B.O,,,,,,,562157,Bangalore North,BANGALORE,KARNATAKA
1407,Bettahalasur,Bettahalsur S.O,,,,,,,562157,Bangalore North,BANGALORE,KARNATAKA
1408,Govt Primary School,Vidyanagara B.O,12.9825825,77.67706559999999,12.9825325,12.9826325,77.67701559999999,77.6771156,562157,Bangalore North,BANGALORE,KARNATAKA
1409,Kuduragere,Tarahunise B.O,,,,,,,562157,Bangalore North,BANGALORE,KARNATAKA
1410,PG Hostel,Vidyanagara B.O,13.0395696,77.62094429999999,13.0395196,13.0396196,77.6208943,77.62099429999999,562157,Bangalore North,BANGALORE,KARNATAKA
1411,Settigere,Doddajala B.O,13.190877800000003,77.6457522,13.190827800000003,13.190927800000003,77.6457022,77.6458022,562157,Bangalore North,BANGALORE,KARNATAKA
1412,Suggatta,Hunasamaranahalli B.O,13.144542999999999,77.6034356,13.144492999999999,13.144592999999999,77.6033856,77.60348559999998,562157,Bangalore North,BANGALORE,KARNATAKA
1413,Veerendra(P) Ltd Bill,Vidyanagara B.O,,,,,,,562157,Bangalore North,BANGALORE,KARNATAKA
1414,K.G. Lakkenahalli,Lakshmipura B.O,13.0434903,77.3972985,13.0234903,13.0634903,77.3772985,77.4172985,562162,Bangalore North,BANGALORE,KARNATAKA
1415,Madanaiyakanahalli,Madanayakanahalli S.O,,,,,,,562162,Bangalore North,BANGALORE,KARNATAKA
1416,Alur,Aluru B.O,12.9606132,77.5716719,12.95985,12.9606132,77.56850920000001,77.5745392,562162,Bangalore North,BANGALORE,KARNATAKA
1417,Bylakonenahalli,Lakshmipura B.O,,,,,,,562162,Bangalore North,BANGALORE,KARNATAKA
1418,Hanumantha Sagara,Madavara B.O,,,,,,,562162,Bangalore North,BANGALORE,KARNATAKA
1419,Huchana Palya,Huskur B.O,,,,,,,562162,Bangalore North,BANGALORE,KARNATAKA
1420,Kachohalli,Lakshmipura B.O,12.9997576,77.4699806,12.9797576,13.0197576,77.4499806,77.4899806,562162,Bangalore North,BANGALORE,KARNATAKA
1421,Kadaranahalli,Lakshmipura B.O,13.3351417,77.1948123,13.315141699999998,13.355141699999999,77.1748123,77.2148123,562162,Bangalore North,BANGALORE,KARNATAKA
1422,Mariyanapalya,Mathahalli B.O,,,,,,,562162,Bangalore North,BANGALORE,KARNATAKA
1423,Mathahalli,Mathahalli B.O,,,,,,,562162,Bangalore North,BANGALORE,KARNATAKA
1424,Siddanahosahalli,Madavara B.O,,,,,,,562162,Bangalore North,BANGALORE,KARNATAKA
1425,Bommasettihalli,Huskur B.O,,,,,,,562162,Bangalore North,BANGALORE,KARNATAKA
1426,Dombarahalli,Lakshmipura B.O,13.0487558,77.4608658,13.0287558,13.0687558,77.4408658,77.48086579999999,562162,Bangalore North,BANGALORE,KARNATAKA
1427,Harokyathanahalli,Makali B.O,,,,,,,562162,Bangalore North,BANGALORE,KARNATAKA
1428,Bethanagere,Huskur B.O,,,,,,,562162,Bangalore North,BANGALORE,KARNATAKA
1429,Heggadadevanapura,Aluru B.O,13.0757454,77.45755279999999,13.0557454,13.0957454,77.43755279999999,77.4775528,562162,Bangalore North,BANGALORE,KARNATAKA
1430,Hosahalli Palya,Mathahalli B.O,12.963992900000001,77.5511866,12.963942900000001,12.9640429,77.55113659999999,77.5512366,562162,Bangalore North,BANGALORE,KARNATAKA
1431,Makali,Makali B.O,13.439241699999998,77.4890962,13.419241699999999,13.459241699999998,77.46909620000001,77.5090962,562162,Dod Ballapur,BANGALORE RURAL,KARNATAKA
1432,Muniyanapalya,Mathahalli B.O,,,,,,,562162,Bangalore North,BANGALORE,KARNATAKA
1433,Adakamaranahalli,Makali B.O,12.946859300000002,77.3095674,12.9268593,12.966859300000001,77.28956740000001,77.32956740000002,562162,Bangalore North,BANGALORE,KARNATAKA
1434,Agrahara Palya,Mathahalli B.O,12.987684699999999,77.719366832377,12.9759636,12.999528,77.6884904,77.7447272,562162,Bangalore North,BANGALORE,KARNATAKA
1435,Gejjagadahalli,Shivanapura B.O,,,,,,,562162,Bangalore North,BANGALORE,KARNATAKA
1436,Gowdahalli,Shivanapura B.O,,,,,,,562162,Bangalore North,BANGALORE,KARNATAKA
1437,Kenganahalli,Hullegowdanahalli B.O,13.0516166,77.4118692,13.0316166,13.0716166,77.3918692,77.43186920000001,562162,Bangalore North,BANGALORE,KARNATAKA
1438,Torenagasandra,Mathahalli B.O,,,,,,,562162,Bangalore North,BANGALORE,KARNATAKA
1439,Madavara,Madavara B.O,13.0531988,77.4729679,13.033198800000001,13.073198800000002,77.4529679,77.4929679,562162,Bangalore North,BANGALORE,KARNATAKA
1440,Rampalya,Huskur B.O,,,,,,,562162,Bangalore North,BANGALORE,KARNATAKA
1441,Gangondanahalli,Lakshmipura B.O,13.0217216,77.4677251,13.0216716,13.0217716,77.4676751,77.4677751,562162,Bangalore North,BANGALORE,KARNATAKA
1442,K.G.Srikantapura,Lakshmipura B.O,,,,,,,562162,Bangalore North,BANGALORE,KARNATAKA
1443,Syadamipalya,Huskur B.O,,,,,,,562162,Bangalore North,BANGALORE,KARNATAKA
1444,Budumanahalli,Arakere B.O,,,,,,,562163,Bangalore North,BANGALORE,KARNATAKA
1445,Challahalli,Doddatumkur B.O,13.2172845,77.5066675,13.1972845,13.2372845,77.48666750000001,77.5266675,562163,Bangalore North,BANGALORE,KARNATAKA
1446,Konaghatta,Konnagatta B.O,13.3118574,77.60308859999999,13.2918574,13.331857399999999,77.5830886,77.62308859999999,562163,Dod Ballapur,BANGALORE RURAL,KARNATAKA
1447,Shivapura,Shivapura B.O,13.307585099999999,77.56600590000001,13.2875851,13.3275851,77.5460059,77.5860059,562163,Dod Ballapur,BANGALORE RURAL,KARNATAKA
1448,Adde Vishwanathapura,Arakere B.O,,,,,,,562163,Bangalore North,BANGALORE,KARNATAKA
1449,Adinarayana Hosahalli,Konnagatta B.O,13.2788452,77.59237490000001,13.2588452,13.298845199999999,77.5723749,77.6123749,562163,Dod Ballapur,BANGALORE RURAL,KARNATAKA
1450,Jinkebachchahalli,Doddatumkur B.O,,,,,,,562163,Dod Ballapur,BANGALORE RURAL,KARNATAKA
1451,K.G.Lingenahalli,Konnagatta B.O,,,,,,,562163,Dod Ballapur,BANGALORE RURAL,KARNATAKA
1452,Pindakuru Thimmanahalli,Shivapura B.O,,,,,,,562163,Dod Ballapur,BANGALORE RURAL,KARNATAKA
1453,Haniyur,Doddatumkur B.O,,,,,,,562163,Hosakote,BANGALORE RURAL,KARNATAKA
1454,Kasuvanahalli,Veerapura B.O,,,,,,,562163,Dod Ballapur,BANGALORE RURAL,KARNATAKA
1455,Hosahudya,Doddatumkur B.O,13.238548199999999,77.5443928,13.218548199999999,13.258548199999998,77.5243928,77.5643928,562163,Dod Ballapur,BANGALORE RURAL,KARNATAKA
1456,Obadenahalli,NAGADENAHALLI,13.275843400000001,77.57666409999999,13.255843400000002,13.2958434,77.55666409999999,77.5966641,562163,Dod Ballapur,BANGALORE RURAL,KARNATAKA
1457,Shanubhoganahalli,Arakere B.O,,,,,,,562163,Bangalore North,BANGALORE,KARNATAKA
1458,Varadanahalli,Veerapura B.O,13.256699300000001,77.5654678,13.236699300000002,13.276699300000002,77.5454678,77.58546779999999,562163,Dod Ballapur,BANGALORE RURAL,KARNATAKA
1459,Arakere,Arakere B.O,13.200111699999999,77.5387874,13.1801117,13.2201117,77.51878740000001,77.5587874,562163,Bangalore North,BANGALORE,KARNATAKA
1460,Basettihalli,Basettihalli B.O,,,,,,,562163,Dod Ballapur,BANGALORE RURAL,KARNATAKA
1461,Chikka Tumkur,Veerapura B.O,13.1972794,77.1953809,13.1772794,13.217279399999999,77.17538090000001,77.2153809,562163,Dod Ballapur,BANGALORE RURAL,KARNATAKA
1462,Ragunathapura,NAGADENAHALLI,,,,,,,562163,Dod Ballapur,BANGALORE RURAL,KARNATAKA
1463,Shivapura Amanikere,Shivapura B.O,,,,,,,562163,Dod Ballapur,BANGALORE RURAL,KARNATAKA
1464,Veerapura,Veerapura B.O,13.3911226,77.8866177,13.3711226,13.411122599999999,77.8666177,77.9066177,562163,Hosakote,BANGALORE RURAL,KARNATAKA
1465,Arehalli Guddadahalli,Basettihalli B.O,13.2709759,77.56671419999999,13.250975899999998,13.2909759,77.5467142,77.5867142,562163,Dod Ballapur,BANGALORE RURAL,KARNATAKA
1466,Karim Sonnenahalli,Doddatumkur B.O,,,,,,,562163,Dod Ballapur,BANGALORE RURAL,KARNATAKA
1467,Nagadenahalli,Konnagatta B.O,13.284069899999999,77.59831199999999,13.264069899999999,13.3040699,77.578312,77.618312,562163,Dod Ballapur,BANGALORE RURAL,KARNATAKA
1468,Sreeramanahalli,Arakere B.O,,,,,,,562163,Bangalore North,BANGALORE,KARNATAKA
1469,Yellupura,Veerapura B.O,,,,,,,562163,Dod Ballapur,BANGALORE RURAL,KARNATAKA
1470,Kadathanamale,Arakere B.O,,,,,,,562163,Bangalore North,BANGALORE,KARNATAKA
1471,Thippapura,Veerapura B.O,,,,,,,562163,Dod Ballapur,BANGALORE RURAL,KARNATAKA
1472,Bisuvanahalli,Veerapura B.O,,,,,,,562163,Dod Ballapur,BANGALORE RURAL,KARNATAKA
1473,Dodda Tumkur,Doddatumkur B.O,13.441137,77.2214129,13.421137,13.461136999999999,77.20141290000001,77.2414129,562163,Dod Ballapur,BANGALORE RURAL,KARNATAKA
1474,Sriramanahalli,Arakere B.O,,,,,,,562163,Dod Ballapur,BANGALORE RURAL,KARNATAKA
1475,Bijjawara,Bijjawara B.O,,,,,,,562164,Devanahalli,BANGALORE RURAL,KARNATAKA
1476,Hurlagurki,Venkatagirikote B.O,,,,,,,562164,Devanahalli,BANGALORE RURAL,KARNATAKA
1477,Rabbanahalli,Koira B.O,,,,,,,562164,Devanahalli,BANGALORE RURAL,KARNATAKA
1478,Thatamachanahalli Amanikere,Venkatagirikote B.O,,,,,,,562164,Devanahalli,BANGALORE RURAL,KARNATAKA
1479,Thylagere,Karahalli B.O,,,,,,,562164,Devanahalli,BANGALORE RURAL,KARNATAKA
1480,Anighatta,Bidalur B.O,13.278085199999998,77.6896935,13.258085199999998,13.2980852,77.66969350000001,77.7096935,562164,Devanahalli,BANGALORE RURAL,KARNATAKA
1481,Irigenahalli,Bijjawara B.O,13.3389658,77.73297409999999,13.318965799999999,13.3589658,77.7129741,77.75297409999999,562164,Devanahalli,BANGALORE RURAL,KARNATAKA
1482,Bingipura,Venkatagirikote B.O,12.83551175,77.62657146958341,12.833702,12.8373894,77.624985,77.6290781,562164,Devanahalli,BANGALORE RURAL,KARNATAKA
1483,Doddamuddenahalli,Bijjawara B.O,13.3212908,77.7702297,13.3012908,13.3412908,77.7502297,77.7902297,562164,Devanahalli,BANGALORE RURAL,KARNATAKA
1484,Hiriganahalli,Bijjawara B.O,,,,,,,562164,Devanahalli,BANGALORE RURAL,KARNATAKA
1485,Karahalli Amanikere,Karahalli B.O,,,,,,,562164,Devanahalli,BANGALORE RURAL,KARNATAKA
1486,Kottigethimmanahalli,Karahalli B.O,,,,,,,562164,Devanahalli,BANGALORE RURAL,KARNATAKA
1487,Ramanathapura,Koira B.O,13.3085506,77.6381078,13.288550599999999,13.3285506,77.6181078,77.6581078,562164,Devanahalli,BANGALORE RURAL,KARNATAKA
1488,Venkatagirikote,Venkatagirikote B.O,13.3274011,77.73361390000001,13.3074011,13.347401099999999,77.71361390000001,77.7536139,562164,Devanahalli,BANGALORE RURAL,KARNATAKA
1489,Chikkagollahalli,Koira B.O,13.298437,77.654218,13.278437,13.318437,77.634218,77.67421800000001,562164,Devanahalli,BANGALORE RURAL,KARNATAKA
1490,Kempathimmanahalli,Karahalli B.O,13.2234855,77.65448640000001,13.203485500000001,13.2434855,77.6344864,77.6744864,562164,Devanahalli,BANGALORE RURAL,KARNATAKA
1491,Muddanayakanahalli,Bidalur B.O,13.297116,77.68020059999999,13.277116,13.317116,77.6602006,77.70020059999999,562164,Devanahalli,BANGALORE RURAL,KARNATAKA
1492,Yambarahalli,Karahalli B.O,13.316088699999998,77.70145090000001,13.296088699999999,13.3360887,77.6814509,77.72145090000001,562164,Devanahalli,BANGALORE RURAL,KARNATAKA
1493,Aruvanahalli,Koira B.O,13.303036800000001,77.6345459,13.283036800000001,13.323036800000002,77.61454590000001,77.6545459,562164,Devanahalli,BANGALORE RURAL,KARNATAKA
1494,Devenahalli,Bidalur B.O,13.282716800000001,77.70347009999999,13.2627168,13.3027168,77.6834701,77.72347009999999,562164,Devanahalli,BANGALORE RURAL,KARNATAKA
1495,Holerahalli,Bijjawara B.O,13.3263545,77.7645296,13.306354500000001,13.346354500000002,77.74452959999999,77.7845296,562164,Devanahalli,BANGALORE RURAL,KARNATAKA
1496,Kodagurki,Bidalur B.O,13.299471599999999,77.7003434,13.279471599999999,13.319471599999998,77.6803434,77.7203434,562164,Devanahalli,BANGALORE RURAL,KARNATAKA
1497,Mudugurki,Venkatagirikote B.O,13.342046799999999,77.7243128,13.322046799999999,13.3620468,77.7043128,77.7443128,562164,Devanahalli,BANGALORE RURAL,KARNATAKA
1498,Mangondanahalli,Koira B.O,,,,,,,562164,Devanahalli,BANGALORE RURAL,KARNATAKA
1499,Moodiganahalli,Karahalli B.O,,,,,,,562164,Devanahalli,BANGALORE RURAL,KARNATAKA
1500,Thimmahalli,Bijjawara B.O,,,,,,,562164,Devanahalli,BANGALORE RURAL,KARNATAKA
1501,Doddasagarahalli,Karahalli B.O,13.334738699999999,77.7073134,13.3147387,13.354738699999999,77.68731340000001,77.72731340000001,562164,Devanahalli,BANGALORE RURAL,KARNATAKA
1502,Koira,Koira B.O,13.303424300000001,77.641612,13.283424300000002,13.323424300000001,77.621612,77.661612,562164,Devanahalli,BANGALORE RURAL,KARNATAKA
1503,Maligenahalli,Bidalur B.O,13.2889777,77.7055064,13.2689777,13.3089777,77.68550640000001,77.7255064,562164,Devanahalli,BANGALORE RURAL,KARNATAKA
1504,Savakanahalli,Bidalur B.O,13.267403699999997,77.6939273,13.247403699999998,13.287403699999999,77.67392729999999,77.7139273,562164,Devanahalli,BANGALORE RURAL,KARNATAKA
