,Village/Locality name,Officename ( BO/SO/HO),latitude,longitude,Pincode,Sub-distname,Districtname,StateName
517731,Bangalore North,Vidhana Soudha S.O,,,560001,Bangalore North,BANGALORE,KARNATAKA
517732,Bangalore North,HighCourt S.O,,,560001,Bangalore North,BANGALORE,KARNATAKA
517733,Bangalore North,Dr. Ambedkar Veedhi S.O,,,560001,Bangalore North,BANGALORE,KARNATAKA
517734,Bangalore North,Legislators Home S.O,,,560001,Bangalore North,BANGALORE,KARNATAKA
517735,Bangalore North,Rajbhavan S.O (Bangalore),,,560001,Bangalore North,BANGALORE,KARNATAKA
517736,Bangalore North,Mahatma Gandhi Road S.O,,,560001,Bangalore North,BANGALORE,KARNATAKA
517737,Bangalore North,Bangalore Bazaar S.O,,,560001,Bangalore North,BANGALORE,KARNATAKA
517738,Bangalore North,Bangalore G.P.O.,,,560001,Bangalore North,BANGALORE,KARNATAKA
517739,Bangalore North,Bangalore City S.O,,,560002,Bangalore North,BANGALORE,KARNATAKA
517740,Bangalore South,Bangalore Corporation Building S.O,,,560002,Bangalore South,BANGALORE,KARNATAKA
517741,Bangalore North,Malleswaram S.O,,,560003,Bangalore North,BANGALORE,KARNATAKA
517742,Bangalore North,Vyalikaval Extn S.O,,,560003,Bangalore North,BANGALORE,KARNATAKA
517743,Bangalore North,Palace Guttahalli S.O,,,560003,Bangalore North,BANGALORE,KARNATAKA
517744,Bangalore North,Swimming Pool Extn S.O,,,560003,Bangalore North,BANGALORE,KARNATAKA
517745,Bangalore South,Basavanagudi H.O,,,560004,Bangalore South,BANGALORE,KARNATAKA
517746,Bangalore South,Gaviopuram Extension S.O,,,560004,Bangalore South,BANGALORE,KARNATAKA
517747,Bangalore South,Mavalli S.O,,,560004,Bangalore South,BANGALORE,KARNATAKA
517748,Bangalore South,Pampamahakavi Road S.O,,,560004,Bangalore South,BANGALORE,KARNATAKA
517749,Bangalore North,Fraser Town S.O,,,560005,Bangalore North,BANGALORE,KARNATAKA
517750,Bangalore North,J.C.Nagar S.O,,,560006,Bangalore North,BANGALORE,KARNATAKA
517751,Bangalore North,Training Command IAF S.O,,,560006,Bangalore North,BANGALORE,KARNATAKA
517752,Bangalore North,Air Force Hospital S.O,,,560007,Bangalore North,BANGALORE,KARNATAKA
517753,Bangalore South,Agram S.O,,,560007,Bangalore South,BANGALORE,KARNATAKA
517754,Bangalore North,H.A.L II Stage H.O,,,560008,Bangalore North,BANGALORE,KARNATAKA
517755,Bangalore North,Hulsur Bazaar S.O,,,560008,Bangalore North,BANGALORE,KARNATAKA
517756,Bangalore North,Bangalore Dist Offices Bldg S.O,,,560009,Bangalore North,BANGALORE,KARNATAKA
517757,Bangalore North,K. G. Road S.O,,,560009,Bangalore North,BANGALORE,KARNATAKA
517758,Bangalore North,Rajajinagar IVth Block S.O,,,560010,Bangalore North,BANGALORE,KARNATAKA
517759,Bangalore North,Industrial Estate S.O (Bangalore),,,560010,Bangalore North,BANGALORE,KARNATAKA
517760,Bangalore North,Rajajinagar H.O,,,560010,Bangalore North,BANGALORE,KARNATAKA
517761,Bangalore South,Jayangar III Block S.O,,,560011,Bangalore South,BANGALORE,KARNATAKA
517762,Bangalore South,Madhavan Park S.O,,,560011,Bangalore South,BANGALORE,KARNATAKA
517763,Bangalore North,Science Institute S.O,,,560012,Bangalore North,BANGALORE,KARNATAKA
517764,Bangalore North,Jalahalli East S.O,,,560013,Bangalore North,BANGALORE,KARNATAKA
517765,Bangalore North,Jalahalli H.O,,,560013,Bangalore North,BANGALORE,KARNATAKA
517766,Bangalore North,Jalahalli West S.O,,,560015,Bangalore North,BANGALORE,KARNATAKA
517767,Bangalore North,Doorvaninagar S.O,,,560016,Bangalore North,BANGALORE,KARNATAKA
517768,Bangalore North,Krishnarajapuram R S S.O,,,560016,Bangalore North,BANGALORE,KARNATAKA
517769,Bangalore North,Ramamurthy Nagar S.O,,,560016,Bangalore North,BANGALORE,KARNATAKA
517770,Bangalore North,NAL S.O,,,560017,Bangalore North,BANGALORE,KARNATAKA
517771,Bangalore North,Vimanapura S.O,,,560017,Bangalore North,BANGALORE,KARNATAKA
517772,Bangalore South,Chamrajpet S.O (Bangalore),,,560018,Bangalore South,BANGALORE,KARNATAKA
517773,Bangalore North,Seshadripuram S.O,,,560020,Bangalore North,BANGALORE,KARNATAKA
517774,Bangalore North,Gayathrinagar S.O,,,560021,Bangalore North,BANGALORE,KARNATAKA
517775,Bangalore North,Srirampuram S.O,,,560021,Bangalore North,BANGALORE,KARNATAKA
517776,Bangalore North,Yeswanthpura S.O,,,560022,Bangalore North,BANGALORE,KARNATAKA
517777,Bangalore North,Yeshwanthpur Bazar S.O,,,560022,Bangalore North,BANGALORE,KARNATAKA
517778,Bangalore North,Magadi Road S.O,,,560023,Bangalore North,BANGALORE,KARNATAKA
517779,Bangalore North,Anandnagar S.O (Bangalore),,,560024,Bangalore North,BANGALORE,KARNATAKA
517780,Bangalore North,H.A. Farm S.O,,,560024,Bangalore North,BANGALORE,KARNATAKA
517781,Bangalore North,Hebbal Kempapura S.O,,,560024,Bangalore North,BANGALORE,KARNATAKA
517782,Bangalore North,Museum Road S.O,,,560025,Bangalore North,BANGALORE,KARNATAKA
517783,Bangalore North,CMP Centre And School S.O,,,560025,Bangalore North,BANGALORE,KARNATAKA
517784,Bangalore North,Richmond Town S.O,,,560025,Bangalore North,BANGALORE,KARNATAKA
517785,Bangalore South,Governmemnt Electric Factory S.O,,,560026,Bangalore South,BANGALORE,KARNATAKA
517786,Bangalore South,Deepanjalinagar S.O,,,560026,Bangalore South,BANGALORE,KARNATAKA
517787,Bangalore South,Nayandahalli S.O,,,560026,Bangalore South,BANGALORE,KARNATAKA
517788,Bangalore South,Shanthinagar S.O,,,560027,Bangalore South,BANGALORE,KARNATAKA
517789,Bangalore South,Wilson Garden S.O,,,560027,Bangalore South,BANGALORE,KARNATAKA
517790,Bangalore South,Sampangiramnagar S.O,,,560027,Bangalore South,BANGALORE,KARNATAKA
517791,Bangalore South,Dharmaram College S.O,,,560029,Bangalore South,BANGALORE,KARNATAKA
517792,Bangalore South,Adugodi S.O,,,560030,Bangalore South,BANGALORE,KARNATAKA
517793,Bangalore North,P&T Col. Kavalbyrasandra S.O,,,560032,Bangalore North,BANGALORE,KARNATAKA
517794,Bangalore North,R T Nagar H.O,,,560032,Bangalore North,BANGALORE,KARNATAKA
517795,Bangalore North,Maruthi Sevanagar S.O,,,560033,Bangalore North,BANGALORE,KARNATAKA
517796,Venkatapura,Koramangala I Block S.O,,,560034,Bangalore North,BANGALORE,KARNATAKA
517797,Venkatapura,Koramangala S.O,,,560034,Bangalore South,BANGALORE,KARNATAKA
517798,Bangalore South,Koramangala I Block S.O,,,560034,Bangalore South,BANGALORE,KARNATAKA
517799,Bangalore South,Agara B.O,,,560034,Bangalore South,BANGALORE,KARNATAKA
517800,Bangalore South,Koramangala S.O,,,560034,Bangalore South,BANGALORE,KARNATAKA
517801,Bangalore South,St. John's Medical College S.O,,,560034,Bangalore South,BANGALORE,KARNATAKA
517802,Ambalipura,Koramangala S.O,,,560034,Bangalore South,BANGALORE,KARNATAKA
517803,Haralur,Koramangala S.O,,,560034,Bangalore South,BANGALORE,KARNATAKA
517804,Agara,Koramangala S.O,,,560034,Bangalore South,BANGALORE,KARNATAKA
517805,Chikkakannalli,Carmelram S.O,,,560035,Bangalore South,BANGALORE,KARNATAKA
517806,Hadosiddapura,Carmelram S.O,,,560035,Bangalore South,BANGALORE,KARNATAKA
517807,Kaikondahalli,Carmelram S.O,,,560035,Bangalore South,BANGALORE,KARNATAKA
517808,Doddakannalli,Carmelram S.O,,,560035,Bangalore South,BANGALORE,KARNATAKA
517809,Halanayakanahalli,Carmelram S.O,,,560035,Bangalore South,BANGALORE,KARNATAKA
517810,Chikkanayakanahalli,Carmelram S.O,,,560035,Bangalore South,BANGALORE,KARNATAKA
517811,Kodathi,Carmelram S.O,,,560035,Bangalore South,BANGALORE,KARNATAKA
517812,Bangalore South,Carmelram S.O,,,560035,Bangalore South,BANGALORE,KARNATAKA
517813,Chikkabellandur,Carmelram S.O,,,560035,Bangalore South,BANGALORE,KARNATAKA
517814,Junnasandra,Carmelram S.O,,,560035,Bangalore South,BANGALORE,KARNATAKA
517815,Mulluru,Carmelram S.O,,,560035,Bangalore South,BANGALORE,KARNATAKA
517816,Bangalore North,Devasandra S.O,,,560036,Bangalore North,BANGALORE,KARNATAKA
517817,Kithiganur,Krishnarajapuram S.O,,,560036,Bangalore South,BANGALORE,KARNATAKA
517818,Halehalli,Krishnarajapuram S.O,,,560036,Bangalore South,BANGALORE,KARNATAKA
517819,Varanasi,Krishnarajapuram S.O,,,560036,Bangalore South,BANGALORE,KARNATAKA
517820,Bangalore North,Krishnarajapuram S.O,,,560036,Bangalore North,BANGALORE,KARNATAKA
517821,Maragondanahalli,Krishnarajapuram S.O,,,560036,Bangalore South,BANGALORE,KARNATAKA
517822,Bangalore North,Marathahalli Colony S.O,,,560037,Bangalore North,BANGALORE,KARNATAKA
517823,Bangalore North,Kundalahalli S.O,,,560037,Bangalore North,BANGALORE,KARNATAKA
517824,Bangalore North,Doddanekkundi B.O,,,560037,Bangalore North,BANGALORE,KARNATAKA
517825,Bangalore North,Rameshnagar S.O,,,560037,Bangalore North,BANGALORE,KARNATAKA
517826,Bangalore North,Indiranagar S.O (Bangalore),,,560038,Bangalore North,BANGALORE,KARNATAKA
517827,Bangalore North,Chandra Lay Out S.O,,,560040,Bangalore North,BANGALORE,KARNATAKA
517828,Bangalore North,Vijayanagar East S.O,,,560040,Bangalore North,BANGALORE,KARNATAKA
517829,Bangalore North,Vijayanagar S.O (Bangalore),,,560040,Bangalore North,BANGALORE,KARNATAKA
517830,Bangalore South,Jayanagar H.O,,,560041,Bangalore South,BANGALORE,KARNATAKA
517831,Bangalore South,Tilaknagar S.O (Bangalore),,,560041,Bangalore South,BANGALORE,KARNATAKA
517832,Bangalore North,Sivan Chetty Gardens S.O,,,560042,Bangalore North,BANGALORE,KARNATAKA
517833,Bangalore North,Kalyananagar S.O,,,560043,Bangalore North,BANGALORE,KARNATAKA
517834,Bangalore North,Banaswadi S.O,,,560043,Bangalore North,BANGALORE,KARNATAKA
517835,Bangalore North,Jalavayuvihar S.O,,,560043,Bangalore North,BANGALORE,KARNATAKA
517836,Bangalore North,Venkateshapura S.O,,,560045,Bangalore North,BANGALORE,KARNATAKA
517837,Rachenahalli,Arabic College S.O,,,560045,Bangalore South,BANGALORE,KARNATAKA
517838,Amani Byrathikhane,Arabic College S.O,,,560045,Bangalore South,BANGALORE,KARNATAKA
517839,Bangalore North,Arabic College S.O,,,560045,Bangalore North,BANGALORE,KARNATAKA
517840,Thanisandra,Arabic College S.O,,,560045,Bangalore South,BANGALORE,KARNATAKA
517841,Bangalore North,Benson Town S.O,,,560046,Bangalore North,BANGALORE,KARNATAKA
517842,Bangalore South,Viveknagar S.O (Bangalore),,,560047,Bangalore South,BANGALORE,KARNATAKA
517843,Bangalore North,Austin Town S.O,,,560047,Bangalore North,BANGALORE,KARNATAKA
517844,Bangalore North,Hoodi B.O,,,560048,Bangalore North,BANGALORE,KARNATAKA
517845,Bangalore North,Mahadevapura S.O,,,560048,Bangalore North,BANGALORE,KARNATAKA
517846,Adur,Bidrahalli B.O,,,560049,Bangalore South,BANGALORE,KARNATAKA
517847,Gundur,Bidrahalli B.O,,,560049,Bangalore South,BANGALORE,KARNATAKA
517848,Hancharahalli,Mundur B.O,,,560049,Bangalore South,BANGALORE,KARNATAKA
517849,Medihalli,Virgonagar S.O,,,560049,Hosakote,BANGALORE RURAL,KARNATAKA
517850,Vanajanahalli,Mundur B.O,,,560049,Bangalore South,BANGALORE,KARNATAKA
517851,Bandapura,Virgonagar S.O,,,560049,Bangalore South,BANGALORE,KARNATAKA
517852,Bidarahalli,Bidrahalli B.O,,,560049,Bangalore South,BANGALORE,KARNATAKA
517853,Honachanahalli,Mundur B.O,,,560049,Hosakote,BANGALORE RURAL,KARNATAKA
517854,Kammasandra,Bidrahalli B.O,,,560049,Bangalore South,BANGALORE,KARNATAKA
517855,Kodigehalli,Mundur B.O,,,560049,Bangalore South,BANGALORE,KARNATAKA
517856,Rampura,Bidrahalli B.O,,,560049,Bangalore South,BANGALORE,KARNATAKA
517857,Avalahalli,Virgonagar S.O,,,560049,Bangalore South,BANGALORE,KARNATAKA
517858,Kurudusonnenahalli,Virgonagar S.O,,,560049,Bangalore South,BANGALORE,KARNATAKA
517859,Raghuvanahalli,Mundur B.O,,,560049,Bangalore South,BANGALORE,KARNATAKA
517860,Bangalore North,Bhattarahalli S.O,,,560049,Bangalore North,BANGALORE,KARNATAKA
517861,Bommenahalli,Mundur B.O,,,560049,Bangalore South,BANGALORE,KARNATAKA
517862,Chikkasandra,Bidrahalli B.O,,,560049,Bangalore South,BANGALORE,KARNATAKA
517863,Huskur,Mundur B.O,,,560049,Bangalore South,BANGALORE,KARNATAKA
517864,Jothipura,Mundur B.O,,,560049,Bangalore South,BANGALORE,KARNATAKA
517865,Shringaripura,Mundur B.O,,,560049,Bangalore South,BANGALORE,KARNATAKA
517866,Bendiganahalli,Mundur B.O,,,560049,Bangalore South,BANGALORE,KARNATAKA
517867,Byappanahalli,Bidrahalli B.O,,,560049,Bangalore South,BANGALORE,KARNATAKA
517868,Katamnallur,Virgonagar S.O,,,560049,Bangalore South,BANGALORE,KARNATAKA
517869,Marasandra Amanikere,Mundur B.O,,,560049,Bangalore North,BANGALORE,KARNATAKA
517870,Nimbekaipura,Mundur B.O,,,560049,Bangalore South,BANGALORE,KARNATAKA
517871,Vaderahalli,Bidrahalli B.O,,,560049,Bangalore North,BANGALORE,KARNATAKA
517872,Veerenahalli,Virgonagar S.O,,,560049,Bangalore South,BANGALORE,KARNATAKA
517873,Cheemasandra,Virgonagar S.O,,,560049,Bangalore South,BANGALORE,KARNATAKA
517874,Hirandahalli,Bidrahalli B.O,,,560049,Bangalore South,BANGALORE,KARNATAKA
517875,Huvinane,Virgonagar S.O,,,560049,Bangalore South,BANGALORE,KARNATAKA
517876,Kattugollahalli,Mundur B.O,,,560049,Bangalore South,BANGALORE,KARNATAKA
517877,Bangalore North,Virgonagar S.O,,,560049,Bangalore North,BANGALORE,KARNATAKA
517878,Bidare Agrahara,Virgonagar S.O,,,560049,Bangalore South,BANGALORE,KARNATAKA
517879,Konadasapura,Virgonagar S.O,,,560049,Bangalore South,BANGALORE,KARNATAKA
517880,Mandur,Mundur B.O,,,560049,Bangalore South,BANGALORE,KARNATAKA
517881,Marasandra,Mundur B.O,,,560049,Bangalore North,BANGALORE,KARNATAKA
517882,Bangalore South,State Bank Of Mysore Colony S.O,,,560050,Bangalore South,BANGALORE,KARNATAKA
517883,Bangalore South,Dasarahalli(Srinagar) S.O,,,560050,Bangalore South,BANGALORE,KARNATAKA
517884,Bidarahalli,Ashoknagar S.O (Bangalore),,,560050,Bangalore South,BANGALORE,KARNATAKA
517885,Bangalore South,Banashankari S.O,,,560050,Bangalore South,BANGALORE,KARNATAKA
517886,Bangalore North,H.K.P. Road S.O,,,560051,Bangalore North,BANGALORE,KARNATAKA
517887,Bangalore South,Chickpet S.O,,,560053,Bangalore South,BANGALORE,KARNATAKA
517888,Bangalore North,Mathikere S.O,,,560054,Bangalore North,BANGALORE,KARNATAKA
517889,Bangalore North,Msrit S.O,,,560054,Bangalore North,BANGALORE,KARNATAKA
517890,Bangalore North,Sri Chowdeshwari S.O,,,560054,Bangalore North,BANGALORE,KARNATAKA
517891,Bangalore North,Malleswaram West S.O,,,560055,Bangalore North,BANGALORE,KARNATAKA
517892,Bangalore South,Mallathahalli B.O,,,560056,Bangalore South,BANGALORE,KARNATAKA
517893,Bangalore South,Bnagalore Viswavidalaya S.O,,,560056,Bangalore South,BANGALORE,KARNATAKA
517894,Ullalu Upanagara DBO,Bnagalore Viswavidalaya S.O,,,560056,Bangalore South,BANGALORE,KARNATAKA
517895,Mallathahalli NDBO,Bnagalore Viswavidalaya S.O,,,560056,Bangalore South,BANGALORE,KARNATAKA
517896,Bangalore North,Peenya Dasarahalli S.O,,,560057,Bangalore North,BANGALORE,KARNATAKA
517897,Bangalore North,Peenya Small Industries S.O,,,560058,Bangalore North,BANGALORE,KARNATAKA
517898,Bangalore North,Peenya I Stage S.O,,,560058,Bangalore North,BANGALORE,KARNATAKA
517899,Bangalore South,Rv Niketan S.O,,,560059,Bangalore South,BANGALORE,KARNATAKA
517900,Doddabele,Chudenapura B.O,,,560060,Bangalore South,BANGALORE,KARNATAKA
517901,Hemmigepura,Chudenapura B.O,,,560060,Bangalore South,BANGALORE,KARNATAKA
517902,Kommaghatta - Krishnasagara,Sulikere B.O,,,560060,Bangalore South,BANGALORE,KARNATAKA
517903,M.Krishnasagara,Sulikere B.O,,,560060,Bangalore South,BANGALORE,KARNATAKA
517904,Maragondanahalli,Sulikere B.O,,,560060,Bangalore South,BANGALORE,KARNATAKA
517905,Somapura,Chudenapura B.O,,,560060,Bangalore South,BANGALORE,KARNATAKA
517906,Varahasandra,Kengeri S.O,,,560060,Bangalore South,BANGALORE,KARNATAKA
517907,Bangalore South,Chudenapura B.O,,,560060,Bangalore South,BANGALORE,KARNATAKA
517908,Kenchanapura,Sulikere B.O,,,560060,Bangalore South,BANGALORE,KARNATAKA
517909,Lingadheeranahalli,Kengeri S.O,,,560060,Bangalore South,BANGALORE,KARNATAKA
517910,Ramasandra,Sulikere B.O,,,560060,Bangalore South,BANGALORE,KARNATAKA
517911,Sulikere,Sulikere B.O,,,560060,Bangalore South,BANGALORE,KARNATAKA
517912,Bheemanakuppe- Ramasagara,Sulikere B.O,,,560060,Bangalore South,BANGALORE,KARNATAKA
517913,Bangalore South,Kengeri S.O,,,560060,Bangalore South,BANGALORE,KARNATAKA
517914,Sonnenahalli,Sulikere B.O,,,560060,Bangalore South,BANGALORE,KARNATAKA
517915,Manganahalli,Sulikere B.O,,,560060,Bangalore North,BANGALORE,KARNATAKA
517916,Kengeri Gollahalli,Chudenapura B.O,,,560060,Bangalore South,BANGALORE,KARNATAKA
517917,Kommaghatta,Sulikere B.O,,,560060,Bangalore South,BANGALORE,KARNATAKA
517918,Thurahalli,Subramanyapura S.O,,,560061,Bangalore South,BANGALORE,KARNATAKA
517919,Bangalore South,Subramanyapura S.O,,,560061,Bangalore South,BANGALORE,KARNATAKA
517920,Badamanavarthekaval,Subramanyapura S.O,,,560061,Bangalore South,BANGALORE,KARNATAKA
517921,Bangalore South,Chikkalasandra S.O,,,560061,Bangalore South,BANGALORE,KARNATAKA
517922,Gabbalalu,Subramanyapura S.O,,,560061,Bangalore South,BANGALORE,KARNATAKA
517923,Vasanthapura,Subramanyapura S.O,,,560061,Bangalore South,BANGALORE,KARNATAKA
517924,Bangalore South,Doddakallasandra S.O,,,560062,Bangalore South,BANGALORE,KARNATAKA
517925,Bangalore North,A F Station Yelahanka S.O,,,560063,Bangalore North,BANGALORE,KARNATAKA
517926,Bangalore North,BSF Campus Yelahanka S.O,,,560063,Bangalore North,BANGALORE,KARNATAKA
517927,Thirumenahalli,Yelahanka S.O,,,560064,Bangalore North,BANGALORE,KARNATAKA
517928,Avalahalli,Jakkur B.O,,,560064,Anekal,BANGALORE,KARNATAKA
517929,Bellahalli,Yelahanka Satellite Town S.O,,,560064,Bangalore North,BANGALORE,KARNATAKA
517930,Jarakbandekaval,Yelahanka S.O,,,560064,Bangalore North,BANGALORE,KARNATAKA
517931,Kempanahalli,Attur B.O,,,560064,Bangalore North,BANGALORE,KARNATAKA
517932,Kenchenahalli,Yelahanka S.O,,,560064,Bangalore North,BANGALORE,KARNATAKA
517933,Naganahalli,Singanayakanahalli B.O,,,560064,Bangalore South,BANGALORE,KARNATAKA
517934,Adiganahalli,Rajanakunte B.O,,,560064,Bangalore North,BANGALORE,KARNATAKA
517935,Byappanahalli,Yelahanka S.O,,,560064,Bangalore North,BANGALORE,KARNATAKA
517936,Muddanahalli,Rajanakunte B.O,,,560064,Bangalore North,BANGALORE,KARNATAKA
517937,Avalahalli,Singanayakanahalli B.O,,,560064,Bangalore North,BANGALORE,KARNATAKA
517938,Chokkanahalli,Yelahanka S.O,,,560064,Bangalore North,BANGALORE,KARNATAKA
517939,Gantiganahalli,Singanayakanahalli B.O,,,560064,Bangalore North,BANGALORE,KARNATAKA
517940,Kattigenahalli,Yelahanka S.O,,,560064,Bangalore North,BANGALORE,KARNATAKA
517941,Krishnasagara,Singanayakanahalli B.O,,,560064,Bangalore North,BANGALORE,KARNATAKA
517942,Madappanahalli,Rajanakunte B.O,,,560064,Bangalore North,BANGALORE,KARNATAKA
517943,Nagadasanahalli,Rajanakunte B.O,,,560064,Bangalore North,BANGALORE,KARNATAKA
517944,Rajanukunte,Rajanakunte B.O,,,560064,Bangalore North,BANGALORE,KARNATAKA
517945,Ramagondanahalli,Attur B.O,,,560064,Bangalore North,BANGALORE,KARNATAKA
517946,Bangalore North,Attur B.O,,,560064,Bangalore North,BANGALORE,KARNATAKA
517947,Singanayakanahalli,Singanayakanahalli B.O,,,560064,Bangalore North,BANGALORE,KARNATAKA
517948,Singanayakanahalli Amanikere,Yelahanka S.O,,,560064,Bangalore North,BANGALORE,KARNATAKA
517949,Bangalore North,CRPF Campus Yelahanka S.O,,,560064,Bangalore North,BANGALORE,KARNATAKA
517950,Honnenahalli,Rajanakunte B.O,,,560064,Bangalore North,BANGALORE,KARNATAKA
517951,Ittagallpura,Rajanakunte B.O,,,560064,Bangalore North,BANGALORE,KARNATAKA
517952,Lakshmisagara,Singanayakanahalli B.O,,,560064,Bangalore North,BANGALORE,KARNATAKA
517953,Manchenahalli,Singanayakanahalli B.O,,,560064,Bangalore North,BANGALORE,KARNATAKA
517954,Ananthapura,Attur B.O,,,560064,Bangalore North,BANGALORE,KARNATAKA
517955,Harohalli,Singanayakanahalli B.O,,,560064,Bangalore North,BANGALORE,KARNATAKA
517956,Bangalore North,Jakkur B.O,,,560064,Bangalore North,BANGALORE,KARNATAKA
517957,Vasudevapura,Yelahanka S.O,,,560064,Bangalore North,BANGALORE,KARNATAKA
517958,Veerasagara,Attur B.O,,,560064,Bangalore North,BANGALORE,KARNATAKA
517959,Bangalore North,G.K.V.K. S.O,,,560065,Bangalore North,BANGALORE,KARNATAKA
517960,Ramagondanahalli,Whitefield S.O,,,560066,Bangalore South,BANGALORE,KARNATAKA
517961,Nagondahalli,Whitefield S.O,,,560066,Bangalore South,BANGALORE,KARNATAKA
517962,Thubarahalli,Whitefield S.O,,,560066,Bangalore South,BANGALORE,KARNATAKA
517963,Khanekandaya,Whitefield S.O,,,560066,Bangalore South,BANGALORE,KARNATAKA
517964,Arehalli,Kalkunte B.O,,,560067,Hosakote,BANGALORE RURAL,KARNATAKA
517965,Gundur,Kalkunte B.O,,,560067,Hosakote,BANGALORE RURAL,KARNATAKA
517966,Koralur,Naduvathi B.O,,,560067,Hosakote,BANGALORE RURAL,KARNATAKA
517967,Medimallasandra,Medimallasandra B.O,,,560067,Hosakote,BANGALORE RURAL,KARNATAKA
517968,Obalapura,Medimallasandra B.O,,,560067,Hosakote,BANGALORE RURAL,KARNATAKA
517969,Tharabahalli,Devanagundi B.O,,,560067,Hosakote,BANGALORE RURAL,KARNATAKA
517970,Devanagondi Hosahalli,Devanagundi B.O,,,560067,Hosakote,BANGALORE RURAL,KARNATAKA
517971,Muthakadahalli,Medimallasandra B.O,,,560067,Hosakote,BANGALORE RURAL,KARNATAKA
517972,Somalapura,Devanagundi B.O,,,560067,Hosakote,BANGALORE RURAL,KARNATAKA
517973,Appajipura,Naduvathi B.O,,,560067,Hosakote,BANGALORE RURAL,KARNATAKA
517974,Handenahalli,Medimallasandra B.O,,,560067,Hosakote,BANGALORE RURAL,KARNATAKA
517975,Kanekallu,Devanagundi B.O,,,560067,Hosakote,BANGALORE RURAL,KARNATAKA
517976,Lingadeeramallasandra,Devanagundi B.O,,,560067,Hosakote,BANGALORE RURAL,KARNATAKA
517977,Thathnur Plantation,Kalkunte B.O,,,560067,Hosakote,BANGALORE RURAL,KARNATAKA
517978,Devanagondi,Devanagundi B.O,,,560067,Hosakote,BANGALORE RURAL,KARNATAKA
517979,Hemmandahalli,Samethanahalli B.O,,,560067,Hosakote,BANGALORE RURAL,KARNATAKA
517980,K.Channasandra,Kadugodi S.O,,,560067,Bangalore South,BANGALORE,KARNATAKA
517981,Kodihalli,Naduvathi B.O,,,560067,Hosakote,BANGALORE RURAL,KARNATAKA
517982,Naduvathi,Naduvathi B.O,,,560067,Hosakote,BANGALORE RURAL,KARNATAKA
517983,S.Narayanakere,Kalkunte B.O,,,560067,Hosakote,BANGALORE RURAL,KARNATAKA
517984,Thathnur,Kalkunte B.O,,,560067,Hosakote,BANGALORE RURAL,KARNATAKA
517985,Thirumalasettihalli,Samethanahalli B.O,,,560067,Hosakote,BANGALORE RURAL,KARNATAKA
517986,Bhaktharahalli,Naduvathi B.O,,,560067,Hosakote,BANGALORE RURAL,KARNATAKA
517987,Bhodanahosahalli,Samethanahalli B.O,,,560067,Hosakote,BANGALORE RURAL,KARNATAKA
517988,Bylahalli,Medimallasandra B.O,,,560067,Hosakote,BANGALORE RURAL,KARNATAKA
517989,Mattanahalli,Kalkunte B.O,,,560067,Hosakote,BANGALORE RURAL,KARNATAKA
517990,Naganayakanakote,Samethanahalli B.O,,,560067,Hosakote,BANGALORE RURAL,KARNATAKA
517991,Samethanahalli,Samethanahalli B.O,,,560067,Hosakote,BANGALORE RURAL,KARNATAKA
517992,Yedagondahalli,Medimallasandra B.O,,,560067,Hosakote,BANGALORE RURAL,KARNATAKA
517993,Banarahalli,Devanagundi B.O,,,560067,Hosakote,BANGALORE RURAL,KARNATAKA
517994,Basabathanahalli,Devanagundi B.O,,,560067,Hosakote,BANGALORE RURAL,KARNATAKA
517995,Devalapura,Devanagundi B.O,,,560067,Hosakote,BANGALORE RURAL,KARNATAKA
517996,Doddadunnasandra,Devanagundi B.O,,,560067,Hosakote,BANGALORE RURAL,KARNATAKA
517997,Mallasandra,Naduvathi B.O,,,560067,Hosakote,BANGALORE RURAL,KARNATAKA
517998,Anugondahalli,Medimallasandra B.O,,,560067,Hosakote,BANGALORE RURAL,KARNATAKA
517999,Bisanahalli,Naduvathi B.O,,,560067,Hosakote,BANGALORE RURAL,KARNATAKA
518000,Deshapande Guttahalli,Kadugodi S.O,,,560067,Anekal,BANGALORE,KARNATAKA
518001,Kadugodi Plantation,Kadugodi S.O,,,560067,Bangalore South,BANGALORE,KARNATAKA
518002,Kalkunte Agrahara,Kalkunte B.O,,,560067,Hosakote,BANGALORE RURAL,KARNATAKA
518003,Kumbena Agrahara,Kadugodi S.O,,,560067,Bangalore South,BANGALORE,KARNATAKA
518004,Thiruvaranga,Kalkunte B.O,,,560067,Hosakote,BANGALORE RURAL,KARNATAKA
518005,Vaderahalli,Devanagundi B.O,,,560067,Bangalore South,BANGALORE,KARNATAKA
518006,Muthkur,Medimallasandra B.O,,,560067,Hosakote,BANGALORE RURAL,KARNATAKA
518007,Thindlu,Devanagundi B.O,,,560067,Hosakote,BANGALORE RURAL,KARNATAKA
518008,Thindlu Plantation,Kalkunte B.O,,,560067,Hosakote,BANGALORE RURAL,KARNATAKA
518009,Begur,Bommanahalli S.O (Bangalore),,,560068,Bangalore South,BANGALORE,KARNATAKA
518010,Bettadasanapura,Bommanahalli S.O (Bangalore),,,560068,Bangalore South,BANGALORE,KARNATAKA
518011,Kudlu,Bommanahalli S.O (Bangalore),,,560068,Anekal,BANGALORE,KARNATAKA
518012,Bangalore South,Madivala S.O,,,560068,Bangalore South,BANGALORE,KARNATAKA
518013,Chandrasekarapura,Bommanahalli S.O (Bangalore),,,560068,Bangalore South,BANGALORE,KARNATAKA
518014,Yelenahalli,Bommanahalli S.O (Bangalore),,,560068,Bangalore South,BANGALORE,KARNATAKA
518015,Mylasandra,Bommanahalli S.O (Bangalore),,,560068,Bangalore South,BANGALORE,KARNATAKA
518016,Singasandra,Singasandra B.O,,,560068,Anekal,BANGALORE,KARNATAKA
518017,Vittasandra,Bommanahalli S.O (Bangalore),,,560068,Bangalore South,BANGALORE,KARNATAKA
518018,Bangalore South,Bommanahalli S.O (Bangalore),,,560068,Bangalore South,BANGALORE,KARNATAKA
518019,Bidarahalli,B Sk II Stage S.O,,,560070,Bangalore South,BANGALORE,KARNATAKA
518020,Bangalore South,Tyagrajnagar S.O,,,560070,Bangalore South,BANGALORE,KARNATAKA
518021,Bangalore South,Padmanabhnagar S.O,,,560070,Bangalore South,BANGALORE,KARNATAKA
518022,Bangalore North,Domlur S.O,,,560071,Bangalore North,BANGALORE,KARNATAKA
518023,Bangalore North,Nagarbhavi S.O,,,560072,Bangalore North,BANGALORE,KARNATAKA
518024,Doddabidarakallu,Nagasandra S.O (Bangalore),,,560073,Bangalore North,BANGALORE,KARNATAKA
518025,Bangalore North,Bagalgunte B.O,,,560073,Bangalore North,BANGALORE,KARNATAKA
518026,Bangalore North,Chikkabidarkal S.O,,,560073,Bangalore North,BANGALORE,KARNATAKA
518027,Sidedahalli,Nagasandra S.O (Bangalore),,,560073,Bangalore North,BANGALORE,KARNATAKA
518028,Totadaguddadahalli,Nagasandra S.O (Bangalore),,,560073,Bangalore North,BANGALORE,KARNATAKA
518029,Bangalore North,Nagasandra S.O (Bangalore),,,560073,Bangalore North,BANGALORE,KARNATAKA
518030,Bangalore North,Nelakadiranahalli B.O,,,560073,Bangalore North,BANGALORE,KARNATAKA
518031,Kariobanahalli,Nagasandra S.O (Bangalore),,,560073,Bangalore North,BANGALORE,KARNATAKA
518032,Chikkellur Venkatapura,Ramohalli B.O,,,560074,Bangalore South,BANGALORE,KARNATAKA
518033,Gerupalya,Kumbalagodu S.O,,,560074,Bangalore South,BANGALORE,KARNATAKA
518034,Maligondanahalli,Ramohalli B.O,,,560074,Bangalore South,BANGALORE,KARNATAKA
518035,Chinnakurchi,Kumbalgodu Gollahalli B.O,,,560074,Bangalore South,BANGALORE,KARNATAKA
518036,Kolur,Ramohalli B.O,,,560074,Bangalore South,BANGALORE,KARNATAKA
518037,Kumbalagodu,Kumbalagodu S.O,,,560074,Bangalore South,BANGALORE,KARNATAKA
518038,Hosaspalya,Kumbalagodu S.O,,,560074,Bangalore South,BANGALORE,KARNATAKA
518039,Kanimidka,Kumbalagodu S.O,,,560074,Bangalore South,BANGALORE,KARNATAKA
518040,Ramayanapalya,Kumbalagodu S.O,,,560074,Bangalore South,BANGALORE,KARNATAKA
518041,Anchepalya,Kumbalagodu S.O,,,560074,Bangalore South,BANGALORE,KARNATAKA
518042,Chikkellur,Ramohalli B.O,,,560074,Bangalore South,BANGALORE,KARNATAKA
518043,Seshagiripura,Ramohalli B.O,,,560074,Bangalore South,BANGALORE,KARNATAKA
518044,Vasanthanahalli,Kumbalgodu Gollahalli B.O,,,560074,Bangalore South,BANGALORE,KARNATAKA
518045,Bangalore South,Kumbalgodu Gollahalli B.O,,,560074,Bangalore South,BANGALORE,KARNATAKA
518046,Bheemanakuppe,Ramohalli B.O,,,560074,Bangalore South,BANGALORE,KARNATAKA
518047,Chikkellur Ramapura,Ramohalli B.O,,,560074,Bangalore South,BANGALORE,KARNATAKA
518048,Karigiripura,Ramohalli B.O,,,560074,Bangalore South,BANGALORE,KARNATAKA
518049,Krishnarajapura,Kumbalgodu Gollahalli B.O,,,560074,Bangalore South,BANGALORE,KARNATAKA
518050,Devagere,Kumbalagodu S.O,,,560074,Bangalore South,BANGALORE,KARNATAKA
518051,Gangasandra,Kumbalgodu Gollahalli B.O,,,560074,Bangalore South,BANGALORE,KARNATAKA
518052,Hulimavu,Kumbalagodu S.O,,,560074,Bangalore South,BANGALORE,KARNATAKA
518053,Kambipura,Kumbalagodu S.O,,,560074,Bangalore South,BANGALORE,KARNATAKA
518054,Kolur Gururayanapura,Ramohalli B.O,,,560074,Bangalore South,BANGALORE,KARNATAKA
518055,Thagachaguppe,Kumbalagodu S.O,,,560074,Bangalore South,BANGALORE,KARNATAKA
518056,Bangalore South,Kumbalagodu S.O,,,560074,Bangalore South,BANGALORE,KARNATAKA
518057,Bangalore South,Ramohalli B.O,,,560074,Bangalore South,BANGALORE,KARNATAKA
518058,Lakshmipura,Kumbalgodu Gollahalli B.O,,,560074,Bangalore North,BANGALORE,KARNATAKA
518059,Seegehalli,Kumbalgodu Gollahalli B.O,,,560074,Bangalore North,BANGALORE,KARNATAKA
518060,Chalaghatta,Kumbalagodu S.O,,,560074,Bangalore South,BANGALORE,KARNATAKA
518061,Gonipura,Kumbalgodu Gollahalli B.O,,,560074,Bangalore South,BANGALORE,KARNATAKA
518062,Kolur Nanjundapura,Ramohalli B.O,,,560074,Bangalore South,BANGALORE,KARNATAKA
518063,Bangalore North,Jeevanbhimanagar S.O,,,560075,Bangalore North,BANGALORE,KARNATAKA
518064,Bangalore North,New Thippasandra S.O,,,560075,Bangalore North,BANGALORE,KARNATAKA
518065,Bangalore South,Bannerghatta Road S.O,,,560076,Bangalore South,BANGALORE,KARNATAKA
518066,Bangalore South,Mount St Joseph B.O,,,560076,Bangalore South,BANGALORE,KARNATAKA
518067,Bangalore South,Mico Layout S.O,,,560076,Bangalore South,BANGALORE,KARNATAKA
518068,Bangalore South,JP Nagar VIII phase S.O,,,560076,Bangalore South,BANGALORE,KARNATAKA
518069,Bangalore North,Dr. Shivarama Karanth Nagar S.O,,,560077,Bangalore North,BANGALORE,KARNATAKA
518070,Kothnur Narayanapura,Kothanur S.O,,,560077,Bangalore South,BANGALORE,KARNATAKA
518071,Kothnur,Kothanur S.O,,,560077,Bangalore South,BANGALORE,KARNATAKA
518072,Geddalahalli,Kothanur S.O,,,560077,Bangalore South,BANGALORE,KARNATAKA
518073,Doddagubbi,Doddagubbi B.O,,,560077,Bangalore South,BANGALORE,KARNATAKA
518074,Doddagubbi,Dr. Shivarama Karanth Nagar S.O,,,560077,Bangalore South,BANGALORE,KARNATAKA
518075,Bangalore South,JP Nagar III Phase S.O,,,560078,Bangalore South,BANGALORE,KARNATAKA
518076,Bangalore South,Yelachenahalli S.O,,,560078,Bangalore South,BANGALORE,KARNATAKA
518077,Bangalore South,J P Nagar S.O,,,560078,Bangalore South,BANGALORE,KARNATAKA
518078,Bangalore North,K H B Colony S.O,,,560079,Bangalore North,BANGALORE,KARNATAKA
518079,Bangalore North,Kamakshipalya S.O,,,560079,Bangalore North,BANGALORE,KARNATAKA
518080,Bovipalya,Basaveshwaranagar S.O,,,560079,Bangalore North,BANGALORE,KARNATAKA
518081,Bangalore North,Basaveshwaranagar S.O,,,560079,Bangalore North,BANGALORE,KARNATAKA
518082,Bangalore North,Sadashivanagar S.O,,,560080,Bangalore North,BANGALORE,KARNATAKA
518083,Chandapura,Chandapura S.O,,,560081,Bangalore South,BANGALORE,KARNATAKA
518084,Bangalore South,Bolare B.O,,,560082,Bangalore South,BANGALORE,KARNATAKA
518085,Bangalore South,Thataguni B.O,,,560082,Bangalore South,BANGALORE,KARNATAKA
518086,Kaggalipura,Udaypura S.O,,,560082,Anekal,BANGALORE,KARNATAKA
518087,Sunkadakatte,Bolare B.O,,,560082,Bangalore South,BANGALORE,KARNATAKA
518088,Gandhinagara,Kagalipura B.O,,,560082,Bangalore South,BANGALORE,KARNATAKA
518089,Nowkalpalya,Somanhalli B.O,,,560082,Bangalore South,BANGALORE,KARNATAKA
518090,Rameshnagar,Udaypura S.O,,,560082,Bangalore South,BANGALORE,KARNATAKA
518091,Thattaguppe,Thattekuppe B.O,,,560082,Bangalore South,BANGALORE,KARNATAKA
518092,Gulakamale,Taralu B.O,,,560082,Bangalore South,BANGALORE,KARNATAKA
518093,Mariapura,Thattekuppe B.O,,,560082,Bangalore South,BANGALORE,KARNATAKA
518094,Ravugodlu colony,Bolare B.O,,,560082,Bangalore South,BANGALORE,KARNATAKA
518095,Thopur,Thattekuppe B.O,,,560082,Bangalore South,BANGALORE,KARNATAKA
518096,Udipalya,Udaypura S.O,,,560082,Bangalore South,BANGALORE,KARNATAKA
518097,Uttari,Kagalipura B.O,,,560082,Bangalore South,BANGALORE,KARNATAKA
518098,Dinnepalya,Kagalipura B.O,,,560082,Bangalore South,BANGALORE,KARNATAKA
518099,O.B.Chudahalli,Udaypura S.O,,,560082,Bangalore South,BANGALORE,KARNATAKA
518100,Rangappa Estate,Udaypura S.O,,,560082,Bangalore South,BANGALORE,KARNATAKA
518101,Alakabelalu,Taralu B.O,,,560082,Bangalore South,BANGALORE,KARNATAKA
518102,Lakshmipura,Thataguni B.O,,,560082,Bangalore South,BANGALORE,KARNATAKA
518103,Vasudevapura,Taralu B.O,,,560082,Bangalore South,BANGALORE,KARNATAKA
518104,Nelaguli,Bolare B.O,,,560082,Bangalore South,BANGALORE,KARNATAKA
518105,Rachanamadu,Thataguni B.O,,,560082,Bangalore South,BANGALORE,KARNATAKA
518106,Tharalu,Taralu B.O,,,560082,Bangalore South,BANGALORE,KARNATAKA
518107,Bangalore South,Udaypura S.O,,,560082,Bangalore South,BANGALORE,KARNATAKA
518108,K. Chudahalli,Somanhalli B.O,,,560082,Bangalore South,BANGALORE,KARNATAKA
518109,Kaggalipura,Kagalipura B.O,,,560082,Bangalore South,BANGALORE,KARNATAKA
518110,Naganayakanahalli,Somanhalli B.O,,,560082,Bangalore South,BANGALORE,KARNATAKA
518111,Ravugodlu,Bolare B.O,,,560082,Bangalore South,BANGALORE,KARNATAKA
518112,Saluhunse,Udaypura S.O,,,560082,Bangalore South,BANGALORE,KARNATAKA
518113,Somanahalli,Somanhalli B.O,,,560082,Bangalore South,BANGALORE,KARNATAKA
518114,Thittahalli,Bolare B.O,,,560082,Bangalore South,BANGALORE,KARNATAKA
518115,Hosaspalya,Thataguni B.O,,,560082,Bangalore South,BANGALORE,KARNATAKA
518116,Kanthayyanapalya,Kagalipura B.O,,,560082,Bangalore South,BANGALORE,KARNATAKA
518117,Nettigere,Bolare B.O,,,560082,Bangalore South,BANGALORE,KARNATAKA
518118,Bujangadasanakere,Sakalavara B.O,,,560083,Anekal,BANGALORE,KARNATAKA
518119,Hullahalli,Sakalavara B.O,,,560083,Anekal,BANGALORE,KARNATAKA
518120,Ragihalli,Ragihalli B.O,,,560083,Anekal,BANGALORE,KARNATAKA
518121,Bangalore South,Bannerghatta S.O,,,560083,Bangalore South,BANGALORE,KARNATAKA
518122,Shivanahalli,Ragihalli B.O,,,560083,Anekal,BANGALORE,KARNATAKA
518123,Kalkere,Kalkere B.O,,,560083,Anekal,BANGALORE,KARNATAKA
518124,Sakalawara,Sakalavara B.O,,,560083,Anekal,BANGALORE,KARNATAKA
518125,Ramnaikanahalli,Ragihalli B.O,,,560083,Anekal,BANGALORE,KARNATAKA
518126,Hullukasavanahalli,Sakalavara B.O,,,560083,Anekal,BANGALORE,KARNATAKA
518127,Bangalore North,St. Thomas Town S.O,,,560084,Bangalore North,BANGALORE,KARNATAKA
518128,Bangalore North,Lingarajapuram S.O,,,560084,Bangalore North,BANGALORE,KARNATAKA
518129,Bangalore South,Girinagar S.O (Bangalore),,,560085,Bangalore South,BANGALORE,KARNATAKA
518130,Bidarahalli,Banashankari III Stage S.O,,,560085,Bangalore South,BANGALORE,KARNATAKA
518131,Bangalore South,Kathriguppe S.O,,,560085,Bangalore South,BANGALORE,KARNATAKA
518132,Bangalore North,Mahalakshmipuram Layout S.O,,,560086,Bangalore North,BANGALORE,KARNATAKA
518133,Harohalli,Muthusandra B.O,,,560087,Hosakote,BANGALORE RURAL,KARNATAKA
518134,Janthagondanahalli,Muthusandra B.O,,,560087,Anekal,BANGALORE,KARNATAKA
518135,Ajjagondahalli,Muthusandra B.O,,,560087,Hosakote,BANGALORE RURAL,KARNATAKA
518136,Halasahalli,Gunjur B.O,,,560087,Hosakote,BANGALORE RURAL,KARNATAKA
518137,Heggondahalli,Gunjur B.O,,,560087,Anekal,BANGALORE,KARNATAKA
518138,Madappanahalli,Muthusandra B.O,,,560087,Anekal,BANGALORE,KARNATAKA
518139,Sorahunise,Vartur S.O,,,560087,Bangalore South,BANGALORE,KARNATAKA
518140,Nekkundi Dommasandra,Muthusandra B.O,,,560087,Anekal,BANGALORE,KARNATAKA
518141,Varthur,Vartur S.O,,,560087,Bangalore South,BANGALORE,KARNATAKA
518142,Varthur Narasimhapura,Vartur S.O,,,560087,Bangalore South,BANGALORE,KARNATAKA
518143,Dommasandra,Muthusandra B.O,,,560087,Bangalore South,BANGALORE,KARNATAKA
518144,Gunjur,Gunjur B.O,,,560087,Bangalore South,BANGALORE,KARNATAKA
518145,Hosahalli,Gunjur B.O,,,560087,Bangalore South,BANGALORE,KARNATAKA
518146,Kotur,Muthusandra B.O,,,560087,Hosakote,BANGALORE RURAL,KARNATAKA
518147,Valepura,Vartur S.O,,,560087,Bangalore South,BANGALORE,KARNATAKA
518148,Chikkanekkundi,Muthusandra B.O,,,560087,Anekal,BANGALORE,KARNATAKA
518149,Kacharakanahalli,Muthusandra B.O,,,560087,Hosakote,BANGALORE RURAL,KARNATAKA
518150,Muthasandra,Muthusandra B.O,,,560087,Hosakote,BANGALORE RURAL,KARNATAKA
518151,Thimmadahalli,Muthusandra B.O,,,560087,Hosakote,BANGALORE RURAL,KARNATAKA
518152,Bellikere,Muthusandra B.O,,,560087,Hosakote,BANGALORE RURAL,KARNATAKA
518153,Bangalore North,Gunjur B.O,,,560087,Bangalore North,BANGALORE,KARNATAKA
518154,Halasahalli Thippasandra,Gunjur B.O,,,560087,Anekal,BANGALORE,KARNATAKA
518155,Kachamaranahalli,Gunjur B.O,,,560087,Bangalore South,BANGALORE,KARNATAKA
518156,Hesaraghatta,Hessarghatta S.O,,,560088,Bangalore North,BANGALORE,KARNATAKA
518157,Bilijaji,Hessarghatta S.O,,,560088,Bangalore North,BANGALORE,KARNATAKA
518158,Guddadahalli,Hessarghatta S.O,,,560088,Bangalore North,BANGALORE,KARNATAKA
518159,Dasenahalli,Hessarghatta S.O,,,560088,Bangalore North,BANGALORE,KARNATAKA
518160,Channasandra,Hessarghatta Lake S.O,,,560089,Bangalore North,BANGALORE,KARNATAKA
518161,Kakolu,Kakolu B.O,,,560089,Bangalore North,BANGALORE,KARNATAKA
518162,Kalathammanahalli,Hessarghatta Lake S.O,,,560089,Bangalore North,BANGALORE,KARNATAKA
518163,Kamakshipura,Hessarghatta Lake S.O,,,560089,Bangalore North,BANGALORE,KARNATAKA
518164,Muthugada Halli,Shivakote B.O,,,560089,Bangalore North,BANGALORE,KARNATAKA
518165,Seethakempanahalli,Hessarghatta Lake S.O,,,560089,Bangalore North,BANGALORE,KARNATAKA
518166,Sonnenahalli,Hessarghatta Lake S.O,,,560089,Bangalore North,BANGALORE,KARNATAKA
518167,Byatha,Byatha B.O,,,560089,Bangalore North,BANGALORE,KARNATAKA
518168,Guniagrahara,Shivakote B.O,,,560089,Bangalore North,BANGALORE,KARNATAKA
518169,Kakolu,Hessarghatta Lake S.O,,,560089,Bangalore North,BANGALORE,KARNATAKA
518170,Koluvarayanahalli,Kakolu B.O,,,560089,Bangalore North,BANGALORE,KARNATAKA
518171,Kondashetti Halli,Shivakote B.O,,,560089,Bangalore North,BANGALORE,KARNATAKA
518172,Lingarajapura,Hessarghatta Lake S.O,,,560089,Bangalore North,BANGALORE,KARNATAKA
518173,Mavallipura,Shivakote B.O,,,560089,Bangalore North,BANGALORE,KARNATAKA
518174,Mylappanahalli,Shivakote B.O,,,560089,Bangalore North,BANGALORE,KARNATAKA
518175,Seeresandra,Hessarghatta Lake S.O,,,560089,Bangalore North,BANGALORE,KARNATAKA
518176,Sonnenahalli,Byatha B.O,,,560089,Bangalore North,BANGALORE,KARNATAKA
518177,Thammarasanahalli,Hessarghatta Lake S.O,,,560089,Bangalore North,BANGALORE,KARNATAKA
518178,Kalathammanahalli,Shivakote B.O,,,560089,Bangalore North,BANGALORE,KARNATAKA
518179,Kalenahalli,Shivakote B.O,,,560089,Bangalore North,BANGALORE,KARNATAKA
518180,Kamakshipura,Byatha B.O,,,560089,Bangalore North,BANGALORE,KARNATAKA
518181,Krishnarajapura,Hessarghatta Lake S.O,,,560089,Bangalore North,BANGALORE,KARNATAKA
518182,Linganahalli,Kakolu B.O,,,560089,Bangalore North,BANGALORE,KARNATAKA
518183,Lingarajapura,Shivakote B.O,,,560089,Bangalore North,BANGALORE,KARNATAKA
518184,Madhugirihalli,Shivakote B.O,,,560089,Bangalore North,BANGALORE,KARNATAKA
518185,Muthagada Halli,Hessarghatta Lake S.O,,,560089,Bangalore North,BANGALORE,KARNATAKA
518186,Byatha,Hessarghatta Lake S.O,,,560089,Bangalore North,BANGALORE,KARNATAKA
518187,Mathkur,Kakolu B.O,,,560089,Bangalore North,BANGALORE,KARNATAKA
518188,Dibburu,Kakolu B.O,,,560089,Bangalore North,BANGALORE,KARNATAKA
518189,Guniagrahara,Hessarghatta Lake S.O,,,560089,Bangalore North,BANGALORE,KARNATAKA
518190,Kalenahalli,Hessarghatta Lake S.O,,,560089,Bangalore North,BANGALORE,KARNATAKA
518191,Linganahalli,Hessarghatta Lake S.O,,,560089,Bangalore North,BANGALORE,KARNATAKA
518192,Mylappanahalli,Hessarghatta Lake S.O,,,560089,Bangalore North,BANGALORE,KARNATAKA
518193,Shivakote,Hessarghatta Lake S.O,,,560089,Bangalore North,BANGALORE,KARNATAKA
518194,Ivar Kandapura,Hessarghatta Lake S.O,,,560089,Bangalore North,BANGALORE,KARNATAKA
518195,Krishnarajapura,Shivakote B.O,,,560089,Bangalore North,BANGALORE,KARNATAKA
518196,Mavallipura,Hessarghatta Lake S.O,,,560089,Bangalore North,BANGALORE,KARNATAKA
518197,Thirumalapura,Hessarghatta Lake S.O,,,560089,Bangalore North,BANGALORE,KARNATAKA
518198,Bylakere,Shivakote B.O,,,560089,Bangalore North,BANGALORE,KARNATAKA
518199,Dibburu,Hessarghatta Lake S.O,,,560089,Bangalore North,BANGALORE,KARNATAKA
518200,Hesaraghatta Grass Farm,Hessarghatta Lake S.O,,,560089,Bangalore North,BANGALORE,KARNATAKA
518201,Kodagi Thirumalapura,Hessarghatta Lake S.O,,,560089,Bangalore North,BANGALORE,KARNATAKA
518202,Koluvarayanahalli,Hessarghatta Lake S.O,,,560089,Bangalore North,BANGALORE,KARNATAKA
518203,Seeresandra,Byatha B.O,,,560089,Bangalore North,BANGALORE,KARNATAKA
518204,Shivakote,Shivakote B.O,,,560089,Bangalore North,BANGALORE,KARNATAKA
518205,Kondashetti Halli,Hessarghatta Lake S.O,,,560089,Bangalore North,BANGALORE,KARNATAKA
518206,Mathkur,Hessarghatta Lake S.O,,,560089,Bangalore North,BANGALORE,KARNATAKA
518207,Seethakempanahalli,Kakolu B.O,,,560089,Bangalore North,BANGALORE,KARNATAKA
518208,Bangalore North,Tarabanahalli B.O,,,560090,Bangalore North,BANGALORE,KARNATAKA
518209,Hurali Chikkanahalli,Chikkabanavara S.O,,,560090,Bangalore North,BANGALORE,KARNATAKA
518210,Kumbarahalli,Chikkabanavara S.O,,,560090,Bangalore North,BANGALORE,KARNATAKA
518211,Somashetti Halli,Chikkabanavara S.O,,,560090,Bangalore North,BANGALORE,KARNATAKA
518212,Chikkabanavara,Chikkabanavara S.O,,,560090,Bangalore North,BANGALORE,KARNATAKA
518213,Myadarahalli,Chikkabanavara S.O,,,560090,Bangalore North,BANGALORE,KARNATAKA
518214,Thammenahalli,Chikkabanavara S.O,,,560090,Bangalore North,BANGALORE,KARNATAKA
518215,Kasagattapura,Silvepura B.O,,,560090,Bangalore North,BANGALORE,KARNATAKA
518216,Kempapura,Chikkabanavara S.O,,,560090,Bangalore North,BANGALORE,KARNATAKA
518217,Tharabanahalli,Chikkabanavara S.O,,,560090,Bangalore North,BANGALORE,KARNATAKA
518218,Soladevanahalli,Chikkabanavara S.O,,,560090,Bangalore North,BANGALORE,KARNATAKA
518219,Abbigere,Chikkabanavara S.O,,,560090,Bangalore North,BANGALORE,KARNATAKA
518220,Guddahalli,Chikkabanavara S.O,,,560090,Bangalore North,BANGALORE,KARNATAKA
518221,Sasiveghatta,Chikkabanavara S.O,,,560090,Bangalore North,BANGALORE,KARNATAKA
518222,Ganigarahalli,Chikkabanavara S.O,,,560090,Bangalore North,BANGALORE,KARNATAKA
518223,Bangalore North,Bapagrama B.O,,,560091,Bangalore North,BANGALORE,KARNATAKA
518224,Kannahalli,Kodigehalli B.O,,,560091,Bangalore North,BANGALORE,KARNATAKA
518225,Kodigehalli,Viswaneedam S.O,,,560091,Bangalore North,BANGALORE,KARNATAKA
518226,Lingadeeranahalli,Viswaneedam S.O,,,560091,Bangalore North,BANGALORE,KARNATAKA
518227,Kodigehalli,Kodigehalli B.O,,,560091,Bangalore North,BANGALORE,KARNATAKA
518228,Machohalli,Viswaneedam S.O,,,560091,Bangalore North,BANGALORE,KARNATAKA
518229,Bangalore North,Viswaneedam S.O,,,560091,Bangalore North,BANGALORE,KARNATAKA
518230,Handrahalli,Viswaneedam S.O,,,560091,Bangalore North,BANGALORE,KARNATAKA
518231,Kannahalli,Viswaneedam S.O,,,560091,Bangalore North,BANGALORE,KARNATAKA
518232,Machohalli,Bapagrama B.O,,,560091,Bangalore North,BANGALORE,KARNATAKA
518233,Gidadakonenahalli,Viswaneedam S.O,,,560091,Bangalore North,BANGALORE,KARNATAKA
518234,Bangalore North,Amruthahalli B.O,,,560092,Bangalore North,BANGALORE,KARNATAKA
518235,Bangalore North,Sahakaranagar P.O S.O,,,560092,Bangalore North,BANGALORE,KARNATAKA
518236,Bangalore North,Kodigehalli B.O,,,560092,Bangalore North,BANGALORE,KARNATAKA
518237,Bangalore North,Byatarayanapura B.O,,,560092,Bangalore North,BANGALORE,KARNATAKA
518238,Bangalore North,C.V.Raman Nagar S.O,,,560093,Bangalore North,BANGALORE,KARNATAKA
518239,Bangalore North,ISRO Anthariksha Bhavan S.O,,,560094,Bangalore North,BANGALORE,KARNATAKA
518240,Bangalore North,R.M.V. Extension II Stage S.O,,,560094,Bangalore North,BANGALORE,KARNATAKA
518241,Bangalore South,Koramangala VI Bk S.O,,,560095,Bangalore South,BANGALORE,KARNATAKA
518242,Bangalore North,Nandinilayout S.O,,,560096,Bangalore North,BANGALORE,KARNATAKA
518243,Bangalore North,Vidyaranyapura S.O,,,560097,Bangalore North,BANGALORE,KARNATAKA
518244,Medi Agrahara,Vidyaranyapura S.O,,,560097,Bangalore North,BANGALORE,KARNATAKA
518245,Bangalore South,Rajarajeshwarinagar S.O,,,560098,Bangalore South,BANGALORE,KARNATAKA
518246,Kenchanahalli NDBO,Rajarajeshwarinagar S.O,,,560098,Bangalore South,BANGALORE,KARNATAKA
518247,Ali Bommasandra,Muthanallur B.O,,,560099,Anekal,BANGALORE,KARNATAKA
518248,Singena Agrahara,Huskur B.O,,,560099,Anekal,BANGALORE,KARNATAKA
518249,Adigondanahalli,Muthanallur B.O,,,560099,Anekal,BANGALORE,KARNATAKA
518250,Chintalmadivala,Huskur B.O,,,560099,Anekal,BANGALORE,KARNATAKA
518251,Chokkasandra,Huskur B.O,,,560099,Anekal,BANGALORE,KARNATAKA
518252,Gopasandra,Muthanallur B.O,,,560099,Anekal,BANGALORE,KARNATAKA
518253,Gulimangala,Huskur B.O,,,560099,Anekal,BANGALORE,KARNATAKA
518254,Huskur,Huskur B.O,,,560099,Anekal,BANGALORE,KARNATAKA
518255,Muthanallur,Muthanallur B.O,,,560099,Anekal,BANGALORE,KARNATAKA
518256,Muthanallur Amanikere,Bommasandra Industrial Estate S.O,,,560099,Anekal,BANGALORE,KARNATAKA
518257,Bangalore South,Bommasandra Industrial Estate S.O,,,560099,Bangalore South,BANGALORE,KARNATAKA
518258,Bhovi Palya (Shanthi Pur),Huskur B.O,,,560099,Anekal,BANGALORE,KARNATAKA
518259,Chikkanagamangala,Huskur B.O,,,560099,Anekal,BANGALORE,KARNATAKA
518260,Kittaganahalli,Bommasandra Industrial Estate S.O,,,560099,Anekal,BANGALORE,KARNATAKA
518261,Narayanaghatta,Muthanallur B.O,,,560099,Anekal,BANGALORE,KARNATAKA
518262,Chikkathimmasandra,Muthanallur B.O,,,560099,Anekal,BANGALORE,KARNATAKA
518263,Gottamaranahalli,Huskur B.O,,,560099,Anekal,BANGALORE,KARNATAKA
518264,Rayasandra,Huskur B.O,,,560099,Anekal,BANGALORE,KARNATAKA
518265,Thirupalya,Bommasandra Industrial Estate S.O,,,560099,Anekal,BANGALORE,KARNATAKA
518266,Choodasandra,Huskur B.O,,,560099,Anekal,BANGALORE,KARNATAKA
518267,Gattahalli,Huskur B.O,,,560099,Anekal,BANGALORE,KARNATAKA
518268,Ramasagara,Muthanallur B.O,,,560099,Anekal,BANGALORE,KARNATAKA
518269,Parappana Agrahara,Electronics City S.O,,,560100,Bangalore South,BANGALORE,KARNATAKA
518270,Naganathapura,Electronics City S.O,,,560100,Bangalore South,BANGALORE,KARNATAKA
518271,Veerasandra,Electronics City S.O,,,560100,Anekal,BANGALORE,KARNATAKA
518272,Konappana Agrahara,Electronics City S.O,,,560100,Bangalore South,BANGALORE,KARNATAKA
518273,Pillaganahalli,Electronics City S.O,,,560100,Bangalore South,BANGALORE,KARNATAKA
518274,Doddanagamangala,Electronics City S.O,,,560100,Bangalore South,BANGALORE,KARNATAKA
518275,Kammasandra,Electronics City S.O,,,560100,Anekal,BANGALORE,KARNATAKA
518276,Bangalore South,Electronics City S.O,,,560100,Bangalore South,BANGALORE,KARNATAKA
518277,Beratena Agrahara,Electronics City S.O,,,560100,Bangalore South,BANGALORE,KARNATAKA
518278,Doddathoguru,Electronics City S.O,,,560100,Bangalore South,BANGALORE,KARNATAKA
518279,Basapura,Electronics City S.O,,,560100,Bangalore South,BANGALORE,KARNATAKA
518280,Bangalore South,HSR Layout S.O,,,560102,Bangalore South,BANGALORE,KARNATAKA
518281,Devara Beesana Halli,Bellandur S.O,,,560103,Bangalore South,BANGALORE,KARNATAKA
518282,Kariyammana Agrahara,Bellandur S.O,,,560103,Bangalore South,BANGALORE,KARNATAKA
518283,Bhoganahalli,Panathur B.O,,,560103,Bangalore South,BANGALORE,KARNATAKA
518284,Panathur,Panathur B.O,,,560103,Bangalore South,BANGALORE,KARNATAKA
518285,Kadabeesanahalli,Panathur B.O,,,560103,Bangalore South,BANGALORE,KARNATAKA
518286,Kasavanahalli,Bellandur S.O,,,560103,Bangalore South,BANGALORE,KARNATAKA
518287,Balagere,Panathur B.O,,,560103,Bangalore South,BANGALORE,KARNATAKA
518288,Bellandur,Bellandur S.O,,,560103,Bangalore South,BANGALORE,KARNATAKA
518289,Bellandur Amanikere,Bellandur S.O,,,560103,Bangalore South,BANGALORE,KARNATAKA
518290,Bangalore North,Hampinagar S.O,,,560104,Bangalore North,BANGALORE,KARNATAKA
518291,Bande Nalla Sandra,Jigani S.O,,,560105,Anekal,BANGALORE,KARNATAKA
518292,Hinnakki,Hennagara B.O,,,560105,Anekal,BANGALORE,KARNATAKA
518293,Kalbalu,Jigani S.O,,,560105,Anekal,BANGALORE,KARNATAKA
518294,Kalbalu,Kallubalu B.O,,,560105,Anekal,BANGALORE,KARNATAKA
518295,Mahanthalingapura,Kallubalu B.O,,,560105,Anekal,BANGALORE,KARNATAKA
518296,Masthena Halli,Jigani S.O,,,560105,Anekal,BANGALORE,KARNATAKA
518297,Nanjapura,Hulimangala B.O,,,560105,Anekal,BANGALORE,KARNATAKA
518298,S.Bingipura,Hulimangala B.O,,,560105,Anekal,BANGALORE,KARNATAKA
518299,Vabasandra,Jigani S.O,,,560105,Anekal,BANGALORE,KARNATAKA
518300,Hulimangala,Hulimangala B.O,,,560105,Anekal,BANGALORE,KARNATAKA
518301,Masthena Halli,Hennagara B.O,,,560105,Anekal,BANGALORE,KARNATAKA
518302,Ramasandra,Hulimangala B.O,,,560105,Anekal,BANGALORE,KARNATAKA
518303,S.Bingipura,Jigani S.O,,,560105,Anekal,BANGALORE,KARNATAKA
518304,Suragajakkanahalli,Jigani S.O,,,560105,Anekal,BANGALORE,KARNATAKA
518305,Bukkasagara,Kallubalu B.O,,,560105,Anekal,BANGALORE,KARNATAKA
518306,Kyalasanahalli,Jigani S.O,,,560105,Anekal,BANGALORE,KARNATAKA
518307,Podu,Hulimangala B.O,,,560105,Anekal,BANGALORE,KARNATAKA
518308,Vaderamanchanahalli,Kallubalu B.O,,,560105,Anekal,BANGALORE,KARNATAKA
518309,Yarandahalli,Jigani S.O,,,560105,Anekal,BANGALORE,KARNATAKA
518310,Dyavasandra,Jigani S.O,,,560105,Anekal,BANGALORE,KARNATAKA
518311,Giddenahalli,Kallubalu B.O,,,560105,Anekal,BANGALORE,KARNATAKA
518312,Hulimangala,Jigani S.O,,,560105,Anekal,BANGALORE,KARNATAKA
518313,Kachanaikanahalli,Hennagara B.O,,,560105,Anekal,BANGALORE,KARNATAKA
518314,Koppa,Hulimangala B.O,,,560105,Anekal,BANGALORE,KARNATAKA
518315,Nanjapura,Jigani S.O,,,560105,Anekal,BANGALORE,KARNATAKA
518316,Haragadde,Jigani S.O,,,560105,Anekal,BANGALORE,KARNATAKA
518317,Hosahalli,Hennagara B.O,,,560105,Anekal,BANGALORE,KARNATAKA
518318,Mada Patna,Jigani S.O,,,560105,Anekal,BANGALORE,KARNATAKA
518319,Seethanaikana Halli,Jigani S.O,,,560105,Anekal,BANGALORE,KARNATAKA
518320,Suragajakkanahalli,Haragadde B.O,,,560105,Anekal,BANGALORE,KARNATAKA
518321,Hennagara,Hennagara B.O,,,560105,Anekal,BANGALORE,KARNATAKA
518322,Kachanaikanahalli,Jigani S.O,,,560105,Anekal,BANGALORE,KARNATAKA
518323,Konasandra,Kallubalu B.O,,,560105,Anekal,BANGALORE,KARNATAKA
518324,Koppa,Jigani S.O,,,560105,Anekal,BANGALORE,KARNATAKA
518325,Kyalasanahalli,Hulimangala B.O,,,560105,Anekal,BANGALORE,KARNATAKA
518326,Manchanahalli,Jigani S.O,,,560105,Anekal,BANGALORE,KARNATAKA
518327,Maragondahalli,Hulimangala B.O,,,560105,Anekal,BANGALORE,KARNATAKA
518328,Rajapura,Hennagara B.O,,,560105,Anekal,BANGALORE,KARNATAKA
518329,Bangalore South,Jigani S.O,,,560105,Bangalore South,BANGALORE,KARNATAKA
518330,Hosahalli,Jigani S.O,,,560105,Anekal,BANGALORE,KARNATAKA
518331,J.Bingipura,Jigani S.O,,,560105,Anekal,BANGALORE,KARNATAKA
518332,Maragondahalli,Jigani S.O,,,560105,Anekal,BANGALORE,KARNATAKA
518333,Ramasandra,Jigani S.O,,,560105,Anekal,BANGALORE,KARNATAKA
518334,Haragadde,Haragadde B.O,,,560105,Anekal,BANGALORE,KARNATAKA
518335,Hennagara,Jigani S.O,,,560105,Anekal,BANGALORE,KARNATAKA
518336,Hennagara Amanikere,Jigani S.O,,,560105,Anekal,BANGALORE,KARNATAKA
518337,Hinnakki,Jigani S.O,,,560105,Anekal,BANGALORE,KARNATAKA
518338,Kumbaranahalli,Jigani S.O,,,560105,Anekal,BANGALORE,KARNATAKA
518339,Lingapura,Jigani S.O,,,560105,Anekal,BANGALORE,KARNATAKA
518340,Rajapura,Jigani S.O,,,560105,Anekal,BANGALORE,KARNATAKA
518341,Sriramapura,Jigani S.O,,,560105,Anekal,BANGALORE,KARNATAKA
518342,Vabasandra,Hulimangala B.O,,,560105,Anekal,BANGALORE,KARNATAKA
518343,Ganapathinagara,Achitnagar S.O,,,560107,Bangalore North,BANGALORE,KARNATAKA
518344,Thammenahalli palya,Achitnagar S.O,,,560107,Bangalore North,BANGALORE,KARNATAKA
518345,Bairaveshwarangara,Achitnagar S.O,,,560107,Bangalore North,BANGALORE,KARNATAKA
518346,Thammenahalli,Achitnagar S.O,,,560107,Bangalore North,BANGALORE,KARNATAKA
518347,Shanthinagara,Achitnagar S.O,,,560107,Bangalore North,BANGALORE,KARNATAKA
518348,Soladevanahalli,Achitnagar S.O,,,560107,Bangalore North,BANGALORE,KARNATAKA
518349,Achitnagar,Achitnagar S.O,,,560107,Nelamangala,BANGALORE RURAL,KARNATAKA
518350,Jnanajyothinagara,Achitnagar S.O,,,560107,Bangalore North,BANGALORE,KARNATAKA
518351,Sasuveghatta,Achitnagar S.O,,,560107,Bangalore North,BANGALORE,KARNATAKA
518352,Veerashettihalli,Achitnagar S.O,,,560107,Bangalore North,BANGALORE,KARNATAKA
518353,Ajjegowdanapalya,Achitnagar S.O,,,560107,Bangalore North,BANGALORE,KARNATAKA
518354,Harinagar,Anjanapura S.O,,,560108,Bangalore South,BANGALORE,KARNATAKA
518355,Amrutanagar,Anjanapura S.O,,,560108,Bangalore South,BANGALORE,KARNATAKA
518356,Anjanapura,Anjanapura S.O,,,560108,Bangalore South,BANGALORE,KARNATAKA
518357,Gollahalli,Anjanapura S.O,,,560108,Bangalore South,BANGALORE,KARNATAKA
518358,Kulumepalya,Anjanapura S.O,,,560108,Bangalore South,BANGALORE,KARNATAKA
518359,Tulsipura,Anjanapura S.O,,,560108,Bangalore South,BANGALORE,KARNATAKA
518360,Thalaghattapura,Thalaghattapura S.O,,,560109,Bangalore South,BANGALORE,KARNATAKA
518361,ULLAL UPANAGAR,Ullalu Upanagar S.O,,,560110,Bangalore South,BANGALORE,KARNATAKA
518362,Bangalore South,Kumaraswamy Layout S.O,,,560111,Bangalore South,BANGALORE,KARNATAKA
518363,Bangalore International Airport,Bangalore International Airport S.O,,,560300,Bangalore North,BANGALORE,KARNATAKA
518386,Mayasandra,Mayasandra B.O,,,561101,Anekal,BANGALORE,KARNATAKA
518387,Ramanahalli,Sirigiripura B.O,,,561101,Nelamangala,BANGALORE RURAL,KARNATAKA
518402,Gavipalya,Ajjanahalli B.O,,,561201,Bangalore North,BANGALORE,KARNATAKA
518435,Thimmasandra,Thimmasandra B.O,,,561201,Hosakote,BANGALORE RURAL,KARNATAKA
518530,Bommahalli,Hanabe B.O,,,561203,Dod Ballapur,BANGALORE RURAL,KARNATAKA
518531,Bommanahalli,Hanabe B.O,,,561203,Dod Ballapur,BANGALORE RURAL,KARNATAKA
518532,Doddavadagere,Kannamangala B.O,,,561203,Dod Ballapur,BANGALORE RURAL,KARNATAKA
518533,Gangadharapura,Dodballapura S.O,,,561203,Dod Ballapur,BANGALORE RURAL,KARNATAKA
518534,Hosakote,Gundamgere B.O,,,561203,Dod Ballapur,BANGALORE RURAL,KARNATAKA
518535,K.G. Sastry Palya,Kanasavadi B.O,,,561203,Dod Ballapur,BANGALORE RURAL,KARNATAKA
518536,Kakkehalli,Kodigehalli B.O,,,561203,Dod Ballapur,BANGALORE RURAL,KARNATAKA
518537,Kamalur,Antharahalli B.O,,,561203,Dod Ballapur,BANGALORE RURAL,KARNATAKA
518538,Kanchiganala,Rajaghatta B.O,,,561203,Dod Ballapur,BANGALORE RURAL,KARNATAKA
518539,Kannamangala,Kannamangala B.O,,,561203,Dod Ballapur,BANGALORE RURAL,KARNATAKA
518540,Nagasandra,Kodigehalli B.O,,,561203,Dod Ballapur,BANGALORE RURAL,KARNATAKA
518541,Nellukunte,Antharahalli B.O,,,561203,Bangalore North,BANGALORE,KARNATAKA
518542,Neralaghatta,Hanabe B.O,,,561203,Dod Ballapur,BANGALORE RURAL,KARNATAKA
518543,Palanjogihalli,Mallathahalli B.O,,,561203,Dod Ballapur,BANGALORE RURAL,KARNATAKA
518544,Dasagondanahalli,Rajaghatta B.O,,,561203,Dod Ballapur,BANGALORE RURAL,KARNATAKA
518545,Gundumgere,Gundamgere B.O,,,561203,Dod Ballapur,BANGALORE RURAL,KARNATAKA
518546,Hasanghatta,Mallathahalli B.O,,,561203,Dod Ballapur,BANGALORE RURAL,KARNATAKA
518547,Hosahalli,Hosahalli B.O,,,561203,Dod Ballapur,BANGALORE RURAL,KARNATAKA
518548,Jakkasandra,Arallumallige B.O,,,561203,Dod Ballapur,BANGALORE RURAL,KARNATAKA
518549,Kesthur,Kodigehalli B.O,,,561203,Dod Ballapur,BANGALORE RURAL,KARNATAKA
518550,Kuntanahalli,Arallumallige B.O,,,561203,Dod Ballapur,BANGALORE RURAL,KARNATAKA
518551,Lagumenahalli,Sri Subramanyaghati B.O,,,561203,Bangalore South,BANGALORE,KARNATAKA
518552,Melinajuganahalli,Sri Subramanyaghati B.O,,,561203,Dod Ballapur,BANGALORE RURAL,KARNATAKA
518553,Melinanaikaradahalli,Antharahalli B.O,,,561203,Dod Ballapur,BANGALORE RURAL,KARNATAKA
518554,Puttenahalli,Kannamangala B.O,,,561203,Dod Ballapur,BANGALORE RURAL,KARNATAKA
518555,S.M. Gollahalli,Arallumallige B.O,,,561203,Dod Ballapur,BANGALORE RURAL,KARNATAKA
518556,Shravanur,Hanabe B.O,,,561203,Dod Ballapur,BANGALORE RURAL,KARNATAKA
518557,Tapasihalli,Antharahalli B.O,,,561203,Dod Ballapur,BANGALORE RURAL,KARNATAKA
518558,Ujjani,Hosahalli B.O,,,561203,Dod Ballapur,BANGALORE RURAL,KARNATAKA
518559,Yaramuddenahalli,Hosahalli B.O,,,561203,Dod Ballapur,BANGALORE RURAL,KARNATAKA
518560,Antharahalli,Antharahalli B.O,,,561203,Dod Ballapur,BANGALORE RURAL,KARNATAKA
518561,Bankenahalli,Gundamgere B.O,,,561203,Dod Ballapur,BANGALORE RURAL,KARNATAKA
518562,Dod Ballapur,Dodballapura Bazar S.O,,,561203,Dod Ballapur,BANGALORE RURAL,KARNATAKA
518563,Galipuje,Kodigehalli B.O,,,561203,Dod Ballapur,BANGALORE RURAL,KARNATAKA
518564,Gejjigadahalli,Arallumallige B.O,,,561203,Dod Ballapur,BANGALORE RURAL,KARNATAKA
518565,Halenahalli,Kanasavadi B.O,,,561203,Dod Ballapur,BANGALORE RURAL,KARNATAKA
518566,Hanabe,Hanabe B.O,,,561203,Dod Ballapur,BANGALORE RURAL,KARNATAKA
518567,Kallodu,Kannamangala B.O,,,561203,Dod Ballapur,BANGALORE RURAL,KARNATAKA
518568,Kammasandra,Kannamangala B.O,,,561203,Dod Ballapur,BANGALORE RURAL,KARNATAKA
518569,Kantanakunte,Mallathahalli B.O,,,561203,Dod Ballapur,BANGALORE RURAL,KARNATAKA
518570,Kugonahalli,Hanabe B.O,,,561203,Dod Ballapur,BANGALORE RURAL,KARNATAKA
518571,Kukkanahalli,Kanasavadi B.O,,,561203,Dod Ballapur,BANGALORE RURAL,KARNATAKA
518572,Nagenahalli,Kannamangala B.O,,,561203,Dod Ballapur,BANGALORE RURAL,KARNATAKA
518573,Suthahalli,Tippur B.O,,,561203,Dod Ballapur,BANGALORE RURAL,KARNATAKA
518574,Byadarajakkasandra,Arallumallige B.O,,,561203,Dod Ballapur,BANGALORE RURAL,KARNATAKA
518575,Dod Ballapur,Sri Subramanyaghati B.O,,,561203,Dod Ballapur,BANGALORE RURAL,KARNATAKA
518576,Galibilikote,Hanabe B.O,,,561203,Dod Ballapur,BANGALORE RURAL,KARNATAKA
518578,Junnasandra,Kanasavadi B.O,,,561203,Dod Ballapur,BANGALORE RURAL,KARNATAKA
518579,K.G.Devapala,Hosahalli B.O,,,561203,Dod Ballapur,BANGALORE RURAL,KARNATAKA
518580,Kadakunte,Hosahalli B.O,,,561203,Dod Ballapur,BANGALORE RURAL,KARNATAKA
518581,Kalludevanahalli,Tippur B.O,,,561203,Dod Ballapur,BANGALORE RURAL,KARNATAKA
518582,Kanasavadi,Kanasavadi B.O,,,561203,Dod Ballapur,BANGALORE RURAL,KARNATAKA
518583,Kolur,Antharahalli B.O,,,561203,Dod Ballapur,BANGALORE RURAL,KARNATAKA
518584,Madhurana Hosahalli,Antharahalli B.O,,,561203,Dod Ballapur,BANGALORE RURAL,KARNATAKA
518585,Maragondanahalli,Kodigehalli B.O,,,561203,Hosakote,BANGALORE RURAL,KARNATAKA
518586,Maralenahalli,Hanabe B.O,,,561203,Dod Ballapur,BANGALORE RURAL,KARNATAKA
518587,Palya,Kannamangala B.O,,,561203,Devanahalli,BANGALORE RURAL,KARNATAKA
518588,Rajaghatta Amanikere,Rajaghatta B.O,,,561203,Dod Ballapur,BANGALORE RURAL,KARNATAKA
518589,Sonnenahalli,Gundamgere B.O,,,561203,Dod Ballapur,BANGALORE RURAL,KARNATAKA
518590,Srinivasapura,Hanabe B.O,,,561203,Hosakote,BANGALORE RURAL,KARNATAKA
518591,Tekalahalli,Hosahalli B.O,,,561203,Dod Ballapur,BANGALORE RURAL,KARNATAKA
518592,Alahalli,Arallumallige B.O,,,561203,Dod Ballapur,BANGALORE RURAL,KARNATAKA
518593,Allalasandra,Antharahalli B.O,,,561203,Dod Ballapur,BANGALORE RURAL,KARNATAKA
518594,Ekasipura,Arallumallige B.O,,,561203,Dod Ballapur,BANGALORE RURAL,KARNATAKA
518595,Honnaghatta,Kodigehalli B.O,,,561203,Dod Ballapur,BANGALORE RURAL,KARNATAKA
518596,Hosanagenahalli,Gundamgere B.O,,,561203,Dod Ballapur,BANGALORE RURAL,KARNATAKA
518597,K.G. Kuntanahalli,Arallumallige B.O,,,561203,Dod Ballapur,BANGALORE RURAL,KARNATAKA
518598,Kallukunte,Hosahalli B.O,,,561203,Dod Ballapur,BANGALORE RURAL,KARNATAKA
518599,Kodigehalli,Kodigehalli B.O,,,561203,Dod Ballapur,BANGALORE RURAL,KARNATAKA
518600,Kurubarahalli,Kodigehalli B.O,,,561203,Dod Ballapur,BANGALORE RURAL,KARNATAKA
518601,Madhure,Kanasavadi B.O,,,561203,Dod Ballapur,BANGALORE RURAL,KARNATAKA
518602,Mallathahalli,Mallathahalli B.O,,,561203,Dod Ballapur,BANGALORE RURAL,KARNATAKA
518603,Mandibyadarahalli,Hanabe B.O,,,561203,Dod Ballapur,BANGALORE RURAL,KARNATAKA
518604,Nellukunte,Antharahalli B.O,,,561203,Dod Ballapur,BANGALORE RURAL,KARNATAKA
518605,Ojenahalli,Gundamgere B.O,,,561203,Dod Ballapur,BANGALORE RURAL,KARNATAKA
518606,Rajaghatta,Rajaghatta B.O,,,561203,Dod Ballapur,BANGALORE RURAL,KARNATAKA
518607,Shivalinga Pura,Antharahalli B.O,,,561203,Dod Ballapur,BANGALORE RURAL,KARNATAKA
518608,Talagavara,Kodigehalli B.O,,,561203,Dod Ballapur,BANGALORE RURAL,KARNATAKA
518609,Vanigarahalli,Tippur B.O,,,561203,Dod Ballapur,BANGALORE RURAL,KARNATAKA
518610,Amani Palankere,Mallathahalli B.O,,,561203,Dod Ballapur,BANGALORE RURAL,KARNATAKA
518611,Aralamallige,Arallumallige B.O,,,561203,Dod Ballapur,BANGALORE RURAL,KARNATAKA
518612,Bachchahalli,Antharahalli B.O,,,561203,Dod Ballapur,BANGALORE RURAL,KARNATAKA
518613,Bommenahalli,Hanabe B.O,,,561203,Dod Ballapur,BANGALORE RURAL,KARNATAKA
518615,Huskur,Arallumallige B.O,,,561203,Dod Ballapur,BANGALORE RURAL,KARNATAKA
518616,Jaligere,Tippur B.O,,,561203,Dod Ballapur,BANGALORE RURAL,KARNATAKA
518617,Jodi Karapura,Hanabe B.O,,,561203,Dod Ballapur,BANGALORE RURAL,KARNATAKA
518618,Kadabyadarahalli,Tippur B.O,,,561203,Dod Ballapur,BANGALORE RURAL,KARNATAKA
518619,Kenjiganahalli,Kannamangala B.O,,,561203,Dod Ballapur,BANGALORE RURAL,KARNATAKA
518620,Mallasandra,Hosahalli B.O,,,561203,Dod Ballapur,BANGALORE RURAL,KARNATAKA
518621,Menasi,Arallumallige B.O,,,561203,Dod Ballapur,BANGALORE RURAL,KARNATAKA
518622,Ramadevanahalli,Kannamangala B.O,,,561203,Dod Ballapur,BANGALORE RURAL,KARNATAKA
518623,Siravara,Antharahalli B.O,,,561203,Dod Ballapur,BANGALORE RURAL,KARNATAKA
518624,Uddichikkanahalli,Kannamangala B.O,,,561203,Dod Ballapur,BANGALORE RURAL,KARNATAKA
518625,Vabasandra,Gundamgere B.O,,,561203,Dod Ballapur,BANGALORE RURAL,KARNATAKA
518626,Chikkanahalli,Hanabe B.O,,,561203,Dod Ballapur,BANGALORE RURAL,KARNATAKA
518627,Gundasandra,Hanabe B.O,,,561203,Dod Ballapur,BANGALORE RURAL,KARNATAKA
518628,Kodihalli,Kanasavadi B.O,,,561203,Dod Ballapur,BANGALORE RURAL,KARNATAKA
518629,Kolur Plantation,Antharahalli B.O,,,561203,Dod Ballapur,BANGALORE RURAL,KARNATAKA
518630,Kottige Machenahalli,Hosahalli B.O,,,561203,Dod Ballapur,BANGALORE RURAL,KARNATAKA
518631,Lagumenahalli,Sri Subramanyaghati B.O,,,561203,Dod Ballapur,BANGALORE RURAL,KARNATAKA
518632,Somasettihalli,Tippur B.O,,,561203,Dod Ballapur,BANGALORE RURAL,KARNATAKA
518633,Srinivasapura,Hanabe B.O,,,561203,Dod Ballapur,BANGALORE RURAL,KARNATAKA
518634,Thimmasandra,Kannamangala B.O,,,561203,Dod Ballapur,BANGALORE RURAL,KARNATAKA
518635,Thippur,Tippur B.O,,,561203,Dod Ballapur,BANGALORE RURAL,KARNATAKA
518636,Byadarahalli,Hanabe B.O,,,561203,Dod Ballapur,BANGALORE RURAL,KARNATAKA
518637,Byrasandra,Arallumallige B.O,,,561203,Dod Ballapur,BANGALORE RURAL,KARNATAKA
518638,Cheelenahalli,Tippur B.O,,,561203,Dod Ballapur,BANGALORE RURAL,KARNATAKA
518639,Chikkavadagere,Kannamangala B.O,,,561203,Dod Ballapur,BANGALORE RURAL,KARNATAKA
518640,Dod Ballapur,Dodballapura S.O,,,561203,Dod Ballapur,BANGALORE RURAL,KARNATAKA
518641,Dod Ballapur,Kongadiyappa Road S.O,,,561203,Dod Ballapur,BANGALORE RURAL,KARNATAKA
518642,Gunjur,Sri Subramanyaghati B.O,,,561203,Dod Ballapur,BANGALORE RURAL,KARNATAKA
518643,Jodithimasandra,Kannamangala B.O,,,561203,Dod Ballapur,BANGALORE RURAL,KARNATAKA
518644,Karenahalli,Antharahalli B.O,,,561203,Dod Ballapur,BANGALORE RURAL,KARNATAKA
518645,Kelaginajuganahalli,Sri Subramanyaghati B.O,,,561203,Dod Ballapur,BANGALORE RURAL,KARNATAKA
518646,Kelaginanaikaradahalli,Antharahalli B.O,,,561203,Dod Ballapur,BANGALORE RURAL,KARNATAKA
518647,Kukkalahalli,Hosahalli B.O,,,561203,Dod Ballapur,BANGALORE RURAL,KARNATAKA
518648,Madagondahalli,Kodigehalli B.O,,,561203,Dod Ballapur,BANGALORE RURAL,KARNATAKA
518649,Madeswara,Hanabe B.O,,,561203,Dod Ballapur,BANGALORE RURAL,KARNATAKA
518650,Madhure Amanikere,Kanasavadi B.O,,,561203,Dod Ballapur,BANGALORE RURAL,KARNATAKA
518651,Majarahosahalli,Antharahalli B.O,,,561203,Dod Ballapur,BANGALORE RURAL,KARNATAKA
518652,Adakavala,Baktharahalli B.O,,,561204,Dod Ballapur,BANGALORE RURAL,KARNATAKA
518653,Akkathammanahalli,Sakkaaregollahalli B.O,,,561204,Dod Ballapur,BANGALORE RURAL,KARNATAKA
518654,Aroodi,Arudi B.O,,,561204,Dod Ballapur,BANGALORE RURAL,KARNATAKA
518655,Badrapura,Purushanahalli B.O,,,561204,Dod Ballapur,BANGALORE RURAL,KARNATAKA
518656,Bhaktharahalli,Baktharahalli B.O,,,561204,Dod Ballapur,BANGALORE RURAL,KARNATAKA
518657,Bheemarauthanahalli,Sakkaaregollahalli B.O,,,561204,Dod Ballapur,BANGALORE RURAL,KARNATAKA
518658,Channadevi Agrahara,Kadanur B.O,,,561204,Dod Ballapur,BANGALORE RURAL,KARNATAKA
518659,Gummanahalli,Sasalu B.O,,,561204,Dod Ballapur,BANGALORE RURAL,KARNATAKA
518660,Halekote,Kadalappanahalli B.O,,,561204,Dod Ballapur,BANGALORE RURAL,KARNATAKA
518661,Karepura,Purushanahalli B.O,,,561204,Dod Ballapur,BANGALORE RURAL,KARNATAKA
518662,Madagondanahalli,Kadanur B.O,,,561204,Dod Ballapur,BANGALORE RURAL,KARNATAKA
518663,Purusanahalli,Purushanahalli B.O,,,561204,Dod Ballapur,BANGALORE RURAL,KARNATAKA
518664,Alappanahalli,Baktharahalli B.O,,,561204,Dod Ballapur,BANGALORE RURAL,KARNATAKA
518665,Channaveeranahalli,Kadalappanahalli B.O,,,561204,Dod Ballapur,BANGALORE RURAL,KARNATAKA
518666,Dadighattamadagu,Sasalu B.O,,,561204,Dod Ballapur,BANGALORE RURAL,KARNATAKA
518667,Doddahejjaji,Doddahejjaji B.O,,,561204,Dod Ballapur,BANGALORE RURAL,KARNATAKA
518668,Ganadalu,Sasalu B.O,,,561204,Dod Ballapur,BANGALORE RURAL,KARNATAKA
518669,Gowdanakunte,Sasalu B.O,,,561204,Dod Ballapur,BANGALORE RURAL,KARNATAKA
518670,Honnadevipura,Syakaladevanapura B.O,,,561204,Dod Ballapur,BANGALORE RURAL,KARNATAKA
518671,Honnavara,Purushanahalli B.O,,,561204,Dod Ballapur,BANGALORE RURAL,KARNATAKA
518672,Kadathippur,Baktharahalli B.O,,,561204,Dod Ballapur,BANGALORE RURAL,KARNATAKA
518673,Machenahalli,Sasalu B.O,,,561204,Dod Ballapur,BANGALORE RURAL,KARNATAKA
518674,Narasaihna Agrahara,Kadanur B.O,,,561204,Dod Ballapur,BANGALORE RURAL,KARNATAKA
518675,Thambenahalli,Kadalappanahalli B.O,,,561204,Dod Ballapur,BANGALORE RURAL,KARNATAKA
518676,Tharabanahalli,Doddahejjaji B.O,,,561204,Dod Ballapur,BANGALORE RURAL,KARNATAKA
518677,Buchanahalli,Sakkaaregollahalli B.O,,,561204,Dod Ballapur,BANGALORE RURAL,KARNATAKA
518678,Byappanahalli,Baktharahalli B.O,,,561204,Dod Ballapur,BANGALORE RURAL,KARNATAKA
518679,Chikkakalenahalli,Sakkaaregollahalli B.O,,,561204,Dod Ballapur,BANGALORE RURAL,KARNATAKA
518680,Doddamankanala,Koligere B.O,,,561204,Dod Ballapur,BANGALORE RURAL,KARNATAKA
518681,Mallanaikanahalli,Sakkaaregollahalli B.O,,,561204,Dod Ballapur,BANGALORE RURAL,KARNATAKA
518682,Venkateshpura,Doddahejjaji B.O,,,561204,Dod Ballapur,BANGALORE RURAL,KARNATAKA
518683,Banavathi,Arudi B.O,,,561204,Dod Ballapur,BANGALORE RURAL,KARNATAKA
518684,Benakinamadugu,Kadalappanahalli B.O,,,561204,Dod Ballapur,BANGALORE RURAL,KARNATAKA
518685,Bokipura,Rameshwara B.O,,,561204,Dod Ballapur,BANGALORE RURAL,KARNATAKA
518686,Chikkabelavangala,Doddabelavangala S.O,,,561204,Dod Ballapur,BANGALORE RURAL,KARNATAKA
518687,Joyis Agrahara,Doddahejjaji B.O,,,561204,Dod Ballapur,BANGALORE RURAL,KARNATAKA
518688,K.G.Thammaganahalli,Sasalu B.O,,,561204,Dod Ballapur,BANGALORE RURAL,KARNATAKA
518689,Kadanur,Kadanur B.O,,,561204,Dod Ballapur,BANGALORE RURAL,KARNATAKA
518690,Kadathippenahalli,Koligere B.O,,,561204,Dod Ballapur,BANGALORE RURAL,KARNATAKA
518691,Kamana Agrahara,Koligere B.O,,,561204,Dod Ballapur,BANGALORE RURAL,KARNATAKA
518692,Kilarlahalli,Sasalu B.O,,,561204,Dod Ballapur,BANGALORE RURAL,KARNATAKA
518693,Lakkenahalli,Sasalu B.O,,,561204,Dod Ballapur,BANGALORE RURAL,KARNATAKA
518694,Lingadaveeranahalli,Sasalu B.O,,,561204,Dod Ballapur,BANGALORE RURAL,KARNATAKA
518695,Muttugadahalli,Hulikunte B.O,,,561204,Dod Ballapur,BANGALORE RURAL,KARNATAKA
518696,Naranahalli,Rameshwara B.O,,,561204,Dod Ballapur,BANGALORE RURAL,KARNATAKA
518697,Puttaiana Agrahara,Syakaladevanapura B.O,,,561204,Dod Ballapur,BANGALORE RURAL,KARNATAKA
518698,Simpadipura,Purushanahalli B.O,,,561204,Dod Ballapur,BANGALORE RURAL,KARNATAKA
518699,Todalabande,Sasalu B.O,,,561204,Dod Ballapur,BANGALORE RURAL,KARNATAKA
518700,Ambalagere,Purushanahalli B.O,,,561204,Dod Ballapur,BANGALORE RURAL,KARNATAKA
518701,Chikkahejjaji,Doddahejjaji B.O,,,561204,Dod Ballapur,BANGALORE RURAL,KARNATAKA
518702,Chikkahejjaji Amanikere,Doddahejjaji B.O,,,561204,Dod Ballapur,BANGALORE RURAL,KARNATAKA
518703,Doddabelavangala,Doddabelavangala S.O,,,561204,Dod Ballapur,BANGALORE RURAL,KARNATAKA
518704,Goraghatta,Hulikunte B.O,,,561204,Nelamangala,BANGALORE RURAL,KARNATAKA
518705,Hulikunte,Hulikunte B.O,,,561204,Dod Ballapur,BANGALORE RURAL,KARNATAKA
518706,Hulikunte State Forest,Hulikunte B.O,,,561204,Dod Ballapur,BANGALORE RURAL,KARNATAKA
518707,Kalludevanahalli,Kadanur B.O,,,561204,Dod Ballapur,BANGALORE RURAL,KARNATAKA
518708,Kangalapura,Sakkaaregollahalli B.O,,,561204,Dod Ballapur,BANGALORE RURAL,KARNATAKA
518709,Kanikenahalli,Kadalappanahalli B.O,,,561204,Dod Ballapur,BANGALORE RURAL,KARNATAKA
518710,Karimaranahalli,Hulikunte B.O,,,561204,Nelamangala,BANGALORE RURAL,KARNATAKA
518711,Mugenahalli,Doddahejjaji B.O,,,561204,Dod Ballapur,BANGALORE RURAL,KARNATAKA
518712,Rameswara,Rameshwara B.O,,,561204,Dod Ballapur,BANGALORE RURAL,KARNATAKA
518713,Sakkaregollahalli,Sakkaaregollahalli B.O,,,561204,Dod Ballapur,BANGALORE RURAL,KARNATAKA
518714,Sasalu,Sasalu B.O,,,561204,Dod Ballapur,BANGALORE RURAL,KARNATAKA
518715,Syakaldevanapura,Syakaladevanapura B.O,,,561204,Dod Ballapur,BANGALORE RURAL,KARNATAKA
518716,Chigaranahalli,Baktharahalli B.O,,,561204,Dod Ballapur,BANGALORE RURAL,KARNATAKA
518717,Garudagallu,Sasalu B.O,,,561204,Dod Ballapur,BANGALORE RURAL,KARNATAKA
518718,Hadripura,Kadanur B.O,,,561204,Dod Ballapur,BANGALORE RURAL,KARNATAKA
518719,Harohalli,Sasalu B.O,,,561204,Dod Ballapur,BANGALORE RURAL,KARNATAKA
518720,Jyotipura,Baktharahalli B.O,,,561204,Dod Ballapur,BANGALORE RURAL,KARNATAKA
518721,Kattiihosahalli,Koligere B.O,,,561204,Dod Ballapur,BANGALORE RURAL,KARNATAKA
518722,Konenahalli,Sakkaaregollahalli B.O,,,561204,Dod Ballapur,BANGALORE RURAL,KARNATAKA
518723,Mavinakunte,Hulikunte B.O,,,561204,Nelamangala,BANGALORE RURAL,KARNATAKA
518724,Ramapura,Doddabelavangala S.O,,,561204,Dod Ballapur,BANGALORE RURAL,KARNATAKA
518725,Sankarasanahalli,Sakkaaregollahalli B.O,,,561204,Dod Ballapur,BANGALORE RURAL,KARNATAKA
518726,Singenahalli,Sasalu B.O,,,561204,Dod Ballapur,BANGALORE RURAL,KARNATAKA
518727,Tubakunte,Koligere B.O,,,561204,Dod Ballapur,BANGALORE RURAL,KARNATAKA
518728,Bhaktharahalli,Doddabelavangala S.O,,,561204,Dod Ballapur,BANGALORE RURAL,KARNATAKA
518729,Chunchegowdanahosahalli,Rameshwara B.O,,,561204,Dod Ballapur,BANGALORE RURAL,KARNATAKA
518730,Gundlahalli,Sakkaaregollahalli B.O,,,561204,Dod Ballapur,BANGALORE RURAL,KARNATAKA
518731,Kadlapanahalli,Kadalappanahalli B.O,,,561204,Dod Ballapur,BANGALORE RURAL,KARNATAKA
518732,Koligere,Koligere B.O,,,561204,Dod Ballapur,BANGALORE RURAL,KARNATAKA
518733,Lingapura,Sakkaaregollahalli B.O,,,561204,Dod Ballapur,BANGALORE RURAL,KARNATAKA
518734,Mallegowdanahalli,Kadalappanahalli B.O,,,561204,Dod Ballapur,BANGALORE RURAL,KARNATAKA
518735,Mudlakalenahalli,Baktharahalli B.O,,,561204,Dod Ballapur,BANGALORE RURAL,KARNATAKA
518736,Ankonahalli,Baktharahalli B.O,,,561204,Dod Ballapur,BANGALORE RURAL,KARNATAKA
518737,Appkarenahalli,Hulikunte B.O,,,561204,Dod Ballapur,BANGALORE RURAL,KARNATAKA
518738,Chikkamankanala,Koligere B.O,,,561204,Dod Ballapur,BANGALORE RURAL,KARNATAKA
518739,Gandragolipura,Syakaladevanapura B.O,,,561204,Dod Ballapur,BANGALORE RURAL,KARNATAKA
518740,Isthur,Syakaladevanapura B.O,,,561204,Dod Ballapur,BANGALORE RURAL,KARNATAKA
518741,K.G. Basavanapura,Baktharahalli B.O,,,561204,Dod Ballapur,BANGALORE RURAL,KARNATAKA
518742,Kasaghatta,Doddahejjaji B.O,,,561204,Dod Ballapur,BANGALORE RURAL,KARNATAKA
518743,Mallohalli,Kadanur B.O,,,561204,Dod Ballapur,BANGALORE RURAL,KARNATAKA
518744,Muppadighatta,Kadanur B.O,,,561204,Dod Ballapur,BANGALORE RURAL,KARNATAKA
518745,Nallenahalli,Purushanahalli B.O,,,561204,Dod Ballapur,BANGALORE RURAL,KARNATAKA
518746,Sirigondanahalli,Baktharahalli B.O,,,561204,Dod Ballapur,BANGALORE RURAL,KARNATAKA
518747,Sonnenahalli,Koligere B.O,,,561204,Dod Ballapur,BANGALORE RURAL,KARNATAKA
518748,Bhumenahalli,Melekote S.O,,,561205,Dod Ballapur,BANGALORE RURAL,KARNATAKA
518749,Chikkarayappanahalli,Melekote S.O,,,561205,Dod Ballapur,BANGALORE RURAL,KARNATAKA
518750,Doddarayappanahalli,Melekote S.O,,,561205,Dod Ballapur,BANGALORE RURAL,KARNATAKA
518751,Gedlapalya,Hadonahalli B.O,,,561205,Dod Ballapur,BANGALORE RURAL,KARNATAKA
518752,Heggadihalli,Heggadahalli B.O,,,561205,Dod Ballapur,BANGALORE RURAL,KARNATAKA
518753,Hireanaguddadahalli,Tubugere B.O,,,561205,Dod Ballapur,BANGALORE RURAL,KARNATAKA
518754,Mukkadigatta,Tubugere B.O,,,561205,Dod Ballapur,BANGALORE RURAL,KARNATAKA
518755,Udanahalli,Melekote S.O,,,561205,Dod Ballapur,BANGALORE RURAL,KARNATAKA
518756,Yedlahalli,Tubugere B.O,,,561205,Dod Ballapur,BANGALORE RURAL,KARNATAKA
518757,Gantiganahalli,Gantiganahalli B.O,,,561205,Dod Ballapur,BANGALORE RURAL,KARNATAKA
518758,Masthimmanahalli,Tubugere B.O,,,561205,Dod Ballapur,BANGALORE RURAL,KARNATAKA
518759,Sonnamaranahalli,Heggadahalli B.O,,,561205,Dod Ballapur,BANGALORE RURAL,KARNATAKA
518760,Subraya Nagenahalli,Hadonahalli B.O,,,561205,Dod Ballapur,BANGALORE RURAL,KARNATAKA
518761,Beedikere Agrahara,Gantiganahalli B.O,,,561205,Dod Ballapur,BANGALORE RURAL,KARNATAKA
518762,Chowgondanahalli,Melekote S.O,,,561205,Dod Ballapur,BANGALORE RURAL,KARNATAKA
518763,Durgenahalli,Hadonahalli B.O,,,561205,Dod Ballapur,BANGALORE RURAL,KARNATAKA
518764,Beedikere,Gantiganahalli B.O,,,561205,Dod Ballapur,BANGALORE RURAL,KARNATAKA
518765,Channapura,Heggadahalli B.O,,,561205,Dod Ballapur,BANGALORE RURAL,KARNATAKA
518766,Kallukote,Tubugere B.O,,,561205,Dod Ballapur,BANGALORE RURAL,KARNATAKA
518767,Karnala,Tubugere B.O,,,561205,Dod Ballapur,BANGALORE RURAL,KARNATAKA
518768,Lakshmidevipura,Hadonahalli B.O,,,561205,Dod Ballapur,BANGALORE RURAL,KARNATAKA
518769,Machagondahalli,Heggadahalli B.O,,,561205,Dod Ballapur,BANGALORE RURAL,KARNATAKA
518770,Sothenahalli,Tubugere B.O,,,561205,Dod Ballapur,BANGALORE RURAL,KARNATAKA
518771,Acharlahalli,Heggadahalli B.O,,,561205,Dod Ballapur,BANGALORE RURAL,KARNATAKA
518772,Chikkamuddenahalli,Tubugere B.O,,,561205,Dod Ballapur,BANGALORE RURAL,KARNATAKA
518773,Hiremuddenahalli,Tubugere B.O,,,561205,Dod Ballapur,BANGALORE RURAL,KARNATAKA
518774,Medihalli,Hadonahalli B.O,,,561205,Dod Ballapur,BANGALORE RURAL,KARNATAKA
518775,Myakalahalli,Tubugere B.O,,,561205,Dod Ballapur,BANGALORE RURAL,KARNATAKA
518776,Thirumagondanahalli,Hadonahalli B.O,,,561205,Dod Ballapur,BANGALORE RURAL,KARNATAKA
518777,Tubagere,Tubugere B.O,,,561205,Dod Ballapur,BANGALORE RURAL,KARNATAKA
518778,Vaddarahalli,Hadonahalli B.O,,,561205,Dod Ballapur,BANGALORE RURAL,KARNATAKA
518779,Gulyanandigunda,Heggadahalli B.O,,,561205,Dod Ballapur,BANGALORE RURAL,KARNATAKA
518780,Hadonahalli,Hadonahalli B.O,,,561205,Dod Ballapur,BANGALORE RURAL,KARNATAKA
518781,Kachahalli,Tubugere B.O,,,561205,Dod Ballapur,BANGALORE RURAL,KARNATAKA
518782,Dandu Dasakodigehalli,Melekote S.O,,,561205,Dod Ballapur,BANGALORE RURAL,KARNATAKA
518783,Gulya,Heggadahalli B.O,,,561205,Dod Ballapur,BANGALORE RURAL,KARNATAKA
518784,K.G.Lakkasandra,Tubugere B.O,,,561205,Dod Ballapur,BANGALORE RURAL,KARNATAKA
518785,Kuruvigere,Gantiganahalli B.O,,,561205,Dod Ballapur,BANGALORE RURAL,KARNATAKA
518786,Melekote,Melekote S.O,,,561205,Dod Ballapur,BANGALORE RURAL,KARNATAKA
518787,Mugachinnenahalli,Melekote S.O,,,561205,Dod Ballapur,BANGALORE RURAL,KARNATAKA
518788,Naraganahalli,Tubugere B.O,,,561205,Dod Ballapur,BANGALORE RURAL,KARNATAKA
518789,Kurubarahalli,Melekote S.O,,,561205,Dod Ballapur,BANGALORE RURAL,KARNATAKA
518790,Marahalli,Melekote S.O,,,561205,Dod Ballapur,BANGALORE RURAL,KARNATAKA
518791,Tapasipura,Heggadahalli B.O,,,561205,Dod Ballapur,BANGALORE RURAL,KARNATAKA
518792,Thogarighatta,Hadonahalli B.O,,,561205,Dod Ballapur,BANGALORE RURAL,KARNATAKA
519679,Kambadahalli,Melur S.O (Kolar),,,562102,Devanahalli,BANGALORE RURAL,KARNATAKA
519688,Bhattrenahalli,Melur S.O (Kolar),,,562102,Devanahalli,BANGALORE RURAL,KARNATAKA
520090,Chudenahalli,Vanakanahalli B.O,,,562106,Anekal,BANGALORE,KARNATAKA
520091,Honnakalasapura,Sidihoskote B.O,,,562106,Anekal,BANGALORE,KARNATAKA
520092,Kalanaikanahalli,Vanakanahalli B.O,,,562106,Anekal,BANGALORE,KARNATAKA
520093,Karakalaghatta,Thammanayakanahalli B.O,,,562106,Anekal,BANGALORE,KARNATAKA
520094,Karakalaghatta janatha Colony,Thammanayakanahalli B.O,,,562106,Anekal,BANGALORE,KARNATAKA
520095,Kuvempunagara,Guddanahalli B.O,,,562106,Anekal,BANGALORE,KARNATAKA
520096,Shettihalli,Marsur B.O,,,562106,Anekal,BANGALORE,KARNATAKA
520097,Sidihoskote,Sidihoskote B.O,,,562106,Anekal,BANGALORE,KARNATAKA
520098,SSB International School,Samandur B.O,,,562106,Anekal,BANGALORE,KARNATAKA
520099,Thimmaiahnadoddi,Indalavadi B.O,,,562106,Anekal,BANGALORE,KARNATAKA
520100,Badarhalli,Sidihoskote B.O,,,562106,Anekal,BANGALORE,KARNATAKA
520101,Basavanapura,Thammanayakanahalli B.O,,,562106,Anekal,BANGALORE,KARNATAKA
520102,Dodda Hagade,Sidihoskote B.O,,,562106,Anekal,BANGALORE,KARNATAKA
520103,Geratiganabele,Samandur B.O,,,562106,Anekal,BANGALORE,KARNATAKA
520104,K.Dommsandra,Vanakanahalli B.O,,,562106,Anekal,BANGALORE,KARNATAKA
520105,Karpur Janatha Colony,Bestamaranahalli B.O,,,562106,Anekal,BANGALORE,KARNATAKA
520106,Kaval Hosahalli,Sidihoskote B.O,,,562106,Anekal,BANGALORE,KARNATAKA
520107,Kunmadivala,Sidihoskote B.O,,,562106,Anekal,BANGALORE,KARNATAKA
520108,Kuvempunagara,Bestamaranahalli B.O,,,562106,Anekal,BANGALORE,KARNATAKA
520109,Madivala,Marsur B.O,,,562106,Anekal,BANGALORE,KARNATAKA
520110,Marasur,Marsur B.O,,,562106,Anekal,BANGALORE,KARNATAKA
520111,Mattagatti janatha Colony,Bestamaranahalli B.O,,,562106,Anekal,BANGALORE,KARNATAKA
520112,Muttur,Thammanayakanahalli B.O,,,562106,Anekal,BANGALORE,KARNATAKA
520113,Vaderahalli,Sidihoskote B.O,,,562106,Anekal,BANGALORE,KARNATAKA
520114,A Medihalli,Sidihoskote B.O,,,562106,Anekal,BANGALORE,KARNATAKA
520115,Adur,Indalavadi B.O,,,562106,Anekal,BANGALORE,KARNATAKA
520116,Amani Doddakere,Anekal S.O,,,562106,Anekal,BANGALORE,KARNATAKA
520117,Avadadenahalli,Marsur B.O,,,562106,Anekal,BANGALORE,KARNATAKA
520118,Bidaragere,Bestamaranahalli B.O,,,562106,Anekal,BANGALORE,KARNATAKA
520119,Byagadadenahalli,Marsur B.O,,,562106,Anekal,BANGALORE,KARNATAKA
520120,Chudenahalli,Thammanayakanahalli B.O,,,562106,Anekal,BANGALORE,KARNATAKA
520121,Indlawadi,Indalavadi B.O,,,562106,Anekal,BANGALORE,KARNATAKA
520122,Kempavaderahalli,Sidihoskote B.O,,,562106,Anekal,BANGALORE,KARNATAKA
520123,Kurubarahatti,Samandur B.O,,,562106,Anekal,BANGALORE,KARNATAKA
520124,Madiwala,Samandur B.O,,,562106,Anekal,BANGALORE,KARNATAKA
520125,Muthagatti,Guddanahalli B.O,,,562106,Anekal,BANGALORE,KARNATAKA
520126,Siddanapalya,Indalavadi B.O,,,562106,Anekal,BANGALORE,KARNATAKA
520127,Sonnanayakanapura,Indalavadi B.O,,,562106,Anekal,BANGALORE,KARNATAKA
520128,Thimmasandra,Samandur B.O,,,562106,Anekal,BANGALORE,KARNATAKA
520129,Vanakanahalli,Vanakanahalli B.O,,,562106,Anekal,BANGALORE,KARNATAKA
520130,Aravantigepura,Bestamaranahalli B.O,,,562106,Anekal,BANGALORE,KARNATAKA
520131,Arehalli,Thammanayakanahalli B.O,,,562106,Anekal,BANGALORE,KARNATAKA
520132,Bagganadoddi,Indalavadi B.O,,,562106,Anekal,BANGALORE,KARNATAKA
520133,Bandapura,Marsur B.O,,,562106,Anekal,BANGALORE,KARNATAKA
520134,Bidaraguppegunduthopu,Bestamaranahalli B.O,,,562106,Anekal,BANGALORE,KARNATAKA
520135,Gudnahalli,Guddanahalli B.O,,,562106,Anekal,BANGALORE,KARNATAKA
520136,Halevuru,Marsur B.O,,,562106,Anekal,BANGALORE,KARNATAKA
520137,Hompalaghatta,Vanakanahalli B.O,,,562106,Anekal,BANGALORE,KARNATAKA
520138,Indlawadipura,Thammanayakanahalli B.O,,,562106,Anekal,BANGALORE,KARNATAKA
520139,Karpur,Bestamaranahalli B.O,,,562106,Anekal,BANGALORE,KARNATAKA
520140,KK Nag Ltd,Bestamaranahalli B.O,,,562106,Anekal,BANGALORE,KARNATAKA
520141,Laxmipura,Thammanayakanahalli B.O,,,562106,Anekal,BANGALORE,KARNATAKA
520142,Mutyalamadagu,Vanakanahalli B.O,,,562106,Anekal,BANGALORE,KARNATAKA
520143,Naganaikanahalli,Marsur B.O,,,562106,Anekal,BANGALORE,KARNATAKA
520144,Rachamanahalli,Bestamaranahalli B.O,,,562106,Anekal,BANGALORE,KARNATAKA
520145,Shiradi Sai Engineering College,Samandur B.O,,,562106,Anekal,BANGALORE,KARNATAKA
520146,Soppahalli,Sidihoskote B.O,,,562106,Anekal,BANGALORE,KARNATAKA
520147,Submangala,Samandur B.O,,,562106,Anekal,BANGALORE,KARNATAKA
520148,Telagarahalli,Vanakanahalli B.O,,,562106,Anekal,BANGALORE,KARNATAKA
520149,Thattanahalli,Marsur B.O,,,562106,Anekal,BANGALORE,KARNATAKA
520150,Adurpalya,Indalavadi B.O,,,562106,Anekal,BANGALORE,KARNATAKA
520151,Anekal,Anekal S.O,,,562106,Anekal,BANGALORE,KARNATAKA
520152,Jayashree School,Samandur B.O,,,562106,Anekal,BANGALORE,KARNATAKA
520153,Kammasandra Agrahara,Sidihoskote B.O,,,562106,Anekal,BANGALORE,KARNATAKA
520154,Menasiganahalli,Vanakanahalli B.O,,,562106,Anekal,BANGALORE,KARNATAKA
520155,Muthagatti,Bestamaranahalli B.O,,,562106,Anekal,BANGALORE,KARNATAKA
520156,St.Joseph's School,Samandur B.O,,,562106,Anekal,BANGALORE,KARNATAKA
520157,Venkateswarapura,Thammanayakanahalli B.O,,,562106,Anekal,BANGALORE,KARNATAKA
520158,Anekal (Rural),Anekal S.O,,,562106,Anekal,BANGALORE,KARNATAKA
520159,Asraya Yojana Manegalu,Samandur B.O,,,562106,Anekal,BANGALORE,KARNATAKA
520160,Bommandahalli,Indalavadi B.O,,,562106,Anekal,BANGALORE,KARNATAKA
520161,Chikka Hosahalli,Thammanayakanahalli B.O,,,562106,Anekal,BANGALORE,KARNATAKA
520162,Dinnnur,Bestamaranahalli B.O,,,562106,Anekal,BANGALORE,KARNATAKA
520163,Gollahalli,Indalavadi B.O,,,562106,Anekal,BANGALORE,KARNATAKA
520164,GTB Cruster,Thammanayakanahalli B.O,,,562106,Anekal,BANGALORE,KARNATAKA
520165,Kempegowdnagara,Samandur B.O,,,562106,Anekal,BANGALORE,KARNATAKA
520166,Mysaramaradoddi,Indalavadi B.O,,,562106,Anekal,BANGALORE,KARNATAKA
520167,Patnagere Gollahalli,Vanakanahalli B.O,,,562106,Anekal,BANGALORE,KARNATAKA
520168,Rachamanhalli Jnatha Colony,Bestamaranahalli B.O,,,562106,Anekal,BANGALORE,KARNATAKA
520169,Solur,Vanakanahalli B.O,,,562106,Anekal,BANGALORE,KARNATAKA
520170,Thammanaikanahalli,Thammanayakanahalli B.O,,,562106,Anekal,BANGALORE,KARNATAKA
520171,Yellamanapalya,Sidihoskote B.O,,,562106,Anekal,BANGALORE,KARNATAKA
520172,Anekal railway Station,Bestamaranahalli B.O,,,562106,Anekal,BANGALORE,KARNATAKA
520173,Bestammanahalli,Bestamaranahalli B.O,,,562106,Anekal,BANGALORE,KARNATAKA
520174,Channena Agrahara,Samandur B.O,,,562106,Anekal,BANGALORE,KARNATAKA
520175,Haldenahalli Janatha Colony,Bestamaranahalli B.O,,,562106,Anekal,BANGALORE,KARNATAKA
520176,Indalwadi Cross,Indalavadi B.O,,,562106,Anekal,BANGALORE,KARNATAKA
520177,Marasur Agrahara,Marsur B.O,,,562106,Anekal,BANGALORE,KARNATAKA
520178,Amani Bidarakere,Anekal S.O,,,562106,Anekal,BANGALORE,KARNATAKA
520179,Chikka Hagade,Sidihoskote B.O,,,562106,Anekal,BANGALORE,KARNATAKA
520180,Chikkanahalli,Thammanayakanahalli B.O,,,562106,Anekal,BANGALORE,KARNATAKA
520181,Gowrenahalli,Sidihoskote B.O,,,562106,Anekal,BANGALORE,KARNATAKA
520182,Gudnahalli,Samandur B.O,,,562106,Anekal,BANGALORE,KARNATAKA
520183,Haldenahalli,Bestamaranahalli B.O,,,562106,Anekal,BANGALORE,KARNATAKA
520184,Kadajakkanahalli,Indalavadi B.O,,,562106,Anekal,BANGALORE,KARNATAKA
520185,Maranaikanahalli,Samandur B.O,,,562106,Anekal,BANGALORE,KARNATAKA
520186,Nallaiahanadoddi,Thammanayakanahalli B.O,,,562106,Anekal,BANGALORE,KARNATAKA
520187,Nosenur,Indalavadi B.O,,,562106,Anekal,BANGALORE,KARNATAKA
520188,Pearlvali Farm,Thammanayakanahalli B.O,,,562106,Anekal,BANGALORE,KARNATAKA
520189,Samandur,Samandur B.O,,,562106,Anekal,BANGALORE,KARNATAKA
520190,Sidihosakote,Sidihoskote B.O,,,562106,Anekal,BANGALORE,KARNATAKA
520191,Singasandra,Vanakanahalli B.O,,,562106,Anekal,BANGALORE,KARNATAKA
520192,Sunavara,Vanakanahalli B.O,,,562106,Anekal,BANGALORE,KARNATAKA
520193,Arenur,Bidaraguppe B.O,,,562107,Anekal,BANGALORE,KARNATAKA
520194,Attibele Ind Area,Yadavanahalli B.O,,,562107,Anekal,BANGALORE,KARNATAKA
520195,Balagaranahalli,Neralur B.O,,,562107,Anekal,BANGALORE,KARNATAKA
520196,Byalahalli,Bidaraguppe B.O,,,562107,Anekal,BANGALORE,KARNATAKA
520197,Dasanapura,Mayasandra B.O,,,562107,Anekal,BANGALORE,KARNATAKA
520198,Giddenahalli,Yadavanahalli B.O,,,562107,Anekal,BANGALORE,KARNATAKA
520199,Mayasandra,Mayasandra B.O,,,562107,Anekal,BANGALORE,KARNATAKA
520200,Bhaktipura,Mayasandra B.O,,,562107,Anekal,BANGALORE,KARNATAKA
520201,M.Medihalli,Mayasandra B.O,,,562107,Anekal,BANGALORE,KARNATAKA
520202,Narasapura,Bidaraguppe B.O,,,562107,Anekal,BANGALORE,KARNATAKA
520203,Hanuman Lay Out,Yadavanahalli B.O,,,562107,Anekal,BANGALORE,KARNATAKA
520204,Kamblipura,Mayasandra B.O,,,562107,Anekal,BANGALORE,KARNATAKA
520205,Kodlipura,Mayasandra B.O,,,562107,Anekal,BANGALORE,KARNATAKA
520206,Lakshmisagara,Neralur B.O,,,562107,Anekal,BANGALORE,KARNATAKA
520207,Neralur,Neralur B.O,,,562107,Anekal,BANGALORE,KARNATAKA
520208,R.C.Lay Out,Yadavanahalli B.O,,,562107,Anekal,BANGALORE,KARNATAKA
520209,Silk Farm,Bidaraguppe B.O,,,562107,Anekal,BANGALORE,KARNATAKA
520210,Tyayakana Halli,Bidaraguppe B.O,,,562107,Anekal,BANGALORE,KARNATAKA
520211,Vaddara Palya,Yadavanahalli B.O,,,562107,Anekal,BANGALORE,KARNATAKA
520212,Bendiganahalli,Neralur B.O,,,562107,Anekal,BANGALORE,KARNATAKA
520213,Jigala,Yadavanahalli B.O,,,562107,Anekal,BANGALORE,KARNATAKA
520214,Mallenahalli,Bidaraguppe B.O,,,562107,Anekal,BANGALORE,KARNATAKA
520215,Ballur,Attibele S.O,,,562107,Anekal,BANGALORE,KARNATAKA
520216,Canara College,Yadavanahalli B.O,,,562107,Anekal,BANGALORE,KARNATAKA
520217,Soma Habbu,Mayasandra B.O,,,562107,Anekal,BANGALORE,KARNATAKA
520218,Sultanapalya,Bidaraguppe B.O,,,562107,Anekal,BANGALORE,KARNATAKA
520219,Abbanna Palya,Yadavanahalli B.O,,,562107,Anekal,BANGALORE,KARNATAKA
520220,Arehalli,Mayasandra B.O,,,562107,Anekal,BANGALORE,KARNATAKA
520221,Bidarguppe Extn,Bidaraguppe B.O,,,562107,Anekal,BANGALORE,KARNATAKA
520222,Chikkanahalli,Attibele S.O,,,562107,Anekal,BANGALORE,KARNATAKA
520223,Guddahatti,Neralur B.O,,,562107,Anekal,BANGALORE,KARNATAKA
520224,Halehalli,Mayasandra B.O,,,562107,Anekal,BANGALORE,KARNATAKA
520225,Indlabele,Bidaraguppe B.O,,,562107,Anekal,BANGALORE,KARNATAKA
520226,Manchenahalli,Mayasandra B.O,,,562107,Anekal,BANGALORE,KARNATAKA
520227,"T.V.S.Road, Dasanapura",Mayasandra B.O,,,562107,Anekal,BANGALORE,KARNATAKA
520228,Vinatage Residency,Yadavanahalli B.O,,,562107,Anekal,BANGALORE,KARNATAKA
520229,Yadavanahalli,Yadavanahalli B.O,,,562107,Anekal,BANGALORE,KARNATAKA
520230,Attibele Ind Area,Neralur B.O,,,562107,Anekal,BANGALORE,KARNATAKA
520231,Bidaraguppe,Bidaraguppe B.O,,,562107,Anekal,BANGALORE,KARNATAKA
520232,Harohalli,Mayasandra B.O,,,562107,Anekal,BANGALORE,KARNATAKA
520233,Itchangur,Yadavanahalli B.O,,,562107,Anekal,BANGALORE,KARNATAKA
520234,Adigarakallahalli,Bidaraguppe B.O,,,562107,Anekal,BANGALORE,KARNATAKA
520235,Attibele,Attibele S.O,,,562107,Anekal,BANGALORE,KARNATAKA
520236,Krishnasagara,Yadavanahalli B.O,,,562107,Anekal,BANGALORE,KARNATAKA
520237,Ragahvendra Lay Out,Yadavanahalli B.O,,,562107,Anekal,BANGALORE,KARNATAKA
520238,Ramachandranagara,Yadavanahalli B.O,,,562107,Anekal,BANGALORE,KARNATAKA
520239,S.Medihalli,Bidaraguppe B.O,,,562107,Anekal,BANGALORE,KARNATAKA
520294,Hampapura,Manchanayakanahalli B.O,,,562109,Bangalore South,BANGALORE,KARNATAKA
520331,Arasanahalli Peddanahalli,Uganavadi B.O,,,562110,Devanahalli,BANGALORE RURAL,KARNATAKA
520332,Bommawara,Uganavadi B.O,,,562110,Devanahalli,BANGALORE RURAL,KARNATAKA
520333,Byradenahalli,Alurduddanahalli B.O,,,562110,Devanahalli,BANGALORE RURAL,KARNATAKA
520334,Doddagollahalli,Alurduddanahalli B.O,,,562110,Devanahalli,BANGALORE RURAL,KARNATAKA
520335,Sadahalli,Sadahalli B.O,,,562110,Devanahalli,BANGALORE RURAL,KARNATAKA
520336,Southegowdanahalli,Yeliyur B.O,,,562110,Devanahalli,BANGALORE RURAL,KARNATAKA
520337,Thammenahalli,Yeliyur B.O,,,562110,Devanahalli,BANGALORE RURAL,KARNATAKA
520338,Udayagiri,Doddasanne B.O,,,562110,Devanahalli,BANGALORE RURAL,KARNATAKA
520339,Vajarahalli,Vishwanathapura B.O,,,562110,Devanahalli,BANGALORE RURAL,KARNATAKA
520340,Venkatapura,Kundana B.O,,,562110,Devanahalli,BANGALORE RURAL,KARNATAKA
520341,Devanahalli,Devanahalli S.O,,,562110,Devanahalli,BANGALORE RURAL,KARNATAKA
520342,Doddacheemanahalli,Kundana B.O,,,562110,Devanahalli,BANGALORE RURAL,KARNATAKA
520343,Gokere Bachenahalli,Yeliyur B.O,,,562110,Devanahalli,BANGALORE RURAL,KARNATAKA
520344,Juttanahalli,Jalige B.O,,,562110,Devanahalli,BANGALORE RURAL,KARNATAKA
520345,Lingadeeragollahalli,Kundana B.O,,,562110,Devanahalli,BANGALORE RURAL,KARNATAKA
520346,Maragondanahalli,Aradeshanahalli B.O,,,562110,Devanahalli,BANGALORE RURAL,KARNATAKA
520347,Mattabaralu,Yeliyur B.O,,,562110,Devanahalli,BANGALORE RURAL,KARNATAKA
520348,Mattabarlu,Yeliyur B.O,,,562110,Hosakote,BANGALORE RURAL,KARNATAKA
520349,Mulli Amanikere,Devanahalli S.O,,,562110,Devanahalli,BANGALORE RURAL,KARNATAKA
520350,Rayasandra,Anneshwara B.O,,,562110,Devanahalli,BANGALORE RURAL,KARNATAKA
520351,Shanappanahalli,Vishwanathapura B.O,,,562110,Devanahalli,BANGALORE RURAL,KARNATAKA
520352,Singrahalli,Hegganahalli B.O,,,562110,Devanahalli,BANGALORE RURAL,KARNATAKA
520353,Sunnagatta,Alurduddanahalli B.O,,,562110,Devanahalli,BANGALORE RURAL,KARNATAKA
520354,Thellohalli Agrahara,Yeliyur B.O,,,562110,Devanahalli,BANGALORE RURAL,KARNATAKA
520355,Akkupet,Devanahalli S.O,,,562110,Devanahalli,BANGALORE RURAL,KARNATAKA
520356,Anneswara,Anneshwara B.O,,,562110,Devanahalli,BANGALORE RURAL,KARNATAKA
520357,Boovanahalli,Doddasanne B.O,,,562110,Devanahalli,BANGALORE RURAL,KARNATAKA
520358,Doddasanne,Doddasanne B.O,,,562110,Devanahalli,BANGALORE RURAL,KARNATAKA
520359,Haralur Nagenahalli,Yeliyur B.O,,,562110,Devanahalli,BANGALORE RURAL,KARNATAKA
520360,Sanne Amanikere,Devanahalli S.O,,,562110,Devanahalli,BANGALORE RURAL,KARNATAKA
520361,Thindlu,Jalige B.O,,,562110,Devanahalli,BANGALORE RURAL,KARNATAKA
520362,Yerrappanahalli,Anneshwara B.O,,,562110,Devanahalli,BANGALORE RURAL,KARNATAKA
520363,Bammanahalli,Yeliyur B.O,,,562110,Devanahalli,BANGALORE RURAL,KARNATAKA
520364,Bannimangala Amanikere,Alurduddanahalli B.O,,,562110,Devanahalli,BANGALORE RURAL,KARNATAKA
520365,Chikkannanahosahalli,Aradeshanahalli B.O,,,562110,Devanahalli,BANGALORE RURAL,KARNATAKA
520366,Dyavarahalli,Jalige B.O,,,562110,Devanahalli,BANGALORE RURAL,KARNATAKA
520367,Nagamangala,Hegganahalli B.O,,,562110,Devanahalli,BANGALORE RURAL,KARNATAKA
520368,Neraganahalli,Kundana B.O,,,562110,Devanahalli,BANGALORE RURAL,KARNATAKA
520369,Palya,Kannamangala B.O,,,562110,Devanahalli,BANGALORE RURAL,KARNATAKA
520370,Thimmegowdana Hosahalli,Uganavadi B.O,,,562110,Devanahalli,BANGALORE RURAL,KARNATAKA
520371,Aradeshahalli,Aradeshanahalli B.O,,,562110,Devanahalli,BANGALORE RURAL,KARNATAKA
520372,Boodihal,Yeliyur B.O,,,562110,Devanahalli,BANGALORE RURAL,KARNATAKA
520373,Chowdenahalli,Hegganahalli B.O,,,562110,Devanahalli,BANGALORE RURAL,KARNATAKA
520374,Gangamuthanahalli,Anneshwara B.O,,,562110,Devanahalli,BANGALORE RURAL,KARNATAKA
520375,Gururayana Hosur,Devanahalli S.O,,,562110,Devanahalli,BANGALORE RURAL,KARNATAKA
520376,Hegganahalli,Hegganahalli B.O,,,562110,Devanahalli,BANGALORE RURAL,KARNATAKA
520377,Indrasanahalli,Hegganahalli B.O,,,562110,Devanahalli,BANGALORE RURAL,KARNATAKA
520378,Jalige,Jalige B.O,,,562110,Devanahalli,BANGALORE RURAL,KARNATAKA
520379,Kempalingapura,Kannamangala B.O,,,562110,Devanahalli,BANGALORE RURAL,KARNATAKA
520380,Pandithapura,Jalige B.O,,,562110,Devanahalli,BANGALORE RURAL,KARNATAKA
520381,Sadenahalli,Aradeshanahalli B.O,,,562110,Bangalore North,BANGALORE,KARNATAKA
520382,Setterahalli,Vishwanathapura B.O,,,562110,Devanahalli,BANGALORE RURAL,KARNATAKA
520383,Byadarahalli,Vishwanathapura B.O,,,562110,Devanahalli,BANGALORE RURAL,KARNATAKA
520384,Chikkachimanahalli,Kundana B.O,,,562110,Devanahalli,BANGALORE RURAL,KARNATAKA
520385,Chinnakempanahalli,Uganavadi B.O,,,562110,Devanahalli,BANGALORE RURAL,KARNATAKA
520386,Guduvanahalli,Yeliyur B.O,,,562110,Devanahalli,BANGALORE RURAL,KARNATAKA
520387,Hire Amanikere,Devanahalli S.O,,,562110,Devanahalli,BANGALORE RURAL,KARNATAKA
520388,Jogahalli,Sadahalli B.O,,,562110,Devanahalli,BANGALORE RURAL,KARNATAKA
520389,Lakshmipura,Vishwanathapura B.O,,,562110,Devanahalli,BANGALORE RURAL,KARNATAKA
520390,Pujanahalli,Kannamangala B.O,,,562110,Devanahalli,BANGALORE RURAL,KARNATAKA
520391,Srothreyathellohalli,Yeliyur B.O,,,562110,Devanahalli,BANGALORE RURAL,KARNATAKA
520392,Uganavadi,Uganavadi B.O,,,562110,Devanahalli,BANGALORE RURAL,KARNATAKA
520393,Vishwanathapura,Vishwanathapura B.O,,,562110,Devanahalli,BANGALORE RURAL,KARNATAKA
520394,Alurdoddanahalli,Alurduddanahalli B.O,,,562110,Devanahalli,BANGALORE RURAL,KARNATAKA
520395,Bettenahalli,Hegganahalli B.O,,,562110,Devanahalli,BANGALORE RURAL,KARNATAKA
520396,Binnamangala,Yeliyur B.O,,,562110,Devanahalli,BANGALORE RURAL,KARNATAKA
520397,Bychapura,Anneshwara B.O,,,562110,Devanahalli,BANGALORE RURAL,KARNATAKA
520398,Chikkasanne,Doddasanne B.O,,,562110,Devanahalli,BANGALORE RURAL,KARNATAKA
520399,Chikkobanahalli,Alurduddanahalli B.O,,,562110,Devanahalli,BANGALORE RURAL,KARNATAKA
520400,Doddappanahalli,Kannamangala B.O,,,562110,Devanahalli,BANGALORE RURAL,KARNATAKA
520401,Ilathore,Hegganahalli B.O,,,562110,Devanahalli,BANGALORE RURAL,KARNATAKA
520402,Kamenahalli,Jalige B.O,,,562110,Devanahalli,BANGALORE RURAL,KARNATAKA
520403,Kannamangala,Kannamangala B.O,,,562110,Devanahalli,BANGALORE RURAL,KARNATAKA
520404,Kurubarakunte,Yeliyur B.O,,,562110,Devanahalli,BANGALORE RURAL,KARNATAKA
520405,Sulakunte,Kundana B.O,,,562110,Devanahalli,BANGALORE RURAL,KARNATAKA
520406,Suradenpura,Aradeshanahalli B.O,,,562110,Bangalore North,BANGALORE,KARNATAKA
520407,Thimmanahalli,Yeliyur B.O,,,562110,Devanahalli,BANGALORE RURAL,KARNATAKA
520408,Yaleyur,Yeliyur B.O,,,562110,Devanahalli,BANGALORE RURAL,KARNATAKA
520409,Bachahalli,Kundana B.O,,,562110,Devanahalli,BANGALORE RURAL,KARNATAKA
520410,Beerasandra,Alurduddanahalli B.O,,,562110,Devanahalli,BANGALORE RURAL,KARNATAKA
520411,Devaganahalli,Uganavadi B.O,,,562110,Devanahalli,BANGALORE RURAL,KARNATAKA
520412,Gokare,Yeliyur B.O,,,562110,Devanahalli,BANGALORE RURAL,KARNATAKA
520413,Kundana,Kundana B.O,,,562110,Devanahalli,BANGALORE RURAL,KARNATAKA
520414,Aladahalli,Billanakote B.O,,,562111,Nelamangala,BANGALORE RURAL,KARNATAKA
520415,Gottikere,Shivagange B.O,,,562111,Nelamangala,BANGALORE RURAL,KARNATAKA
520416,Govindapura,Heggunda B.O,,,562111,Bangalore North,BANGALORE,KARNATAKA
520417,Halenahalli,Narasipura B.O,,,562111,Nelamangala,BANGALORE RURAL,KARNATAKA
520418,Honnenahalli,Baragenahalli B.O,,,562111,Nelamangala,BANGALORE RURAL,KARNATAKA
520419,Kamalapura,Devarahosahalli B.O,,,562111,Nelamangala,BANGALORE RURAL,KARNATAKA
520420,Lakkasandra,Arebommnahalli B.O,,,562111,Nelamangala,BANGALORE RURAL,KARNATAKA
520421,Madaga,Maralakunte B.O,,,562111,Nelamangala,BANGALORE RURAL,KARNATAKA
520422,Avverahalli,Billanakote B.O,,,562111,Nelamangala,BANGALORE RURAL,KARNATAKA
520423,Billanakote,Billanakote B.O,,,562111,Nelamangala,BANGALORE RURAL,KARNATAKA
520424,Chandanahosahalli,Dobbespet S.O,,,562111,Nelamangala,BANGALORE RURAL,KARNATAKA
520425,Hosahalli,Billanakote B.O,,,562111,Nelamangala,BANGALORE RURAL,KARNATAKA
520426,Kengalkempohalli,Billanakote B.O,,,562111,Nelamangala,BANGALORE RURAL,KARNATAKA
520427,Kerekattiganoor,Billanakote B.O,,,562111,Nelamangala,BANGALORE RURAL,KARNATAKA
520428,Kuruvel Thimmanahalli,Yelekyathanahalli B.O,,,562111,Nelamangala,BANGALORE RURAL,KARNATAKA
520429,Melekattiganoor,Arebommnahalli B.O,,,562111,Nelamangala,BANGALORE RURAL,KARNATAKA
520430,Nijagal Kempohalli,Lakkur B.O,,,562111,Nelamangala,BANGALORE RURAL,KARNATAKA
520431,Agalakuppa,Dobbespet S.O,,,562111,Nelamangala,BANGALORE RURAL,KARNATAKA
520432,Alunaikanahalli,Kuluvanahalli B.O,,,562111,Nelamangala,BANGALORE RURAL,KARNATAKA
520433,Arebommanahalli,Arebommnahalli B.O,,,562111,Nelamangala,BANGALORE RURAL,KARNATAKA
520434,Bettadahosahalli,Narasipura B.O,,,562111,Nelamangala,BANGALORE RURAL,KARNATAKA
520435,Bharathipura,Billanakote B.O,,,562111,Nelamangala,BANGALORE RURAL,KARNATAKA
520436,Imchanahalli,Narasipura B.O,,,562111,Nelamangala,BANGALORE RURAL,KARNATAKA
520437,Lakkenahalli,Kuluvanahalli B.O,,,562111,Nelamangala,BANGALORE RURAL,KARNATAKA
520438,Lakkuru,Lakkur B.O,,,562111,Nelamangala,BANGALORE RURAL,KARNATAKA
520439,Nijagal,Devarahosahalli B.O,,,562111,Nelamangala,BANGALORE RURAL,KARNATAKA
520440,Basavapatna,Kambalu B.O,,,562111,Nelamangala,BANGALORE RURAL,KARNATAKA
520441,DOBBESPET,Dobbespet S.O,,,562111,Nelamangala,BANGALORE RURAL,KARNATAKA
520442,Gantehosahalli,Kambalu B.O,,,562111,Nelamangala,BANGALORE RURAL,KARNATAKA
520443,Goravanahalli,Kambalu B.O,,,562111,Nelamangala,BANGALORE RURAL,KARNATAKA
520444,Halenijagal,Devarahosahalli B.O,,,562111,Nelamangala,BANGALORE RURAL,KARNATAKA
520445,Hanumanthapura,Billanakote B.O,,,562111,Nelamangala,BANGALORE RURAL,KARNATAKA
520446,Kambal,Kambalu B.O,,,562111,Nelamangala,BANGALORE RURAL,KARNATAKA
520447,Kasaragatta,Kambalu B.O,,,562111,Nelamangala,BANGALORE RURAL,KARNATAKA
520448,Kuthagatta,Shivagange B.O,,,562111,Nelamangala,BANGALORE RURAL,KARNATAKA
520449,Shivagange,Shivagange B.O,,,562111,Nelamangala,BANGALORE RURAL,KARNATAKA
520450,Sripathihalli,Baragenahalli B.O,,,562111,Nelamangala,BANGALORE RURAL,KARNATAKA
520451,Veerasagara,Baragenahalli B.O,,,562111,Nelamangala,BANGALORE RURAL,KARNATAKA
520452,Benchanahalli,Yelekyathanahalli B.O,,,562111,Nelamangala,BANGALORE RURAL,KARNATAKA
520453,Chikkanapalya,Maralakunte B.O,,,562111,Nelamangala,BANGALORE RURAL,KARNATAKA
520454,Gangenapura,Shivagange B.O,,,562111,Nelamangala,BANGALORE RURAL,KARNATAKA
520455,Jajoor,Narasipura B.O,,,562111,Nelamangala,BANGALORE RURAL,KARNATAKA
520456,Kallunaikanahalli,Dobbespet S.O,,,562111,Nelamangala,BANGALORE RURAL,KARNATAKA
520457,Karimanne,Heggunda B.O,,,562111,Nelamangala,BANGALORE RURAL,KARNATAKA
520458,Kuluvanahalli,Kuluvanahalli B.O,,,562111,Nelamangala,BANGALORE RURAL,KARNATAKA
520459,Narasapura,Narasipura B.O,,,562111,Nelamangala,BANGALORE RURAL,KARNATAKA
520460,Narasipura,Narasipura B.O,,,562111,Bangalore North,BANGALORE,KARNATAKA
520461,Pemmanahalli,Lakkur B.O,,,562111,Nelamangala,BANGALORE RURAL,KARNATAKA
520462,Sulkunte,Kuluvanahalli B.O,,,562111,Nelamangala,BANGALORE RURAL,KARNATAKA
520463,Thimmanaikanahalli,Lakkur B.O,,,562111,Nelamangala,BANGALORE RURAL,KARNATAKA
520464,Baragoor,Maralakunte B.O,,,562111,Nelamangala,BANGALORE RURAL,KARNATAKA
520465,Gowrapura,Shivagange B.O,,,562111,Nelamangala,BANGALORE RURAL,KARNATAKA
520466,Totanahalli,Billanakote B.O,,,562111,Nelamangala,BANGALORE RURAL,KARNATAKA
520467,Yelekyathanahalli,Yelekyathanahalli B.O,,,562111,Nelamangala,BANGALORE RURAL,KARNATAKA
520468,Biragondanahalli,Devarahosahalli B.O,,,562111,Nelamangala,BANGALORE RURAL,KARNATAKA
520469,Devarahosahalli,Devarahosahalli B.O,,,562111,Nelamangala,BANGALORE RURAL,KARNATAKA
520470,Giriyanapalya,Maralakunte B.O,,,562111,Nelamangala,BANGALORE RURAL,KARNATAKA
520471,Heggunda,Heggunda B.O,,,562111,Nelamangala,BANGALORE RURAL,KARNATAKA
520472,Hulleharve,Maralakunte B.O,,,562111,Nelamangala,BANGALORE RURAL,KARNATAKA
520473,Kempapura Agrahara,Arebommnahalli B.O,,,562111,Nelamangala,BANGALORE RURAL,KARNATAKA
520474,Mahimapura,Kuluvanahalli B.O,,,562111,Nelamangala,BANGALORE RURAL,KARNATAKA
520475,Makenahalli,Narasipura B.O,,,562111,Nelamangala,BANGALORE RURAL,KARNATAKA
520476,Thalekere,Kuluvanahalli B.O,,,562111,Nelamangala,BANGALORE RURAL,KARNATAKA
520477,Yedehalli,Dobbespet S.O,,,562111,Nelamangala,BANGALORE RURAL,KARNATAKA
520478,Bargenahalli,Baragenahalli B.O,,,562111,Nelamangala,BANGALORE RURAL,KARNATAKA
520479,Bennegere,Yelekyathanahalli B.O,,,562111,Nelamangala,BANGALORE RURAL,KARNATAKA
520480,Bugadihalli,Narasipura B.O,,,562111,Nelamangala,BANGALORE RURAL,KARNATAKA
520481,Channohalli,Narasipura B.O,,,562111,Nelamangala,BANGALORE RURAL,KARNATAKA
520482,Dodderi,Kuluvanahalli B.O,,,562111,Nelamangala,BANGALORE RURAL,KARNATAKA
520483,Geddalahalli,Billanakote B.O,,,562111,Nelamangala,BANGALORE RURAL,KARNATAKA
520484,Govenahalli,Kuluvanahalli B.O,,,562111,Nelamangala,BANGALORE RURAL,KARNATAKA
520485,Govindapura,Heggunda B.O,,,562111,Nelamangala,BANGALORE RURAL,KARNATAKA
520486,Halkur,Arebommnahalli B.O,,,562111,Nelamangala,BANGALORE RURAL,KARNATAKA
520487,Kengal,Baragenahalli B.O,,,562111,Nelamangala,BANGALORE RURAL,KARNATAKA
520488,Kodigebommanahalli,Arebommnahalli B.O,,,562111,Nelamangala,BANGALORE RURAL,KARNATAKA
520489,Kuntbommanahalli,Maralakunte B.O,,,562111,Nelamangala,BANGALORE RURAL,KARNATAKA
520490,Maddenahalli,Lakkur B.O,,,562111,Nelamangala,BANGALORE RURAL,KARNATAKA
520491,Maragondanahalli,Kambalu B.O,,,562111,Nelamangala,BANGALORE RURAL,KARNATAKA
520492,Maralakunte,Maralakunte B.O,,,562111,Nelamangala,BANGALORE RURAL,KARNATAKA
520493,Sompura,Dobbespet S.O,,,562111,Nelamangala,BANGALORE RURAL,KARNATAKA
520494,Sulikunte,Kuluvanahalli B.O,,,562111,Dod Ballapur,BANGALORE RURAL,KARNATAKA
520539,Alappanahalli,Lakkondanahalli B.O,,,562114,Hosakote,BANGALORE RURAL,KARNATAKA
520540,Belamangala,Jadigenahalli B.O,,,562114,Hosakote,BANGALORE RURAL,KARNATAKA
520541,Bommanabande,Kattigenahalli B.O,,,562114,Hosakote,BANGALORE RURAL,KARNATAKA
520542,Channapura,Mugabala B.O,,,562114,Hosakote,BANGALORE RURAL,KARNATAKA
520543,Chikkagattiganabbe,Doddagattiganabbe B.O,,,562114,Hosakote,BANGALORE RURAL,KARNATAKA
520544,Doddagattiganabbe,Doddagattiganabbe B.O,,,562114,Hosakote,BANGALORE RURAL,KARNATAKA
520545,Doddanallurahalli,Kembliganahalli B.O,,,562114,Hosakote,BANGALORE RURAL,KARNATAKA
520546,Doddathaggali,Jadigenahalli B.O,,,562114,Hosakote,BANGALORE RURAL,KARNATAKA
520547,Govindapura,Jadigenahalli B.O,,,562114,Hosakote,BANGALORE RURAL,KARNATAKA
520548,Kammasandra,Hasigala B.O,,,562114,Hosakote,BANGALORE RURAL,KARNATAKA
520549,Kannurahalli,Doddagattiganabbe B.O,,,562114,Hosakote,BANGALORE RURAL,KARNATAKA
520550,Karibeeranahosahalli,Jadigenahalli B.O,,,562114,Hosakote,BANGALORE RURAL,KARNATAKA
520551,M.Sathyawara,Hasigala B.O,,,562114,Hosakote,BANGALORE RURAL,KARNATAKA
520552,Mugabala Hosahalli,Mugabala B.O,,,562114,Hosakote,BANGALORE RURAL,KARNATAKA
520553,Nakkanahalli,Kembliganahalli B.O,,,562114,Hosakote,BANGALORE RURAL,KARNATAKA
520554,Sarakariguttahalli,Doddagattiganabbe B.O,,,562114,Hosakote,BANGALORE RURAL,KARNATAKA
520555,Siddanapura,Kembliganahalli B.O,,,562114,Hosakote,BANGALORE RURAL,KARNATAKA
520556,Chikkanallala,Doddanallala B.O,,,562114,Hosakote,BANGALORE RURAL,KARNATAKA
520557,Devasettihalli,Mugabala B.O,,,562114,Hosakote,BANGALORE RURAL,KARNATAKA
520558,Ganagalu,Doddagattiganabbe B.O,,,562114,Hosakote,BANGALORE RURAL,KARNATAKA
520559,Jadigenahalli,Jadigenahalli B.O,,,562114,Hosakote,BANGALORE RURAL,KARNATAKA
520560,Kolathur,Kollathur B.O,,,562114,Hosakote,BANGALORE RURAL,KARNATAKA
520561,Orohalli,Jadigenahalli B.O,,,562114,Hosakote,BANGALORE RURAL,KARNATAKA
520562,Paramanahalli,Vagata Agrahara B.O,,,562114,Hosakote,BANGALORE RURAL,KARNATAKA
520563,Sarakar Vaddahalli,Doddagattiganabbe B.O,,,562114,Hosakote,BANGALORE RURAL,KARNATAKA
520564,Yelachammanahalli,Doddanallala B.O,,,562114,Hosakote,BANGALORE RURAL,KARNATAKA
520565,Chokkahalli,Hoskote Indl. Area B.O,,,562114,Hosakote,BANGALORE RURAL,KARNATAKA
520566,Doddadenahalli,Doddanallala B.O,,,562114,Hosakote,BANGALORE RURAL,KARNATAKA
520567,Ganagalur,Doddagattiganabbe B.O,,,562114,Hosakote,BANGALORE RURAL,KARNATAKA
520568,Halasakaipura,Doddanallala B.O,,,562114,Hosakote,BANGALORE RURAL,KARNATAKA
520569,Jodidasarahalli,Jodidasarahalli B.O,,,562114,Hosakote,BANGALORE RURAL,KARNATAKA
520570,Kempapura,Hasigala B.O,,,562114,Hosakote,BANGALORE RURAL,KARNATAKA
520571,Poojena Agrahara,Doddagattiganabbe B.O,,,562114,Hosakote,BANGALORE RURAL,KARNATAKA
520572,Sonnahallipura,Hasigala B.O,,,562114,Hosakote,BANGALORE RURAL,KARNATAKA
520573,Cheemandahalli,Doddagattiganabbe B.O,,,562114,Hosakote,BANGALORE RURAL,KARNATAKA
520574,Doddadasarahalli,Vagata Agrahara B.O,,,562114,Hosakote,BANGALORE RURAL,KARNATAKA
520575,Gonakanahalli,Jadigenahalli B.O,,,562114,Hosakote,BANGALORE RURAL,KARNATAKA
520576,K.G.Govindapura,Jadigenahalli B.O,,,562114,Dod Ballapur,BANGALORE RURAL,KARNATAKA
520577,Solur,Kollathur B.O,,,562114,Devanahalli,BANGALORE RURAL,KARNATAKA
520578,Vabasandra,Lakkondanahalli B.O,,,562114,Hosakote,BANGALORE RURAL,KARNATAKA
520579,Valagerepura,Mugabala B.O,,,562114,Hosakote,BANGALORE RURAL,KARNATAKA
520580,Venkatapura,Lakkondanahalli B.O,,,562114,Hosakote,BANGALORE RURAL,KARNATAKA
520581,Ambalipura,Jadigenahalli B.O,,,562114,Hosakote,BANGALORE RURAL,KARNATAKA
520582,Attur,Jodidasarahalli B.O,,,562114,Hosakote,BANGALORE RURAL,KARNATAKA
520583,Bhakthagondahalli,Kattigenahalli B.O,,,562114,Hosakote,BANGALORE RURAL,KARNATAKA
520584,Chikkahullur,Jodidasarahalli B.O,,,562114,Hosakote,BANGALORE RURAL,KARNATAKA
520585,Chikkanahalli,Kembliganahalli B.O,,,562114,Hosakote,BANGALORE RURAL,KARNATAKA
520586,Doddanallala Plantation,Doddanallala B.O,,,562114,Hosakote,BANGALORE RURAL,KARNATAKA
520587,Ekarajapura,Hasigala B.O,,,562114,Hosakote,BANGALORE RURAL,KARNATAKA
520588,Gottipura,Jodidasarahalli B.O,,,562114,Hosakote,BANGALORE RURAL,KARNATAKA
520589,Hosakote,Hoskote S.O,,,562114,Hosakote,BANGALORE RURAL,KARNATAKA
520590,Hunasehalli,Vagata Agrahara B.O,,,562114,Hosakote,BANGALORE RURAL,KARNATAKA
520591,Jinnagara,Doddagattiganabbe B.O,,,562114,Hosakote,BANGALORE RURAL,KARNATAKA
520592,Kamarasanahalli,Kattigenahalli B.O,,,562114,Hosakote,BANGALORE RURAL,KARNATAKA
520593,Kurubara Gollahalli,Kattigenahalli B.O,,,562114,Hosakote,BANGALORE RURAL,KARNATAKA
520594,Mugabala,Mugabala B.O,,,562114,Hosakote,BANGALORE RURAL,KARNATAKA
520595,Poojaramanahalli,Mugabala B.O,,,562114,Hosakote,BANGALORE RURAL,KARNATAKA
520596,Solur,Kollathur B.O,,,562114,Hosakote,BANGALORE RURAL,KARNATAKA
520597,Thimmasandra,Lakkondanahalli B.O,,,562114,Hosakote,BANGALORE RURAL,KARNATAKA
520598,Upparahalli,Kumbalahalli B.O,,,562114,Devanahalli,BANGALORE RURAL,KARNATAKA
520599,Upparahalli,Kumbalahalli B.O,,,562114,Hosakote,BANGALORE RURAL,KARNATAKA
520600,Vagata Agrahara,Vagata Agrahara B.O,,,562114,Hosakote,BANGALORE RURAL,KARNATAKA
520601,Alagondahalli,Doddanallala B.O,,,562114,Hosakote,BANGALORE RURAL,KARNATAKA
520602,Chinnandahalli,Mugabala B.O,,,562114,Hosakote,BANGALORE RURAL,KARNATAKA
520603,Devara Gollahalli,Kattigenahalli B.O,,,562114,Hosakote,BANGALORE RURAL,KARNATAKA
520604,Doddanallala,Doddanallala B.O,,,562114,Hosakote,BANGALORE RURAL,KARNATAKA
520605,Guguttahalli,Doddanallala B.O,,,562114,Hosakote,BANGALORE RURAL,KARNATAKA
520606,Haralur,Kollathur B.O,,,562114,Devanahalli,BANGALORE RURAL,KARNATAKA
520607,Hasigala,Hasigala B.O,,,562114,Hosakote,BANGALORE RURAL,KARNATAKA
520608,Kallahalli,Kumbalahalli B.O,,,562114,Hosakote,BANGALORE RURAL,KARNATAKA
520609,Lakkondahalli,Lakkondanahalli B.O,,,562114,Hosakote,BANGALORE RURAL,KARNATAKA
520610,Mylapura,Mugabala B.O,,,562114,Hosakote,BANGALORE RURAL,KARNATAKA
520611,Pethanahalli,Doddagattiganabbe B.O,,,562114,Hosakote,BANGALORE RURAL,KARNATAKA
520612,Shivadenahalli,Lakkondanahalli B.O,,,562114,Hosakote,BANGALORE RURAL,KARNATAKA
520613,Thirumenahalli,Hoskote S.O,,,562114,Bangalore South,BANGALORE,KARNATAKA
520614,Vadigehalli,Jadigenahalli B.O,,,562114,Hosakote,BANGALORE RURAL,KARNATAKA
520615,Vagata,Vagata Agrahara B.O,,,562114,Hosakote,BANGALORE RURAL,KARNATAKA
520616,Yelachanayakanapura,Kumbalahalli B.O,,,562114,Hosakote,BANGALORE RURAL,KARNATAKA
520617,Yenagunte,Hasigala B.O,,,562114,Hosakote,BANGALORE RURAL,KARNATAKA
520618,Appasandra,Jadigenahalli B.O,,,562114,Hosakote,BANGALORE RURAL,KARNATAKA
520619,Arlemakanahalli,Jadigenahalli B.O,,,562114,Hosakote,BANGALORE RURAL,KARNATAKA
520620,Attivatta,Jodidasarahalli B.O,,,562114,Hosakote,BANGALORE RURAL,KARNATAKA
520621,Chikkathaggali,Jadigenahalli B.O,,,562114,Hosakote,BANGALORE RURAL,KARNATAKA
520622,Doddahullur,Jodidasarahalli B.O,,,562114,Hosakote,BANGALORE RURAL,KARNATAKA
520623,Halasahalli,Jodidasarahalli B.O,,,562114,Hosakote,BANGALORE RURAL,KARNATAKA
520624,Haralur,Kollathur B.O,,,562114,Hosakote,BANGALORE RURAL,KARNATAKA
520625,Kamblipura,Hasigala B.O,,,562114,Hosakote,BANGALORE RURAL,KARNATAKA
520626,Kattigenahalli,Kattigenahalli B.O,,,562114,Hosakote,BANGALORE RURAL,KARNATAKA
520627,Kumbalahalli,Kumbalahalli B.O,,,562114,Hosakote,BANGALORE RURAL,KARNATAKA
520628,Kurubarahalli,Kumbalahalli B.O,,,562114,Hosakote,BANGALORE RURAL,KARNATAKA
520629,Pillagumpe,Hoskote Indl. Area B.O,,,562114,Hosakote,BANGALORE RURAL,KARNATAKA
520630,Sadappanahalli,Hasigala B.O,,,562114,Hosakote,BANGALORE RURAL,KARNATAKA
520631,Siddapura,Kembliganahalli B.O,,,562114,Hosakote,BANGALORE RURAL,KARNATAKA
520632,Sonnadenahalli,Kumbalahalli B.O,,,562114,Hosakote,BANGALORE RURAL,KARNATAKA
520633,Thaggali Hosahalli,Jadigenahalli B.O,,,562114,Hosakote,BANGALORE RURAL,KARNATAKA
520634,Appasandra Plantation,Jadigenahalli B.O,,,562114,Hosakote,BANGALORE RURAL,KARNATAKA
520635,Arlemakanahalli Plantation,Jadigenahalli B.O,,,562114,Hosakote,BANGALORE RURAL,KARNATAKA
520636,Dabbagunte,Doddanallala B.O,,,562114,Hosakote,BANGALORE RURAL,KARNATAKA
520637,Dodda Amanikere,Doddagattiganabbe B.O,,,562114,Hosakote,BANGALORE RURAL,KARNATAKA
520638,Hosakote,Hoskote Indl. Area B.O,,,562114,Hosakote,BANGALORE RURAL,KARNATAKA
520639,Injanahalli,Jadigenahalli B.O,,,562114,Hosakote,BANGALORE RURAL,KARNATAKA
520640,Jadigenahalli Plantation,Jadigenahalli B.O,,,562114,Hosakote,BANGALORE RURAL,KARNATAKA
520641,Kembaliganahalli,Kembliganahalli B.O,,,562114,Hosakote,BANGALORE RURAL,KARNATAKA
520642,Khajihosahalli,Kattigenahalli B.O,,,562114,Hosakote,BANGALORE RURAL,KARNATAKA
520643,Makanahalli,Vagata Agrahara B.O,,,562114,Hosakote,BANGALORE RURAL,KARNATAKA
520644,Mallyappanahalli,Kembliganahalli B.O,,,562114,Hosakote,BANGALORE RURAL,KARNATAKA
520645,Muthasandra,Hasigala B.O,,,562114,Hosakote,BANGALORE RURAL,KARNATAKA
520646,Nidagatta,Jodidasarahalli B.O,,,562114,Hosakote,BANGALORE RURAL,KARNATAKA
520647,Shankanipura,Lakkondanahalli B.O,,,562114,Hosakote,BANGALORE RURAL,KARNATAKA
520648,Sompura,Kumbalahalli B.O,,,562114,Hosakote,BANGALORE RURAL,KARNATAKA
520649,Thavatahalli,Jadigenahalli B.O,,,562114,Hosakote,BANGALORE RURAL,KARNATAKA
520650,Thimmapura,Doddanallala B.O,,,562114,Hosakote,BANGALORE RURAL,KARNATAKA
520651,Ummalu,Doddanallala B.O,,,562114,Hosakote,BANGALORE RURAL,KARNATAKA
520739,Narayanapura,Narayanapura B.O,,,562117,Nelamangala,BANGALORE RURAL,KARNATAKA
520882,Sevanagara,Bachenahatti B.O,,,562120,Dod Ballapur,BANGALORE RURAL,KARNATAKA
520971,Bheemapura,Shivanapura B.O,,,562122,Hosakote,BANGALORE RURAL,KARNATAKA
520972,Chikkondahalli,Hindaganala B.O,,,562122,Hosakote,BANGALORE RURAL,KARNATAKA
520973,Doddenahalli,K.Satyavara B.O,,,562122,Hosakote,BANGALORE RURAL,KARNATAKA
520974,Gangapura,Tavarekere B.O,,,562122,Hosakote,BANGALORE RURAL,KARNATAKA
520975,Hindiganala,Hindaganala B.O,,,562122,Hosakote,BANGALORE RURAL,KARNATAKA
520976,Hosavenkatapura,Hindaganala B.O,,,562122,Hosakote,BANGALORE RURAL,KARNATAKA
520977,Lingapura,Tavarekere B.O,,,562122,Hosakote,BANGALORE RURAL,KARNATAKA
520978,Mothakadahalli,Bylanarasapura B.O,,,562122,Hosakote,BANGALORE RURAL,KARNATAKA
520979,Yethinavadeyarapura,Nelavagilu B.O,,,562122,Hosakote,BANGALORE RURAL,KARNATAKA
520981,Bhuvanahalli,K.Satyavara B.O,,,562122,Hosakote,BANGALORE RURAL,KARNATAKA
520982,Chikkanallurahalli,Begur B.O,,,562122,Hosakote,BANGALORE RURAL,KARNATAKA
520983,Muddenahalli,Bylanarasapura B.O,,,562122,Hosakote,BANGALORE RURAL,KARNATAKA
520984,Nandagudi,Nandagudi S.O,,,562122,Hosakote,BANGALORE RURAL,KARNATAKA
520985,Oblahalli,Bylanarasapura B.O,,,562122,Hosakote,BANGALORE RURAL,KARNATAKA
520986,Tharabahalli,Hindaganala B.O,,,562122,Hosakote,BANGALORE RURAL,KARNATAKA
520987,Yeshvanthapura,Nelavagilu B.O,,,562122,Hosakote,BANGALORE RURAL,KARNATAKA
520988,Banahalli,Bylanarasapura B.O,,,562122,Hosakote,BANGALORE RURAL,KARNATAKA
520989,Banamakanahalli,Tavarekere B.O,,,562122,Hosakote,BANGALORE RURAL,KARNATAKA
520990,Bandahalli,Bylanarasapura B.O,,,562122,Hosakote,BANGALORE RURAL,KARNATAKA
520991,Bavapura,K.Satyavara B.O,,,562122,Hosakote,BANGALORE RURAL,KARNATAKA
520992,Bheemakkanahalli,Begur B.O,,,562122,Hosakote,BANGALORE RURAL,KARNATAKA
520993,Dimbahalli,K.Satyavara B.O,,,562122,Hosakote,BANGALORE RURAL,KARNATAKA
520994,Doddaramanahalli,Tavarekere B.O,,,562122,Hosakote,BANGALORE RURAL,KARNATAKA
520995,Gullenahalli,Shivanapura B.O,,,562122,Hosakote,BANGALORE RURAL,KARNATAKA
520996,Karahalli,Nelavagilu B.O,,,562122,Hosakote,BANGALORE RURAL,KARNATAKA
520997,Manchappanahalli,Tavarekere B.O,,,562122,Hosakote,BANGALORE RURAL,KARNATAKA
520998,N.Hosahalli,Bylanarasapura B.O,,,562122,Hosakote,BANGALORE RURAL,KARNATAKA
520999,Agrahara Vaddahalli,Nandagudi S.O,,,562122,Hosakote,BANGALORE RURAL,KARNATAKA
521000,Chowdasandra,Nandagudi S.O,,,562122,Hosakote,BANGALORE RURAL,KARNATAKA
521001,Gundrahalli,Korati B.O,,,562122,Hosakote,BANGALORE RURAL,KARNATAKA
521002,Hethakki,Bylanarasapura B.O,,,562122,Hosakote,BANGALORE RURAL,KARNATAKA
521003,K.Settihalli,Nelavagilu B.O,,,562122,Hosakote,BANGALORE RURAL,KARNATAKA
521004,Kolalachannenahalli,Tavarekere B.O,,,562122,Hosakote,BANGALORE RURAL,KARNATAKA
521005,Kondrahalli,Bylanarasapura B.O,,,562122,Hosakote,BANGALORE RURAL,KARNATAKA
521006,Marasandahalli,Bylanarasapura B.O,,,562122,Hosakote,BANGALORE RURAL,KARNATAKA
521007,Muthukadahalli,Begur B.O,,,562122,Hosakote,BANGALORE RURAL,KARNATAKA
521008,Nelavagilu,Nelavagilu B.O,,,562122,Hosakote,BANGALORE RURAL,KARNATAKA
521009,Chikkakoliga,Begur B.O,,,562122,Hosakote,BANGALORE RURAL,KARNATAKA
521010,Cholappanahalli,Begur B.O,,,562122,Hosakote,BANGALORE RURAL,KARNATAKA
521011,Dinnenahalli,Nandagudi S.O,,,562122,Dod Ballapur,BANGALORE RURAL,KARNATAKA
521012,Giddanahalli,Nandagudi S.O,,,562122,Hosakote,BANGALORE RURAL,KARNATAKA
521013,Gundrahalli,Shivanapura B.O,,,562122,Hosakote,BANGALORE RURAL,KARNATAKA
521014,K.Sathyawara,K.Satyavara B.O,,,562122,Hosakote,BANGALORE RURAL,KARNATAKA
521015,Ramagovindapura,Nandagudi S.O,,,562122,Hosakote,BANGALORE RURAL,KARNATAKA
521016,Siddanahalli,Nelavagilu B.O,,,562122,Hosakote,BANGALORE RURAL,KARNATAKA
521017,Arlemakanahalli District Plantation,Nandagudi S.O,,,562122,Hosakote,BANGALORE RURAL,KARNATAKA
521018,Begur,Begur B.O,,,562122,Hosakote,BANGALORE RURAL,KARNATAKA
521019,Chokkasandra,Nandagudi S.O,,,562122,Hosakote,BANGALORE RURAL,KARNATAKA
521020,Doddaganahalli,Korati B.O,,,562122,Hosakote,BANGALORE RURAL,KARNATAKA
521021,Doddakoliga,Begur B.O,,,562122,Hosakote,BANGALORE RURAL,KARNATAKA
521022,Esthur Amanikere,Nandagudi S.O,,,562122,Hosakote,BANGALORE RURAL,KARNATAKA
521023,Geddalahallipura,Nandagudi S.O,,,562122,Hosakote,BANGALORE RURAL,KARNATAKA
521024,Gerahalli,Tavarekere B.O,,,562122,Hosakote,BANGALORE RURAL,KARNATAKA
521025,Guddadachannenahalli,Tavarekere B.O,,,562122,Hosakote,BANGALORE RURAL,KARNATAKA
521026,Hedakanahalli,Korati B.O,,,562122,Hosakote,BANGALORE RURAL,KARNATAKA
521027,Korati,Korati B.O,,,562122,Hosakote,BANGALORE RURAL,KARNATAKA
521028,Malimakanapura,Begur B.O,,,562122,Hosakote,BANGALORE RURAL,KARNATAKA
521029,Medur,Bylanarasapura B.O,,,562122,Hosakote,BANGALORE RURAL,KARNATAKA
521030,Sonnebychanahalli,Begur B.O,,,562122,Hosakote,BANGALORE RURAL,KARNATAKA
521031,Sonnekempanahalli,Korati B.O,,,562122,Hosakote,BANGALORE RURAL,KARNATAKA
521032,Thavarekere,Tavarekere B.O,,,562122,Hosakote,BANGALORE RURAL,KARNATAKA
521033,Bagalur,Begur B.O,,,562122,Hosakote,BANGALORE RURAL,KARNATAKA
521034,Beerahalli,Shivanapura B.O,,,562122,Hosakote,BANGALORE RURAL,KARNATAKA
521035,D.Settihalli,K.Satyavara B.O,,,562122,Hosakote,BANGALORE RURAL,KARNATAKA
521036,Gullahalli,Begur B.O,,,562122,Hosakote,BANGALORE RURAL,KARNATAKA
521037,Huluvanahalli,Bylanarasapura B.O,,,562122,Hosakote,BANGALORE RURAL,KARNATAKA
521038,Ittasandra,Nandagudi S.O,,,562122,Hosakote,BANGALORE RURAL,KARNATAKA
521039,Kalappanahalli,Tavarekere B.O,,,562122,Hosakote,BANGALORE RURAL,KARNATAKA
521040,Mumynahosahalli,K.Satyavara B.O,,,562122,Hosakote,BANGALORE RURAL,KARNATAKA
521041,Nagarenahalli,Begur B.O,,,562122,Hosakote,BANGALORE RURAL,KARNATAKA
521042,Sarakanur,Nelavagilu B.O,,,562122,Hosakote,BANGALORE RURAL,KARNATAKA
521043,Sathigenahalli,Bylanarasapura B.O,,,562122,Hosakote,BANGALORE RURAL,KARNATAKA
521044,Shivanapura,Shivanapura B.O,,,562122,Hosakote,BANGALORE RURAL,KARNATAKA
521046,Agasarahalli,Tavarekere B.O,,,562122,Hosakote,BANGALORE RURAL,KARNATAKA
521047,Arehalli,Nelavagilu B.O,,,562122,Hosakote,BANGALORE RURAL,KARNATAKA
521048,Banahalli,Hindaganala B.O,,,562122,Hosakote,BANGALORE RURAL,KARNATAKA
521049,Bisanahalli,Shivanapura B.O,,,562122,Hosakote,BANGALORE RURAL,KARNATAKA
521050,Bylanarasapura,Bylanarasapura B.O,,,562122,Hosakote,BANGALORE RURAL,KARNATAKA
521051,Dalasagere,Nelavagilu B.O,,,562122,Hosakote,BANGALORE RURAL,KARNATAKA
521052,Esthur,Nandagudi S.O,,,562122,Hosakote,BANGALORE RURAL,KARNATAKA
521053,Hosadimbahalli,K.Satyavara B.O,,,562122,Hosakote,BANGALORE RURAL,KARNATAKA
521054,Karapanahalli,K.Satyavara B.O,,,562122,Hosakote,BANGALORE RURAL,KARNATAKA
521055,Ralkunte,Hindaganala B.O,,,562122,Hosakote,BANGALORE RURAL,KARNATAKA
521056,Thiratahalli,Hindaganala B.O,,,562122,Hosakote,BANGALORE RURAL,KARNATAKA
521057,Yelachahalli,Tavarekere B.O,,,562122,Hosakote,BANGALORE RURAL,KARNATAKA
521058,Aralasandra,Madalakote B.O,,,562123,Nelamangala,BANGALORE RURAL,KARNATAKA
521059,Bardi,Mandigere B.O,,,562123,Nelamangala,BANGALORE RURAL,KARNATAKA
521060,Honnasandra,Honnasandra B.O,,,562123,Bangalore North,BANGALORE,KARNATAKA
521061,Jakkasandra,Nelamangala S.O,,,562123,Nelamangala,BANGALORE RURAL,KARNATAKA
521062,Kenchanahalli,Madalakote B.O,,,562123,Nelamangala,BANGALORE RURAL,KARNATAKA
521063,Kothanahalli,Honnasandra B.O,,,562123,Nelamangala,BANGALORE RURAL,KARNATAKA
521064,Machonaikanahalli,Budihal B.O,,,562123,Nelamangala,BANGALORE RURAL,KARNATAKA
521065,Nelamangala,Nelamangala S.O,,,562123,Nelamangala,BANGALORE RURAL,KARNATAKA
521066,Pallarahalli,Teppadabeguru B.O,,,562123,Nelamangala,BANGALORE RURAL,KARNATAKA
521067,Thimmasandra,Madalakote B.O,,,562123,Nelamangala,BANGALORE RURAL,KARNATAKA
521068,Visveswarapura,Nelamangala S.O,,,562123,Nelamangala,BANGALORE RURAL,KARNATAKA
521069,Yelachagere,Nelamangala S.O,,,562123,Nelamangala,BANGALORE RURAL,KARNATAKA
521070,Araledibba,Teppadabeguru B.O,,,562123,Nelamangala,BANGALORE RURAL,KARNATAKA
521071,Arasinakunte,Arasinakunte B.O,,,562123,Nelamangala,BANGALORE RURAL,KARNATAKA
521072,Basavanahalli,Nelamangala S.O,,,562123,Nelamangala,BANGALORE RURAL,KARNATAKA
521073,Bidanapalya,Mandigere B.O,,,562123,Nelamangala,BANGALORE RURAL,KARNATAKA
521074,Budihal,Budihal B.O,,,562123,Nelamangala,BANGALORE RURAL,KARNATAKA
521075,Byranahalli,Teppadabeguru B.O,,,562123,Nelamangala,BANGALORE RURAL,KARNATAKA
521076,Byregowdanahalli,Mallarabanavadi B.O,,,562123,Bangalore North,BANGALORE,KARNATAKA
521077,Guddegowdana Channohalli,Jakkanahalli B.O,,,562123,Nelamangala,BANGALORE RURAL,KARNATAKA
521078,H.Kempalinganahalli,Nelamangala S.O,,,562123,Nelamangala,BANGALORE RURAL,KARNATAKA
521079,Hanumanapalya,Mahadevapura B.O,,,562123,Nelamangala,BANGALORE RURAL,KARNATAKA
521080,Hullegowdanahalli,Nelamangala S.O,,,562123,Bangalore North,BANGALORE,KARNATAKA
521081,Hydalu,Mylanahalli B.O,,,562123,Nelamangala,BANGALORE RURAL,KARNATAKA
521082,K.G. Srinivasapura,Mylanahalli B.O,,,562123,Nelamangala,BANGALORE RURAL,KARNATAKA
521083,Mallapura,Nelamangala S.O,,,562123,Nelamangala,BANGALORE RURAL,KARNATAKA
521084,Manchenahalli,Honnasandra B.O,,,562123,Nelamangala,BANGALORE RURAL,KARNATAKA
521085,Mandigere,Mandigere B.O,,,562123,Nelamangala,BANGALORE RURAL,KARNATAKA
521086,Mylanahalli,Mylanahalli B.O,,,562123,Nelamangala,BANGALORE RURAL,KARNATAKA
521087,Ananthapura,Budihal B.O,,,562123,Nelamangala,BANGALORE RURAL,KARNATAKA
521088,Byrasandra,Madalakote B.O,,,562123,Nelamangala,BANGALORE RURAL,KARNATAKA
521089,Byrasettihalli,Gollahalli B.O,,,562123,Nelamangala,BANGALORE RURAL,KARNATAKA
521090,Gangadharanapalya,Nelamangala S.O,,,562123,Nelamangala,BANGALORE RURAL,KARNATAKA
521091,Govindapura,Madalakote B.O,,,562123,Nelamangala,BANGALORE RURAL,KARNATAKA
521092,Guruvanahalli,Yentiganahalli B.O,,,562123,Nelamangala,BANGALORE RURAL,KARNATAKA
521093,Hajipalya,Madalakote B.O,,,562123,Nelamangala,BANGALORE RURAL,KARNATAKA
521094,Hanchipura,Mallarabanavadi B.O,,,562123,Nelamangala,BANGALORE RURAL,KARNATAKA
521095,Hasurahalli,Jakkanahalli B.O,,,562123,Nelamangala,BANGALORE RURAL,KARNATAKA
521096,Huralihalli,Budihal B.O,,,562123,Nelamangala,BANGALORE RURAL,KARNATAKA
521097,Krishnarajapalya,Mylanahalli B.O,,,562123,Nelamangala,BANGALORE RURAL,KARNATAKA
521098,Lingenahalli,Mahadevapura B.O,,,562123,Nelamangala,BANGALORE RURAL,KARNATAKA
521099,Shamabhattara Palya,Gollahalli B.O,,,562123,Bangalore North,BANGALORE,KARNATAKA
521100,Bhavikere,Yentiganahalli B.O,,,562123,Nelamangala,BANGALORE RURAL,KARNATAKA
521101,Doddakarenahalli,Yentiganahalli B.O,,,562123,Nelamangala,BANGALORE RURAL,KARNATAKA
521102,Kempohalli,Madalakote B.O,,,562123,Nelamangala,BANGALORE RURAL,KARNATAKA
521103,Kukkanahalli,Gollahalli B.O,,,562123,Bangalore North,BANGALORE,KARNATAKA
521104,Mallarabanavadi,Mallarabanavadi B.O,,,562123,Nelamangala,BANGALORE RURAL,KARNATAKA
521105,Marohalli,Teppadabeguru B.O,,,562123,Nelamangala,BANGALORE RURAL,KARNATAKA
521106,Narasimhapalya,Mylanahalli B.O,,,562123,Nelamangala,BANGALORE RURAL,KARNATAKA
521107,Nelamangala (Rural),Nelamangala S.O,,,562123,Nelamangala,BANGALORE RURAL,KARNATAKA
521108,Obanaikanahalli,Nelamangala S.O,,,562123,Nelamangala,BANGALORE RURAL,KARNATAKA
521109,Sitaram Bhattarapalya,Yentiganahalli B.O,,,562123,Nelamangala,BANGALORE RURAL,KARNATAKA
521110,Thippagundanahalli,Teppadabeguru B.O,,,562123,Nelamangala,BANGALORE RURAL,KARNATAKA
521111,Tirumalapura,Teppadabeguru B.O,,,562123,Nelamangala,BANGALORE RURAL,KARNATAKA
521112,Tonachinakuppe,Teppadabeguru B.O,,,562123,Nelamangala,BANGALORE RURAL,KARNATAKA
521113,Varadanaikanahalli,Jakkanahalli B.O,,,562123,Nelamangala,BANGALORE RURAL,KARNATAKA
521114,Venkatapura,Mallarabanavadi B.O,,,562123,Nelamangala,BANGALORE RURAL,KARNATAKA
521115,Bettahalli,Mandigere B.O,,,562123,Nelamangala,BANGALORE RURAL,KARNATAKA
521116,Chowdasandra,Honnasandra B.O,,,562123,Nelamangala,BANGALORE RURAL,KARNATAKA
521117,Honnarayanahalli,Madalakote B.O,,,562123,Nelamangala,BANGALORE RURAL,KARNATAKA
521118,Jakkanahalli,Jakkanahalli B.O,,,562123,Nelamangala,BANGALORE RURAL,KARNATAKA
521119,Kachanahalli,Budihal B.O,,,562123,Nelamangala,BANGALORE RURAL,KARNATAKA
521120,Kadukarenahalli,Mahadevapura B.O,,,562123,Nelamangala,BANGALORE RURAL,KARNATAKA
521121,Mahadevapura,Mahadevapura B.O,,,562123,Nelamangala,BANGALORE RURAL,KARNATAKA
521122,Viraraghuvanapalya,Nelamangala S.O,,,562123,Nelamangala,BANGALORE RURAL,KARNATAKA
521123,Yeramanchanahalli,Teppadabeguru B.O,,,562123,Nelamangala,BANGALORE RURAL,KARNATAKA
521124,Arjunabettahalli,Gollahalli B.O,,,562123,Nelamangala,BANGALORE RURAL,KARNATAKA
521125,Chikkanahalli,Mandigere B.O,,,562123,Nelamangala,BANGALORE RURAL,KARNATAKA
521126,Chikmaranahalli,Mahadevapura B.O,,,562123,Nelamangala,BANGALORE RURAL,KARNATAKA
521127,Gollahalli,Gollahalli B.O,,,562123,Nelamangala,BANGALORE RURAL,KARNATAKA
521128,Honnasandra,Honnasandra B.O,,,562123,Nelamangala,BANGALORE RURAL,KARNATAKA
521129,Jakkenahalli,Jakkanahalli B.O,,,562123,Dod Ballapur,BANGALORE RURAL,KARNATAKA
521130,Kanugondanahalli,Teppadabeguru B.O,,,562123,Nelamangala,BANGALORE RURAL,KARNATAKA
521131,Krishnarajapalya,Jakkanahalli B.O,,,562123,Nelamangala,BANGALORE RURAL,KARNATAKA
521132,Madalakote,Madalakote B.O,,,562123,Nelamangala,BANGALORE RURAL,KARNATAKA
521133,Minnapura,Jakkanahalli B.O,,,562123,Nelamangala,BANGALORE RURAL,KARNATAKA
521134,Narasimanapalya,Yentiganahalli B.O,,,562123,Nelamangala,BANGALORE RURAL,KARNATAKA
521135,Pillahalli,Arasinakunte B.O,,,562123,Bangalore North,BANGALORE,KARNATAKA
521136,Srinivasapura,Yentiganahalli B.O,,,562123,Nelamangala,BANGALORE RURAL,KARNATAKA
521137,Totagere,Gollahalli B.O,,,562123,Bangalore North,BANGALORE,KARNATAKA
521138,Tyagadahalli,Mandigere B.O,,,562123,Nelamangala,BANGALORE RURAL,KARNATAKA
521139,Bhattarahalli,Yentiganahalli B.O,,,562123,Nelamangala,BANGALORE RURAL,KARNATAKA
521140,Bommanahalli,Budihal B.O,,,562123,Nelamangala,BANGALORE RURAL,KARNATAKA
521141,Byadarahalli,Nelamangala S.O,,,562123,Nelamangala,BANGALORE RURAL,KARNATAKA
521142,Geddalahalli,Madalakote B.O,,,562123,Nelamangala,BANGALORE RURAL,KARNATAKA
521143,Kodappanahalli,Mallarabanavadi B.O,,,562123,Nelamangala,BANGALORE RURAL,KARNATAKA
521144,Koratagere,Yentiganahalli B.O,,,562123,Nelamangala,BANGALORE RURAL,KARNATAKA
521145,Narayanappana Palya,Mylanahalli B.O,,,562123,Bangalore North,BANGALORE,KARNATAKA
521146,Narayanaraopalya,Mylanahalli B.O,,,562123,Nelamangala,BANGALORE RURAL,KARNATAKA
521147,Virananjipura,Budihal B.O,,,562123,Nelamangala,BANGALORE RURAL,KARNATAKA
521148,Agasarahalli,Teppadabeguru B.O,,,562123,Nelamangala,BANGALORE RURAL,KARNATAKA
521149,Balaguruvanapalya,Mahadevapura B.O,,,562123,Nelamangala,BANGALORE RURAL,KARNATAKA
521150,Bhoosandra,Mahadevapura B.O,,,562123,Nelamangala,BANGALORE RURAL,KARNATAKA
521151,Bolamaranahalli,Mandigere B.O,,,562123,Nelamangala,BANGALORE RURAL,KARNATAKA
521152,Byadarahalli,Teppadabeguru B.O,,,562123,Nelamangala,BANGALORE RURAL,KARNATAKA
521153,Deganahalli,Budihal B.O,,,562123,Nelamangala,BANGALORE RURAL,KARNATAKA
521154,Ghandragulupura,Nelamangala S.O,,,562123,Nelamangala,BANGALORE RURAL,KARNATAKA
521155,Gorinabele,Teppadabeguru B.O,,,562123,Nelamangala,BANGALORE RURAL,KARNATAKA
521156,Koolipura,Nelamangala S.O,,,562123,Nelamangala,BANGALORE RURAL,KARNATAKA
521157,Krishnarajapura,Teppadabeguru B.O,,,562123,Nelamangala,BANGALORE RURAL,KARNATAKA
521158,Malonagathihalli,Teppadabeguru B.O,,,562123,Nelamangala,BANGALORE RURAL,KARNATAKA
521159,T.Begur,Teppadabeguru B.O,,,562123,Nelamangala,BANGALORE RURAL,KARNATAKA
521160,Vajarahalli,Nelamangala S.O,,,562123,Nelamangala,BANGALORE RURAL,KARNATAKA
521161,Yentiganahalli,Yentiganahalli B.O,,,562123,Nelamangala,BANGALORE RURAL,KARNATAKA
521162,B.Hosahalli,Handenahalli B.O,,,562125,Anekal,BANGALORE,KARNATAKA
521163,Chambenahalli,Dommasandra B.O,,,562125,Anekal,BANGALORE,KARNATAKA
521164,Doddathimmasandra,Sarjapura S.O,,,562125,Anekal,BANGALORE,KARNATAKA
521165,Gonighattapura,Neriga B.O,,,562125,Anekal,BANGALORE,KARNATAKA
521166,Thindlu,Sarjapura S.O,,,562125,Anekal,BANGALORE,KARNATAKA
521167,Banahalli,Kugur B.O,,,562125,Anekal,BANGALORE,KARNATAKA
521168,Chikkadasarahalli,Kugur B.O,,,562125,Anekal,BANGALORE,KARNATAKA
521169,Gonighattapura,Kugur B.O,,,562125,Anekal,BANGALORE,KARNATAKA
521170,Kadagrahara,Dommasandra B.O,,,562125,Anekal,BANGALORE,KARNATAKA
521171,Panditana Agrahara,Kugur B.O,,,562125,Anekal,BANGALORE,KARNATAKA
521172,Bikkanahalli,Handenahalli B.O,,,562125,Anekal,BANGALORE,KARNATAKA
521173,Dommasandra,Dommasandra B.O,,,562125,Anekal,BANGALORE,KARNATAKA
521174,Kommasandra,Dommasandra B.O,,,562125,Anekal,BANGALORE,KARNATAKA
521175,Kuthaganahalli,Kugur B.O,,,562125,Anekal,BANGALORE,KARNATAKA
521176,Kuthaganahalli,Neriga B.O,,,562125,Anekal,BANGALORE,KARNATAKA
521177,Sarjapura,Sarjapura S.O,,,562125,Anekal,BANGALORE,KARNATAKA
521178,Yamare,Dommasandra B.O,,,562125,Anekal,BANGALORE,KARNATAKA
521179,Buragunte,Sarjapura S.O,,,562125,Anekal,BANGALORE,KARNATAKA
521180,Gudighattanahalli,Sarjapura S.O,,,562125,Anekal,BANGALORE,KARNATAKA
521181,Handenahalli,Handenahalli B.O,,,562125,Anekal,BANGALORE,KARNATAKA
521182,Ittangur,Sarjapura S.O,,,562125,Anekal,BANGALORE,KARNATAKA
521183,Kathriguppe,Kugur B.O,,,562125,Anekal,BANGALORE,KARNATAKA
521184,Kathriguppe,Neriga B.O,,,562125,Anekal,BANGALORE,KARNATAKA
521185,Neriga,Neriga B.O,,,562125,Anekal,BANGALORE,KARNATAKA
521186,Chikkadasarahalli,Neriga B.O,,,562125,Anekal,BANGALORE,KARNATAKA
521187,Kamanahalli,Kugur B.O,,,562125,Anekal,BANGALORE,KARNATAKA
521188,Kugur,Kugur B.O,,,562125,Anekal,BANGALORE,KARNATAKA
521189,Sompura,Sarjapura S.O,,,562125,Anekal,BANGALORE,KARNATAKA
521190,Thigala Chowdadenahalli,Dommasandra B.O,,,562125,Anekal,BANGALORE,KARNATAKA
521191,Billapura,Sarjapura S.O,,,562125,Anekal,BANGALORE,KARNATAKA
521192,Mahal Chowdadenahalli,Sarjapura S.O,,,562125,Anekal,BANGALORE,KARNATAKA
521193,Neriga,Kugur B.O,,,562125,Anekal,BANGALORE,KARNATAKA
521194,Sollepura,Handenahalli B.O,,,562125,Anekal,BANGALORE,KARNATAKA
521195,Kamanahalli,Neriga B.O,,,562125,Anekal,BANGALORE,KARNATAKA
521196,Kotiganahalli,Handenahalli B.O,,,562125,Anekal,BANGALORE,KARNATAKA
521197,Mattanahalli,Sarjapura S.O,,,562125,Anekal,BANGALORE,KARNATAKA
521198,Mugalur,Kugur B.O,,,562125,Anekal,BANGALORE,KARNATAKA
521199,Seeganaikanahalli,Kugur B.O,,,562125,Anekal,BANGALORE,KARNATAKA
521200,Sulikunte,Dommasandra B.O,,,562125,Bangalore South,BANGALORE,KARNATAKA
521201,Volagerekallahalli,Sarjapura S.O,,,562125,Anekal,BANGALORE,KARNATAKA
521220,Goravihalli,Attihalli B.O,,,562126,Hosakote,BANGALORE RURAL,KARNATAKA
521388,Avalakuppe,Motagondanahalli B.O,,,562127,Nelamangala,BANGALORE RURAL,KARNATAKA
521440,Vadahalli,Manchanabele B.O,,,562128,Bangalore South,BANGALORE,KARNATAKA
521454,Balenahalli,Bendiganahalli B.O,,,562129,Hosakote,BANGALORE RURAL,KARNATAKA
521455,Bandaramanahalli,Budigere B.O,,,562129,Devanahalli,BANGALORE RURAL,KARNATAKA
521456,Doddaralagere,Bendiganahalli B.O,,,562129,Hosakote,BANGALORE RURAL,KARNATAKA
521457,Dyavasandra,Bendiganahalli B.O,,,562129,Hosakote,BANGALORE RURAL,KARNATAKA
521458,Kasba Plantation,Sulebele S.O,,,562129,Devanahalli,BANGALORE RURAL,KARNATAKA
521459,Maradiane,Ibasapura B.O,,,562129,Devanahalli,BANGALORE RURAL,KARNATAKA
521460,Thammarasanahalli,Bendiganahalli B.O,,,562129,Hosakote,BANGALORE RURAL,KARNATAKA
521461,Thimmappanahalli,Bendiganahalli B.O,,,562129,Hosakote,BANGALORE RURAL,KARNATAKA
521462,Varadenahalli,Ibasapura B.O,,,562129,Devanahalli,BANGALORE RURAL,KARNATAKA
521463,Agalakote,Bettakote B.O,,,562129,Devanahalli,BANGALORE RURAL,KARNATAKA
521464,Bathiganahalli,Sulebele S.O,,,562129,Hosakote,BANGALORE RURAL,KARNATAKA
521465,Chikkakurubarahalli,Bendiganahalli B.O,,,562129,Hosakote,BANGALORE RURAL,KARNATAKA
521466,Giddappanahalli,Sulebele S.O,,,562129,Hosakote,BANGALORE RURAL,KARNATAKA
521467,Ibasapura,Ibasapura B.O,,,562129,Devanahalli,BANGALORE RURAL,KARNATAKA
521468,Jonnahalli,Reddihalli B.O,,,562129,Devanahalli,BANGALORE RURAL,KARNATAKA
521469,Kachipura,Sulebele S.O,,,562129,Devanahalli,BANGALORE RURAL,KARNATAKA
521470,Kachipuradakambada Beedu,Sulebele S.O,,,562129,Hosakote,BANGALORE RURAL,KARNATAKA
521471,Papanahalli,Ibasapura B.O,,,562129,Devanahalli,BANGALORE RURAL,KARNATAKA
521472,Gollahalli,Budigere B.O,,,562129,Bangalore North,BANGALORE,KARNATAKA
521473,Gopasandra,Ibasapura B.O,,,562129,Devanahalli,BANGALORE RURAL,KARNATAKA
521474,Handrahalli,Budigere B.O,,,562129,Devanahalli,BANGALORE RURAL,KARNATAKA
521475,Kadaranapura,Sulebele S.O,,,562129,Hosakote,BANGALORE RURAL,KARNATAKA
521476,Mallepura,Reddihalli B.O,,,562129,Devanahalli,BANGALORE RURAL,KARNATAKA
521477,Nallaganahalli,Sulebele S.O,,,562129,Hosakote,BANGALORE RURAL,KARNATAKA
521478,Nallappanahalli,Reddihalli B.O,,,562129,Devanahalli,BANGALORE RURAL,KARNATAKA
521479,Shantanapura,Sulebele S.O,,,562129,Hosakote,BANGALORE RURAL,KARNATAKA
521480,Akkalenahalli Mallena - Halli,Sulebele S.O,,,562129,Devanahalli,BANGALORE RURAL,KARNATAKA
521481,Ankonahalli,Sulebele S.O,,,562129,Hosakote,BANGALORE RURAL,KARNATAKA
521482,Balepura,Reddihalli B.O,,,562129,Devanahalli,BANGALORE RURAL,KARNATAKA
521483,Bidalapura Amanikere,Reddihalli B.O,,,562129,Devanahalli,BANGALORE RURAL,KARNATAKA
521484,Channahalli,Bettakote B.O,,,562129,Devanahalli,BANGALORE RURAL,KARNATAKA
521485,Devanayakanahalli,Reddihalli B.O,,,562129,Devanahalli,BANGALORE RURAL,KARNATAKA
521486,Doddaharadi Plantation,Bendiganahalli B.O,,,562129,Hosakote,BANGALORE RURAL,KARNATAKA
521487,Imanahalli,Bendiganahalli B.O,,,562129,Hosakote,BANGALORE RURAL,KARNATAKA
521488,Kondenahalli,Budigere B.O,,,562129,Devanahalli,BANGALORE RURAL,KARNATAKA
521489,Manchappanahosahalli,Budigere B.O,,,562129,Bangalore North,BANGALORE,KARNATAKA
521490,Nallur,Reddihalli B.O,,,562129,Devanahalli,BANGALORE RURAL,KARNATAKA
521491,Theneyur,Bendiganahalli B.O,,,562129,Hosakote,BANGALORE RURAL,KARNATAKA
521492,Arasanahalli,Sulebele S.O,,,562129,Hosakote,BANGALORE RURAL,KARNATAKA
521493,Baladimmanahalli,Bettakote B.O,,,562129,Devanahalli,BANGALORE RURAL,KARNATAKA
521494,Bettakote,Bettakote B.O,,,562129,Devanahalli,BANGALORE RURAL,KARNATAKA
521495,Bettakote Amanikere,Bettakote B.O,,,562129,Devanahalli,BANGALORE RURAL,KARNATAKA
521496,Bidalapura,Reddihalli B.O,,,562129,Devanahalli,BANGALORE RURAL,KARNATAKA
521497,Budigere Amanikere,Budigere B.O,,,562129,Devanahalli,BANGALORE RURAL,KARNATAKA
521498,Challamakunte,Budigere B.O,,,562129,Bangalore North,BANGALORE,KARNATAKA
521499,Reddihalli,Reddihalli B.O,,,562129,Devanahalli,BANGALORE RURAL,KARNATAKA
521500,Siddanahalli,Sulebele S.O,,,562129,Hosakote,BANGALORE RURAL,KARNATAKA
521501,Anupahalli,Bendiganahalli B.O,,,562129,Hosakote,BANGALORE RURAL,KARNATAKA
521502,Arebinnamangala,Budigere B.O,,,562129,Bangalore North,BANGALORE,KARNATAKA
521503,Chikkaralagere,Bendiganahalli B.O,,,562129,Hosakote,BANGALORE RURAL,KARNATAKA
521504,Chinnathimmanagolla Halli,Budigere B.O,,,562129,Hosakote,BANGALORE RURAL,KARNATAKA
521505,Kaggalahalli,Budigere B.O,,,562129,Devanahalli,BANGALORE RURAL,KARNATAKA
521506,Nallur Amari,Reddihalli B.O,,,562129,Devanahalli,BANGALORE RURAL,KARNATAKA
521507,Somathanahalli,Reddihalli B.O,,,562129,Devanahalli,BANGALORE RURAL,KARNATAKA
521508,Aralagere Amanikere,Bendiganahalli B.O,,,562129,Hosakote,BANGALORE RURAL,KARNATAKA
521509,Arasinakunte,Reddihalli B.O,,,562129,Devanahalli,BANGALORE RURAL,KARNATAKA
521510,Budigere,Budigere B.O,,,562129,Devanahalli,BANGALORE RURAL,KARNATAKA
521511,Chikka Amanikere,Bendiganahalli B.O,,,562129,Hosakote,BANGALORE RURAL,KARNATAKA
521512,Hosahardi,Bendiganahalli B.O,,,562129,Hosakote,BANGALORE RURAL,KARNATAKA
521513,Konaginabele,Ibasapura B.O,,,562129,Devanahalli,BANGALORE RURAL,KARNATAKA
521514,Mallenahalli,Reddihalli B.O,,,562129,Devanahalli,BANGALORE RURAL,KARNATAKA
521515,Ramapura,Sulebele S.O,,,562129,Hosakote,BANGALORE RURAL,KARNATAKA
521516,Sashimakanahalli,Bendiganahalli B.O,,,562129,Hosakote,BANGALORE RURAL,KARNATAKA
521517,Sulibele,Sulebele S.O,,,562129,Hosakote,BANGALORE RURAL,KARNATAKA
521518,Thammarayasandra Agrahara,Bendiganahalli B.O,,,562129,Hosakote,BANGALORE RURAL,KARNATAKA
521519,Attibele,Sulebele S.O,,,562129,Hosakote,BANGALORE RURAL,KARNATAKA
521520,Bendiganahalli,Bendiganahalli B.O,,,562129,Hosakote,BANGALORE RURAL,KARNATAKA
521521,Bettahalli,Sulebele S.O,,,562129,Hosakote,BANGALORE RURAL,KARNATAKA
521522,Bhatramarenahalli,Budigere B.O,,,562129,Devanahalli,BANGALORE RURAL,KARNATAKA
521523,Cheemasandra,Bendiganahalli B.O,,,562129,Hosakote,BANGALORE RURAL,KARNATAKA
521524,Doddakurubarahalli,Ibasapura B.O,,,562129,Devanahalli,BANGALORE RURAL,KARNATAKA
521525,Esthur Hosahalli,Bendiganahalli B.O,,,562129,Hosakote,BANGALORE RURAL,KARNATAKA
521526,Gangavara Chowdappana Halli,Budigere B.O,,,562129,Devanahalli,BANGALORE RURAL,KARNATAKA
521527,Kodipura,Sulebele S.O,,,562129,Hosakote,BANGALORE RURAL,KARNATAKA
521528,Singahalli,Budigere B.O,,,562129,Bangalore North,BANGALORE,KARNATAKA
521529,Venkateshapura,Sulebele S.O,,,562129,Hosakote,BANGALORE RURAL,KARNATAKA
521530,Byandahalli,Kadabagere B.O,,,562130,Bangalore North,BANGALORE,KARNATAKA
521531,Devamachohalli,Tavarekere S.O (Bangalore),,,562130,Bangalore South,BANGALORE,KARNATAKA
521532,Kethohalli,Chunchanakuppe B.O,,,562130,Bangalore South,BANGALORE,KARNATAKA
521533,Puradapalya,Tavarekere S.O (Bangalore),,,562130,Bangalore South,BANGALORE,KARNATAKA
521534,Doddamaranahalli,Chunchanakuppe B.O,,,562130,Bangalore South,BANGALORE,KARNATAKA
521535,Kurubarapalya,Chunchanakuppe B.O,,,562130,Bangalore South,BANGALORE,KARNATAKA
521536,Mantanakurchi,Sondekoppa B.O,,,562130,Nelamangala,BANGALORE RURAL,KARNATAKA
521537,Ravuthanahalli,Kithanahalli B.O,,,562130,Bangalore North,BANGALORE,KARNATAKA
521538,Seegehalli,Kadabagere B.O,,,562130,Bangalore South,BANGALORE,KARNATAKA
521539,Banasavadi,Soladevanahalli B.O,,,562130,Nelamangala,BANGALORE RURAL,KARNATAKA
521540,Ganakal,Tavarekere S.O (Bangalore),,,562130,Bangalore South,BANGALORE,KARNATAKA
521541,Kethohalli Ramapura,Chunchanakuppe B.O,,,562130,Bangalore South,BANGALORE,KARNATAKA
521542,Kittana Halli,Kithanahalli B.O,,,562130,Bangalore North,BANGALORE,KARNATAKA
521543,Mallasandra,Sondekoppa B.O,,,562130,Bangalore South,BANGALORE,KARNATAKA
521544,Sondekoppa,Sondekoppa B.O,,,562130,Bangalore North,BANGALORE,KARNATAKA
521545,Bychaguppe,Tavarekere S.O (Bangalore),,,562130,Bangalore South,BANGALORE,KARNATAKA
521546,Donnenahalli,Chikkanahalli B.O,,,562130,Bangalore South,BANGALORE,KARNATAKA
521547,Ganapathihalli,Chunchanakuppe B.O,,,562130,Bangalore South,BANGALORE,KARNATAKA
521548,Gangenahalli,Tavarekere S.O (Bangalore),,,562130,Bangalore South,BANGALORE,KARNATAKA
521549,Gollahalli,Chikkanahalli B.O,,,562130,Bangalore South,BANGALORE,KARNATAKA
521550,Honniganahatti,Tavarekere S.O (Bangalore),,,562130,Bangalore South,BANGALORE,KARNATAKA
521551,Jogerahalli,Tavarekere S.O (Bangalore),,,562130,Bangalore South,BANGALORE,KARNATAKA
521552,K.Kempalinganahalli,Sondekoppa B.O,,,562130,Nelamangala,BANGALORE RURAL,KARNATAKA
521553,Kadabagere,Kadabagere B.O,,,562130,Bangalore North,BANGALORE,KARNATAKA
521554,Madapatna,Chunchanakuppe B.O,,,562130,Bangalore South,BANGALORE,KARNATAKA
521555,Soladevanahalli,Soladevanahalli B.O,,,562130,Nelamangala,BANGALORE RURAL,KARNATAKA
521556,Yalachaguppe Ramapura,Soladevanahalli B.O,,,562130,Bangalore South,BANGALORE,KARNATAKA
521557,Yelachaguppe,Tavarekere S.O (Bangalore),,,562130,Bangalore South,BANGALORE,KARNATAKA
521558,Bettahalli,Kadabagere B.O,,,562130,Bangalore North,BANGALORE,KARNATAKA
521559,Byalalu,Chunchanakuppe B.O,,,562130,Bangalore South,BANGALORE,KARNATAKA
521560,Chikkanahalli,Chikkanahalli B.O,,,562130,Bangalore South,BANGALORE,KARNATAKA
521561,Huluvenahalli,Chunchanakuppe B.O,,,562130,Bangalore South,BANGALORE,KARNATAKA
521562,Kethohalli Narasimhapura,Chunchanakuppe B.O,,,562130,Bangalore South,BANGALORE,KARNATAKA
521563,Lakkenahalli,Sondekoppa B.O,,,562130,Bangalore North,BANGALORE,KARNATAKA
521564,Channenahalli,Kadabagere B.O,,,562130,Bangalore South,BANGALORE,KARNATAKA
521565,Chunchanakuppe,Chunchanakuppe B.O,,,562130,Bangalore South,BANGALORE,KARNATAKA
521566,Devamachahalli Narayanapura,Tavarekere S.O (Bangalore),,,562130,Bangalore South,BANGALORE,KARNATAKA
521567,Giddenahalli,Kadabagere B.O,,,562130,Bangalore North,BANGALORE,KARNATAKA
521568,Nagasandra,Sondekoppa B.O,,,562130,Bangalore North,BANGALORE,KARNATAKA
521569,Sulivara,Chikkanahalli B.O,,,562130,Bangalore South,BANGALORE,KARNATAKA
521570,Tavarekere,Tavarekere S.O (Bangalore),,,562130,Bangalore South,BANGALORE,KARNATAKA
521571,Vaddarahalli,Kadabagere B.O,,,562130,Bangalore North,BANGALORE,KARNATAKA
521572,Ajjanahalli,Chunchanakuppe B.O,,,562130,Bangalore South,BANGALORE,KARNATAKA
521573,Bolamaranahalli,Sondekoppa B.O,,,562130,Nelamangala,BANGALORE RURAL,KARNATAKA
521574,Dodderi,Chikkanahalli B.O,,,562130,Bangalore South,BANGALORE,KARNATAKA
521575,Kanuvanahalli,Soladevanahalli B.O,,,562130,Nelamangala,BANGALORE RURAL,KARNATAKA
521576,Muddaiahnapalya,Chunchanakuppe B.O,,,562130,Bangalore South,BANGALORE,KARNATAKA
521577,Punagumaranahalli,Chunchanakuppe B.O,,,562130,Bangalore South,BANGALORE,KARNATAKA
521578,Sulivara Ramapura,Chikkanahalli B.O,,,562130,Bangalore South,BANGALORE,KARNATAKA
521579,Varthur,Tavarekere S.O (Bangalore),,,562130,Bangalore South,BANGALORE,KARNATAKA
521580,Gollarapalya,Sondekoppa B.O,,,562130,Bangalore North,BANGALORE,KARNATAKA
521581,Hunnigere,Sondekoppa B.O,,,562130,Bangalore North,BANGALORE,KARNATAKA
521582,Kurubarahalli,Tavarekere S.O (Bangalore),,,562130,Bangalore South,BANGALORE,KARNATAKA
521583,Mallasandra,Sondekoppa B.O,,,562130,Bangalore North,BANGALORE,KARNATAKA
521584,Peddanapalya,Tavarekere S.O (Bangalore),,,562130,Bangalore South,BANGALORE,KARNATAKA
521629,Dasenahalli,Niduvanda B.O,,,562132,Nelamangala,BANGALORE RURAL,KARNATAKA
521630,Karehalli,Obalapura B.O,,,562132,Nelamangala,BANGALORE RURAL,KARNATAKA
521631,Manne,Manne B.O,,,562132,Nelamangala,BANGALORE RURAL,KARNATAKA
521632,Tadasigatta,Doddabele B.O,,,562132,Nelamangala,BANGALORE RURAL,KARNATAKA
521633,Thippasettihalli,Tyamagondlu S.O,,,562132,Nelamangala,BANGALORE RURAL,KARNATAKA
521634,Vadakunte,Doddabele B.O,,,562132,Nelamangala,BANGALORE RURAL,KARNATAKA
521635,Isuvanahalli,Doddabele B.O,,,562132,Nelamangala,BANGALORE RURAL,KARNATAKA
521636,Kenchanapura,Doddabele B.O,,,562132,Nelamangala,BANGALORE RURAL,KARNATAKA
521637,Kodigehalli,Doddabele B.O,,,562132,Nelamangala,BANGALORE RURAL,KARNATAKA
521638,Nimbenahalli,Doddabele B.O,,,562132,Nelamangala,BANGALORE RURAL,KARNATAKA
521639,Kannohalli,Manne B.O,,,562132,Nelamangala,BANGALORE RURAL,KARNATAKA
521640,Somasagara,Manne B.O,,,562132,Nelamangala,BANGALORE RURAL,KARNATAKA
521641,Appagondanahalli,Manne B.O,,,562132,Nelamangala,BANGALORE RURAL,KARNATAKA
521642,Bidalur,Kollalagatta B.O,,,562132,Nelamangala,BANGALORE RURAL,KARNATAKA
521643,Byranaikanahalli,Doddabele B.O,,,562132,Nelamangala,BANGALORE RURAL,KARNATAKA
521644,Doddachannohalli,Obalapura B.O,,,562132,Nelamangala,BANGALORE RURAL,KARNATAKA
521645,Gulapura,Doddabele B.O,,,562132,Nelamangala,BANGALORE RURAL,KARNATAKA
521646,Mannerampura,Manne B.O,,,562132,Nelamangala,BANGALORE RURAL,KARNATAKA
521647,Muddalinganahalli,Manne B.O,,,562132,Nelamangala,BANGALORE RURAL,KARNATAKA
521648,Thyamagondlu,Tyamagondlu S.O,,,562132,Nelamangala,BANGALORE RURAL,KARNATAKA
521649,Thyamagondlu Amanikere,Tyamagondlu S.O,,,562132,Nelamangala,BANGALORE RURAL,KARNATAKA
521650,Adihosahalli,Obalapura B.O,,,562132,Nelamangala,BANGALORE RURAL,KARNATAKA
521651,Ballagere,Doddabele B.O,,,562132,Nelamangala,BANGALORE RURAL,KARNATAKA
521652,Harvesandra,Kollalagatta B.O,,,562132,Nelamangala,BANGALORE RURAL,KARNATAKA
521653,Krishnarajapura,Obalapura B.O,,,562132,Nelamangala,BANGALORE RURAL,KARNATAKA
521654,Lakkappanahalli,Doddabele B.O,,,562132,Nelamangala,BANGALORE RURAL,KARNATAKA
521655,Obalapura,Obalapura B.O,,,562132,Nelamangala,BANGALORE RURAL,KARNATAKA
521656,Karenahalli,Obalapura B.O,,,562132,Nelamangala,BANGALORE RURAL,KARNATAKA
521657,Kodihalli,Kollalagatta B.O,,,562132,Nelamangala,BANGALORE RURAL,KARNATAKA
521658,Sirganahalli,Manne B.O,,,562132,Nelamangala,BANGALORE RURAL,KARNATAKA
521659,Thattekere,Niduvanda B.O,,,562132,Nelamangala,BANGALORE RURAL,KARNATAKA
521660,Doddabele,Doddabele B.O,,,562132,Nelamangala,BANGALORE RURAL,KARNATAKA
521661,Gundenahalli,Kollalagatta B.O,,,562132,Nelamangala,BANGALORE RURAL,KARNATAKA
521662,Kalalghatta,Kollalagatta B.O,,,562132,Nelamangala,BANGALORE RURAL,KARNATAKA
521663,Makanakuppe,Niduvanda B.O,,,562132,Nelamangala,BANGALORE RURAL,KARNATAKA
521664,Mavinakommenahalli,Doddabele B.O,,,562132,Nelamangala,BANGALORE RURAL,KARNATAKA
521665,Vaddarapalya,Doddabele B.O,,,562132,Nelamangala,BANGALORE RURAL,KARNATAKA
521666,Lakshmanapura,Niduvanda B.O,,,562132,Nelamangala,BANGALORE RURAL,KARNATAKA
521667,Nidavanda,Niduvanda B.O,,,562132,Nelamangala,BANGALORE RURAL,KARNATAKA
521668,Tavarekere,Obalapura B.O,,,562132,Nelamangala,BANGALORE RURAL,KARNATAKA
521669,Bediganahalli,Channarayapatna B.O,,,562135,Devanahalli,BANGALORE RURAL,KARNATAKA
521670,Cheemachanahalli,Channarayapatna B.O,,,562135,Devanahalli,BANGALORE RURAL,KARNATAKA
521671,Dharmapura,Mandibele B.O,,,562135,Devanahalli,BANGALORE RURAL,KARNATAKA
521672,Pura,Vijayapaura S.O,,,562135,Devanahalli,BANGALORE RURAL,KARNATAKA
521673,Shettahalli,Vijayapaura S.O,,,562135,Devanahalli,BANGALORE RURAL,KARNATAKA
521674,Vijayapura,Vijayapaura S.O,,,562135,Hosakote,BANGALORE RURAL,KARNATAKA
521675,Chinnappanayakana Hosur,Narayanapura B.O,,,562135,Devanahalli,BANGALORE RURAL,KARNATAKA
521676,Dodda Thattamangala,Mandibele B.O,,,562135,Devanahalli,BANGALORE RURAL,KARNATAKA
521677,Gonur,Narayanapura B.O,,,562135,Devanahalli,BANGALORE RURAL,KARNATAKA
521678,Muddenahalli,Channarayapatna B.O,,,562135,Devanahalli,BANGALORE RURAL,KARNATAKA
521679,Mandibele,Mandibele B.O,,,562135,Devanahalli,BANGALORE RURAL,KARNATAKA
521680,Narayanapura,Narayanapura B.O,,,562135,Devanahalli,BANGALORE RURAL,KARNATAKA
521681,Polanahalli,Channarayapatna B.O,,,562135,Devanahalli,BANGALORE RURAL,KARNATAKA
521682,Ranganathapura,Channarayapatna B.O,,,562135,Devanahalli,BANGALORE RURAL,KARNATAKA
521683,Sambaragiddada Kavalu,Narayanapura B.O,,,562135,Devanahalli,BANGALORE RURAL,KARNATAKA
521684,Chikkenahalli,Vijayapaura S.O,,,562135,Devanahalli,BANGALORE RURAL,KARNATAKA
521685,Hyadala,Channarayapatna B.O,,,562135,Devanahalli,BANGALORE RURAL,KARNATAKA
521686,Pura,Vijayapaura S.O,,,562135,Dod Ballapur,BANGALORE RURAL,KARNATAKA
521687,Yaluvahalli,Vijayapaura S.O,,,562135,Devanahalli,BANGALORE RURAL,KARNATAKA
521688,Chandenahalli,Vijayapaura S.O,,,562135,Devanahalli,BANGALORE RURAL,KARNATAKA
521689,Dandiganahalli,Harohalli B.O,,,562135,Devanahalli,BANGALORE RURAL,KARNATAKA
521690,Gaddadanagenahalli,Mandibele B.O,,,562135,Devanahalli,BANGALORE RURAL,KARNATAKA
521691,Gejjaguppe,Mandibele B.O,,,562135,Devanahalli,BANGALORE RURAL,KARNATAKA
521692,Harohalli,Harohalli B.O,,,562135,Devanahalli,BANGALORE RURAL,KARNATAKA
521693,Iregenahalli,Channarayapatna B.O,,,562135,Nelamangala,BANGALORE RURAL,KARNATAKA
521694,Naganayakanahalli,Channarayapatna B.O,,,562135,Devanahalli,BANGALORE RURAL,KARNATAKA
521695,Venkatenahalli,Vijayapaura S.O,,,562135,Devanahalli,BANGALORE RURAL,KARNATAKA
521696,Bullahalli,Harohalli B.O,,,562135,Devanahalli,BANGALORE RURAL,KARNATAKA
521697,Channarayapatna Amanikere,Channarayapatna B.O,,,562135,Devanahalli,BANGALORE RURAL,KARNATAKA
521698,Chikkanahalli,Vijayapaura S.O,,,562135,Devanahalli,BANGALORE RURAL,KARNATAKA
521699,Hosathota,Vijayapaura S.O,,,562135,Devanahalli,BANGALORE RURAL,KARNATAKA
521700,Kavadedasarahalli,Channarayapatna B.O,,,562135,Devanahalli,BANGALORE RURAL,KARNATAKA
521701,Vijayapura Amanikere,Vijayapaura S.O,,,562135,Devanahalli,BANGALORE RURAL,KARNATAKA
521702,Byrapura,Harohalli B.O,,,562135,Devanahalli,BANGALORE RURAL,KARNATAKA
521703,Channarayapatna,Channarayapatna B.O,,,562135,Devanahalli,BANGALORE RURAL,KARNATAKA
521704,Gollahalli,Narayanapura B.O,,,562135,Devanahalli,BANGALORE RURAL,KARNATAKA
521705,Kommasandra,Vijayapaura S.O,,,562135,Devanahalli,BANGALORE RURAL,KARNATAKA
521706,Chikka Thattamangala,Mandibele B.O,,,562135,Devanahalli,BANGALORE RURAL,KARNATAKA
521707,Gudla Muddenahalli,Narayanapura B.O,,,562135,Devanahalli,BANGALORE RURAL,KARNATAKA
521764,Bellahalli bande,Kannur B.O,,,562149,Bangalore South,BANGALORE,KARNATAKA
521765,Chikkanahalli,Bandikodigehalli B.O,,,562149,Bangalore North,BANGALORE,KARNATAKA
521766,Kadu Sonnapapnahalli Bande,Kannur B.O,,,562149,Bangalore South,BANGALORE,KARNATAKA
521767,Kadusonnappanahalli,Kannur B.O,,,562149,Bangalore South,BANGALORE,KARNATAKA
521768,Marenahalli cross,Kannur B.O,,,562149,Bangalore South,BANGALORE,KARNATAKA
521769,Mittaganahalli,Kannur B.O,,,562149,Bangalore South,BANGALORE,KARNATAKA
521770,Bandi Kodige Halli,Bandikodigehalli B.O,,,562149,Bangalore North,BANGALORE,KARNATAKA
521771,Dasanayakanahalli,Bagalur S.O (Bangalore),,,562149,Bangalore North,BANGALORE,KARNATAKA
521772,Gopalapura,Bagalur S.O (Bangalore),,,562149,Bangalore North,BANGALORE,KARNATAKA
521773,Mahadevakodigehalli,Bandikodigehalli B.O,,,562149,Bangalore North,BANGALORE,KARNATAKA
521774,Bandi Kodigehalli Palya,Bandikodigehalli B.O,,,562149,Bangalore North,BANGALORE,KARNATAKA
521775,Chagalahatti,Bagalur S.O (Bangalore),,,562149,Bangalore North,BANGALORE,KARNATAKA
521776,Domlur,Bandikodigehalli B.O,,,562149,Bangalore North,BANGALORE,KARNATAKA
521777,Gummanahalli,Bagalur S.O (Bangalore),,,562149,Devanahalli,BANGALORE RURAL,KARNATAKA
521778,Kolipura,Bandikodigehalli B.O,,,562149,Bangalore North,BANGALORE,KARNATAKA
521779,Mylanahalli,Bandikodigehalli B.O,,,562149,Bangalore North,BANGALORE,KARNATAKA
521780,Bhavapura,Bandikodigehalli B.O,,,562149,Bangalore North,BANGALORE,KARNATAKA
521781,Kadayarappanahalli,Bandikodigehalli B.O,,,562149,Bangalore North,BANGALORE,KARNATAKA
521782,Kannur,Kannur B.O,,,562149,Bangalore South,BANGALORE,KARNATAKA
521783,Mittaganahalli bande,Kannur B.O,,,562149,Bangalore South,BANGALORE,KARNATAKA
521784,Sri Krishna Nagara,Kannur B.O,,,562149,Bangalore South,BANGALORE,KARNATAKA
521785,Arasinakunte,Bandikodigehalli B.O,,,562149,Bangalore North,BANGALORE,KARNATAKA
521786,Bandehosur,Kannur B.O,,,562149,Bangalore South,BANGALORE,KARNATAKA
521787,Bandikodegehalli Amanikere,Bandikodigehalli B.O,,,562149,Bangalore North,BANGALORE,KARNATAKA
521788,Begur,Bandikodigehalli B.O,,,562149,Bangalore North,BANGALORE,KARNATAKA
521789,Bagalur,Bagalur S.O (Bangalore),,,562149,Bangalore North,BANGALORE,KARNATAKA
521790,Maralakunte,Bagalur S.O (Bangalore),,,562149,Bangalore North,BANGALORE,KARNATAKA
521791,Marenahalli,Bagalur S.O (Bangalore),,,562149,Bangalore North,BANGALORE,KARNATAKA
521792,Srinivasapura,Bagalur S.O (Bangalore),,,562149,Bangalore North,BANGALORE,KARNATAKA
521793,Boilahalli,Bandikodigehalli B.O,,,562149,Bangalore North,BANGALORE,KARNATAKA
521794,Byrathibande,Kannur B.O,,,562149,Bangalore South,BANGALORE,KARNATAKA
521795,Hunsur,Bandikodigehalli B.O,,,562149,Bangalore North,BANGALORE,KARNATAKA
521796,Huvinayakanahalli,Bandikodigehalli B.O,,,562149,Bangalore North,BANGALORE,KARNATAKA
521797,Meesaganahalli,Bandikodigehalli B.O,,,562149,Bangalore North,BANGALORE,KARNATAKA
521798,Sathnur,Bagalur S.O (Bangalore),,,562149,Bangalore North,BANGALORE,KARNATAKA
521799,B.Nagara,Vidyanagara B.O,,,562157,Bangalore North,BANGALORE,KARNATAKA
521800,Chikkajala,Chikkajala B.O,,,562157,Bangalore North,BANGALORE,KARNATAKA
521801,Kathri Nivas,Vidyanagara B.O,,,562157,Bangalore North,BANGALORE,KARNATAKA
521802,Muthagada Halli,Doddajala B.O,,,562157,Bangalore North,BANGALORE,KARNATAKA
521803,Tarahunase,Tarahunise B.O,,,562157,Bangalore North,BANGALORE,KARNATAKA
521804,Thimmasandra,Tarahunise B.O,,,562157,Bangalore North,BANGALORE,KARNATAKA
521805,Ashraya,Vidyanagara B.O,,,562157,Bangalore North,BANGALORE,KARNATAKA
521806,Billamaranahalli,Vidyanagara B.O,,,562157,Bangalore North,BANGALORE,KARNATAKA
521807,Channahalli,Chikkajala B.O,,,562157,Bangalore North,BANGALORE,KARNATAKA
521808,Doddajala,Doddajala B.O,,,562157,Bangalore North,BANGALORE,KARNATAKA
521809,Doddajala Amanikere,Doddajala B.O,,,562157,Bangalore North,BANGALORE,KARNATAKA
521810,Hosahalli,Hunasamaranahalli B.O,,,562157,Bangalore North,BANGALORE,KARNATAKA
521811,HSM Star Plant,Vidyanagara B.O,,,562157,Bangalore North,BANGALORE,KARNATAKA
521812,Jaipura,Doddajala B.O,,,562157,Bangalore North,BANGALORE,KARNATAKA
521813,JPN COurt Center,Vidyanagara B.O,,,562157,Bangalore North,BANGALORE,KARNATAKA
521814,Kathri Public School,Vidyanagara B.O,,,562157,Bangalore North,BANGALORE,KARNATAKA
521815,SMVIT CRoss,Hunasamaranahalli B.O,,,562157,Bangalore North,BANGALORE,KARNATAKA
521816,Telecom Lay out,Vidyanagara B.O,,,562157,Bangalore North,BANGALORE,KARNATAKA
521817,Gadenahalli,Tarahunise B.O,,,562157,Bangalore North,BANGALORE,KARNATAKA
521818,Sports School- Vidya Nagara,Vidyanagara B.O,,,562157,Bangalore North,BANGALORE,KARNATAKA
521819,Vidyanikethan School,Vidyanagara B.O,,,562157,Bangalore North,BANGALORE,KARNATAKA
521820,Akkalemalaenahalli,Doddajala B.O,,,562157,Bangalore North,BANGALORE,KARNATAKA
521821,B.Nagara,Hunasamaranahalli B.O,,,562157,Bangalore North,BANGALORE,KARNATAKA
521822,Govt High School,Vidyanagara B.O,,,562157,Bangalore North,BANGALORE,KARNATAKA
521823,Nellukunte,Bettahalsur S.O,,,562157,Bangalore North,BANGALORE,KARNATAKA
521824,Palekammanagara,Chikkajala B.O,,,562157,Bangalore North,BANGALORE,KARNATAKA
521825,Sadahalligate,Doddajala B.O,,,562157,Bangalore North,BANGALORE,KARNATAKA
521826,Sonnappanahalli,Bettahalsur S.O,,,562157,Bangalore North,BANGALORE,KARNATAKA
521827,Tharabanahalli,Chikkajala B.O,,,562157,Bangalore North,BANGALORE,KARNATAKA
521828,Venkateswara Colony,Vidyanagara B.O,,,562157,Bangalore North,BANGALORE,KARNATAKA
521829,Byanahalli,Chikkajala B.O,,,562157,Bangalore North,BANGALORE,KARNATAKA
521830,Navarathna Agrahara,Tarahunise B.O,,,562157,Bangalore North,BANGALORE,KARNATAKA
521831,"Sridevi P Ltd,BIll",Vidyanagara B.O,,,562157,Bangalore North,BANGALORE,KARNATAKA
521832,Yerthiganahalli,Doddajala B.O,,,562157,Devanahalli,BANGALORE RURAL,KARNATAKA
521833,Bill Lay Out,Vidyanagara B.O,,,562157,Bangalore North,BANGALORE,KARNATAKA
521834,Bilmaranahalli,Vidyanagara B.O,,,562157,Bangalore North,BANGALORE,KARNATAKA
521835,Meenakunte,Doddajala B.O,,,562157,Bangalore North,BANGALORE,KARNATAKA
521836,Nellukunte,Hunasamaranahalli B.O,,,562157,Bangalore North,BANGALORE,KARNATAKA
521837,Venkateswara Central School,Vidyanagara B.O,,,562157,Bangalore North,BANGALORE,KARNATAKA
521838,Huttanahalli,Chikkajala B.O,,,562157,Bangalore North,BANGALORE,KARNATAKA
521839,Kodigehalli,Hunasamaranahalli B.O,,,562157,Bangalore North,BANGALORE,KARNATAKA
521840,Maranayakana Halli,Chikkajala B.O,,,562157,Bangalore North,BANGALORE,KARNATAKA
521841,MVIT COLLEGE,Hunasamaranahalli B.O,,,562157,Bangalore North,BANGALORE,KARNATAKA
521842,Bettahalasur,Bettahalsur S.O,,,562157,Bangalore North,BANGALORE,KARNATAKA
521843,Govt Primary School,Vidyanagara B.O,,,562157,Bangalore North,BANGALORE,KARNATAKA
521844,Kuduragere,Tarahunise B.O,,,562157,Bangalore North,BANGALORE,KARNATAKA
521845,Papanahalli,Tarahunise B.O,,,562157,Bangalore North,BANGALORE,KARNATAKA
521846,PG Hostel,Vidyanagara B.O,,,562157,Bangalore North,BANGALORE,KARNATAKA
521847,Settigere,Doddajala B.O,,,562157,Bangalore North,BANGALORE,KARNATAKA
521848,Suggatta,Hunasamaranahalli B.O,,,562157,Bangalore North,BANGALORE,KARNATAKA
521849,Veerendra(P) Ltd Bill,Vidyanagara B.O,,,562157,Bangalore North,BANGALORE,KARNATAKA
521870,Avverahalli,Averahalli B.O,,,562159,Bangalore North,BANGALORE,KARNATAKA
522002,K.G. Lakkenahalli,Lakshmipura B.O,,,562162,Bangalore North,BANGALORE,KARNATAKA
522003,Madanaiyakanahalli,Madanayakanahalli S.O,,,562162,Bangalore North,BANGALORE,KARNATAKA
522004,Alur,Aluru B.O,,,562162,Bangalore North,BANGALORE,KARNATAKA
522005,Bylakonenahalli,Lakshmipura B.O,,,562162,Bangalore North,BANGALORE,KARNATAKA
522006,Hanumantha Sagara,Madavara B.O,,,562162,Bangalore North,BANGALORE,KARNATAKA
522007,Hullegowdanahalli,Hullegowdanahalli B.O,,,562162,Bangalore North,BANGALORE,KARNATAKA
522008,Venkatapura,Hullegowdanahalli B.O,,,562162,Nelamangala,BANGALORE RURAL,KARNATAKA
522009,Dasanapura,Dasanapura B.O,,,562162,Bangalore North,BANGALORE,KARNATAKA
522010,Huchana Palya,Huskur B.O,,,562162,Bangalore North,BANGALORE,KARNATAKA
522011,Kachohalli,Lakshmipura B.O,,,562162,Bangalore North,BANGALORE,KARNATAKA
522012,Kadaranahalli,Lakshmipura B.O,,,562162,Bangalore North,BANGALORE,KARNATAKA
522013,Mariyanapalya,Mathahalli B.O,,,562162,Bangalore North,BANGALORE,KARNATAKA
522014,Mathahalli,Mathahalli B.O,,,562162,Bangalore North,BANGALORE,KARNATAKA
522015,Siddanahosahalli,Madavara B.O,,,562162,Bangalore North,BANGALORE,KARNATAKA
522016,Bommasettihalli,Huskur B.O,,,562162,Bangalore North,BANGALORE,KARNATAKA
522017,Dombarahalli,Lakshmipura B.O,,,562162,Bangalore North,BANGALORE,KARNATAKA
522018,Harokyathanahalli,Makali B.O,,,562162,Bangalore North,BANGALORE,KARNATAKA
522019,Bethanagere,Huskur B.O,,,562162,Bangalore North,BANGALORE,KARNATAKA
522020,Govindapura,Mathahalli B.O,,,562162,Bangalore North,BANGALORE,KARNATAKA
522021,Hanumantha Sagara,Madanayakanahalli S.O,,,562162,Bangalore North,BANGALORE,KARNATAKA
522022,Heggadadevanapura,Aluru B.O,,,562162,Bangalore North,BANGALORE,KARNATAKA
522023,Hosahalli Palya,Mathahalli B.O,,,562162,Bangalore North,BANGALORE,KARNATAKA
522024,Kammasandra,Lakshmipura B.O,,,562162,Bangalore North,BANGALORE,KARNATAKA
522025,Makali,Makali B.O,,,562162,Dod Ballapur,BANGALORE RURAL,KARNATAKA
522026,Mallapura,Hullegowdanahalli B.O,,,562162,Nelamangala,BANGALORE RURAL,KARNATAKA
522027,Muniyanapalya,Mathahalli B.O,,,562162,Bangalore North,BANGALORE,KARNATAKA
522028,Adakamaranahalli,Makali B.O,,,562162,Bangalore North,BANGALORE,KARNATAKA
522029,Agrahara Palya,Mathahalli B.O,,,562162,Bangalore North,BANGALORE,KARNATAKA
522030,Gejjagadahalli,Shivanapura B.O,,,562162,Bangalore North,BANGALORE,KARNATAKA
522031,Gowdahalli,Shivanapura B.O,,,562162,Bangalore North,BANGALORE,KARNATAKA
522032,Huskur,Huskur B.O,,,562162,Bangalore North,BANGALORE,KARNATAKA
522033,Kenganahalli,Hullegowdanahalli B.O,,,562162,Bangalore North,BANGALORE,KARNATAKA
522034,Makali,Makali B.O,,,562162,Bangalore North,BANGALORE,KARNATAKA
522035,Narasipura,Mathahalli B.O,,,562162,Nelamangala,BANGALORE RURAL,KARNATAKA
522036,Shivanapura,Shivanapura B.O,,,562162,Bangalore North,BANGALORE,KARNATAKA
522037,Torenagasandra,Mathahalli B.O,,,562162,Bangalore North,BANGALORE,KARNATAKA
522038,Kuduragere,Aluru B.O,,,562162,Bangalore North,BANGALORE,KARNATAKA
522039,Lakshmipura,Lakshmipura B.O,,,562162,Bangalore North,BANGALORE,KARNATAKA
522040,Madanaiyakanahalli,Madavara B.O,,,562162,Bangalore North,BANGALORE,KARNATAKA
522041,Madavara,Madavara B.O,,,562162,Bangalore North,BANGALORE,KARNATAKA
522042,Rampalya,Huskur B.O,,,562162,Bangalore North,BANGALORE,KARNATAKA
522043,Vaderahalli,Mathahalli B.O,,,562162,Bangalore North,BANGALORE,KARNATAKA
522044,Gangondanahalli,Lakshmipura B.O,,,562162,Bangalore North,BANGALORE,KARNATAKA
522045,Honnasandra,Mathahalli B.O,,,562162,Nelamangala,BANGALORE RURAL,KARNATAKA
522046,K.G.Srikantapura,Lakshmipura B.O,,,562162,Bangalore North,BANGALORE,KARNATAKA
522047,Kenganahalli,Shivanapura B.O,,,562162,Bangalore North,BANGALORE,KARNATAKA
522048,Syadamipalya,Huskur B.O,,,562162,Bangalore North,BANGALORE,KARNATAKA
522049,Budumanahalli,Arakere B.O,,,562163,Bangalore North,BANGALORE,KARNATAKA
522050,Challahalli,Doddatumkur B.O,,,562163,Bangalore North,BANGALORE,KARNATAKA
522051,Konaghatta,Konnagatta B.O,,,562163,Dod Ballapur,BANGALORE RURAL,KARNATAKA
522052,Majarahosahalli,Veerapura B.O,,,562163,Dod Ballapur,BANGALORE RURAL,KARNATAKA
522053,Shivapura,Shivapura B.O,,,562163,Dod Ballapur,BANGALORE RURAL,KARNATAKA
522054,Sonnappanahalli,Shivapura B.O,,,562163,Dod Ballapur,BANGALORE RURAL,KARNATAKA
522055,Adde Vishwanathapura,Arakere B.O,,,562163,Bangalore North,BANGALORE,KARNATAKA
522056,Adinarayana Hosahalli,Konnagatta B.O,,,562163,Dod Ballapur,BANGALORE RURAL,KARNATAKA
522057,Jinkebachchahalli,Doddatumkur B.O,,,562163,Dod Ballapur,BANGALORE RURAL,KARNATAKA
522058,K.G.Lingenahalli,Konnagatta B.O,,,562163,Dod Ballapur,BANGALORE RURAL,KARNATAKA
522059,Linganahalli,Konnagatta B.O,,,562163,Dod Ballapur,BANGALORE RURAL,KARNATAKA
522060,Pindakuru Thimmanahalli,Shivapura B.O,,,562163,Dod Ballapur,BANGALORE RURAL,KARNATAKA
522061,Haniyur,Doddatumkur B.O,,,562163,Hosakote,BANGALORE RURAL,KARNATAKA
522062,Kasuvanahalli,Veerapura B.O,,,562163,Dod Ballapur,BANGALORE RURAL,KARNATAKA
522063,Marasandra,Doddatumkur B.O,,,562163,Dod Ballapur,BANGALORE RURAL,KARNATAKA
522064,Hosahudya,Doddatumkur B.O,,,562163,Dod Ballapur,BANGALORE RURAL,KARNATAKA
522065,Kakkehalli,Doddatumkur B.O,,,562163,Bangalore North,BANGALORE,KARNATAKA
522066,Obadenahalli,NAGADENAHALLI,,,562163,Dod Ballapur,BANGALORE RURAL,KARNATAKA
522067,Shanubhoganahalli,Arakere B.O,,,562163,Bangalore North,BANGALORE,KARNATAKA
522068,Varadanahalli,Veerapura B.O,,,562163,Dod Ballapur,BANGALORE RURAL,KARNATAKA
522069,Arakere,Arakere B.O,,,562163,Bangalore North,BANGALORE,KARNATAKA
522070,Basettihalli,Basettihalli B.O,,,562163,Dod Ballapur,BANGALORE RURAL,KARNATAKA
522071,Byrapura,Arakere B.O,,,562163,Dod Ballapur,BANGALORE RURAL,KARNATAKA
522072,Chikka Tumkur,Veerapura B.O,,,562163,Dod Ballapur,BANGALORE RURAL,KARNATAKA
522073,Chokkanahalli,Arakere B.O,,,562163,Bangalore North,BANGALORE,KARNATAKA
522074,Haniyur,Doddatumkur B.O,,,562163,Bangalore North,BANGALORE,KARNATAKA
522075,Ragunathapura,NAGADENAHALLI,,,562163,Dod Ballapur,BANGALORE RURAL,KARNATAKA
522076,Shivapura Amanikere,Shivapura B.O,,,562163,Dod Ballapur,BANGALORE RURAL,KARNATAKA
522077,Veerapura,Veerapura B.O,,,562163,Hosakote,BANGALORE RURAL,KARNATAKA
522078,Arehalli Guddadahalli,Basettihalli B.O,,,562163,Dod Ballapur,BANGALORE RURAL,KARNATAKA
522079,Gowdahalli,Doddatumkur B.O,,,562163,Dod Ballapur,BANGALORE RURAL,KARNATAKA
522080,Karim Sonnenahalli,Doddatumkur B.O,,,562163,Dod Ballapur,BANGALORE RURAL,KARNATAKA
522081,Nagadenahalli,Konnagatta B.O,,,562163,Dod Ballapur,BANGALORE RURAL,KARNATAKA
522082,Obadenahalli,Shivapura B.O,,,562163,Dod Ballapur,BANGALORE RURAL,KARNATAKA
522083,Sreeramanahalli,Arakere B.O,,,562163,Bangalore North,BANGALORE,KARNATAKA
522084,Yellupura,Veerapura B.O,,,562163,Dod Ballapur,BANGALORE RURAL,KARNATAKA
522085,Kadathanamale,Arakere B.O,,,562163,Bangalore North,BANGALORE,KARNATAKA
522086,Nagadenahalli,NAGADENAHALLI,,,562163,Dod Ballapur,BANGALORE RURAL,KARNATAKA
522087,Thippapura,Veerapura B.O,,,562163,Dod Ballapur,BANGALORE RURAL,KARNATAKA
522088,Adinarayana Hosahalli,NAGADENAHALLI,,,562163,Dod Ballapur,BANGALORE RURAL,KARNATAKA
522089,Bisuvanahalli,Veerapura B.O,,,562163,Dod Ballapur,BANGALORE RURAL,KARNATAKA
522090,Byrapura,Arakere B.O,,,562163,Bangalore North,BANGALORE,KARNATAKA
522091,Chokkanahalli,Arakere B.O,,,562163,Dod Ballapur,BANGALORE RURAL,KARNATAKA
522092,Dodda Tumkur,Doddatumkur B.O,,,562163,Dod Ballapur,BANGALORE RURAL,KARNATAKA
522093,Kolipura,Veerapura B.O,,,562163,Dod Ballapur,BANGALORE RURAL,KARNATAKA
522094,Muthasandra,Shivapura B.O,,,562163,Dod Ballapur,BANGALORE RURAL,KARNATAKA
522095,Ragunathapura,Shivapura B.O,,,562163,Dod Ballapur,BANGALORE RURAL,KARNATAKA
522096,Shivapura,Shivapura B.O,,,562163,Hosakote,BANGALORE RURAL,KARNATAKA
522097,Sriramanahalli,Arakere B.O,,,562163,Dod Ballapur,BANGALORE RURAL,KARNATAKA
522098,Veerapura,Veerapura B.O,,,562163,Dod Ballapur,BANGALORE RURAL,KARNATAKA
522099,Bijjawara,Bijjawara B.O,,,562164,Devanahalli,BANGALORE RURAL,KARNATAKA
522100,Hurlagurki,Venkatagirikote B.O,,,562164,Devanahalli,BANGALORE RURAL,KARNATAKA
522101,Vaderahalli,Bidalur B.O,,,562164,Devanahalli,BANGALORE RURAL,KARNATAKA
522102,Karahalli,Karahalli B.O,,,562164,Devanahalli,BANGALORE RURAL,KARNATAKA
522103,Rabbanahalli,Koira B.O,,,562164,Devanahalli,BANGALORE RURAL,KARNATAKA
522104,Thatamachanahalli Amanikere,Venkatagirikote B.O,,,562164,Devanahalli,BANGALORE RURAL,KARNATAKA
522105,Thylagere,Karahalli B.O,,,562164,Devanahalli,BANGALORE RURAL,KARNATAKA
522106,Anighatta,Bidalur B.O,,,562164,Devanahalli,BANGALORE RURAL,KARNATAKA
522107,Bidalur,Bidalur B.O,,,562164,Devanahalli,BANGALORE RURAL,KARNATAKA
522108,Irigenahalli,Bijjawara B.O,,,562164,Devanahalli,BANGALORE RURAL,KARNATAKA
522109,Mayasandra,Koira B.O,,,562164,Devanahalli,BANGALORE RURAL,KARNATAKA
522110,Bingipura,Venkatagirikote B.O,,,562164,Devanahalli,BANGALORE RURAL,KARNATAKA
522111,Doddamuddenahalli,Bijjawara B.O,,,562164,Devanahalli,BANGALORE RURAL,KARNATAKA
522112,Hiriganahalli,Bijjawara B.O,,,562164,Devanahalli,BANGALORE RURAL,KARNATAKA
522113,Karahalli Amanikere,Karahalli B.O,,,562164,Devanahalli,BANGALORE RURAL,KARNATAKA
522114,Kottigethimmanahalli,Karahalli B.O,,,562164,Devanahalli,BANGALORE RURAL,KARNATAKA
522115,Ramanathapura,Koira B.O,,,562164,Devanahalli,BANGALORE RURAL,KARNATAKA
522116,Venkatagirikote,Venkatagirikote B.O,,,562164,Devanahalli,BANGALORE RURAL,KARNATAKA
522117,Chikkagollahalli,Koira B.O,,,562164,Devanahalli,BANGALORE RURAL,KARNATAKA
522118,Kempathimmanahalli,Karahalli B.O,,,562164,Devanahalli,BANGALORE RURAL,KARNATAKA
522119,Muddanayakanahalli,Bidalur B.O,,,562164,Devanahalli,BANGALORE RURAL,KARNATAKA
522120,Sonnenahalli,Karahalli B.O,,,562164,Devanahalli,BANGALORE RURAL,KARNATAKA
522121,Yambarahalli,Karahalli B.O,,,562164,Devanahalli,BANGALORE RURAL,KARNATAKA
522122,Aruvanahalli,Koira B.O,,,562164,Devanahalli,BANGALORE RURAL,KARNATAKA
522123,Devenahalli,Bidalur B.O,,,562164,Devanahalli,BANGALORE RURAL,KARNATAKA
522124,Gundlahalli,Koira B.O,,,562164,Devanahalli,BANGALORE RURAL,KARNATAKA
522125,Holerahalli,Bijjawara B.O,,,562164,Devanahalli,BANGALORE RURAL,KARNATAKA
522126,Kodagurki,Bidalur B.O,,,562164,Devanahalli,BANGALORE RURAL,KARNATAKA
522127,Mudugurki,Venkatagirikote B.O,,,562164,Devanahalli,BANGALORE RURAL,KARNATAKA
522128,Hosahalli,Bijjawara B.O,,,562164,Devanahalli,BANGALORE RURAL,KARNATAKA
522129,Hosahudya,Venkatagirikote B.O,,,562164,Devanahalli,BANGALORE RURAL,KARNATAKA
522130,Mangondanahalli,Koira B.O,,,562164,Devanahalli,BANGALORE RURAL,KARNATAKA
522131,Meesaganahalli,Karahalli B.O,,,562164,Devanahalli,BANGALORE RURAL,KARNATAKA
522132,Moodiganahalli,Karahalli B.O,,,562164,Devanahalli,BANGALORE RURAL,KARNATAKA
522133,Thimmahalli,Bijjawara B.O,,,562164,Devanahalli,BANGALORE RURAL,KARNATAKA
522134,Doddasagarahalli,Karahalli B.O,,,562164,Devanahalli,BANGALORE RURAL,KARNATAKA
522135,Koira,Koira B.O,,,562164,Devanahalli,BANGALORE RURAL,KARNATAKA
522136,Maligenahalli,Bidalur B.O,,,562164,Devanahalli,BANGALORE RURAL,KARNATAKA
522137,Savakanahalli,Bidalur B.O,,,562164,Devanahalli,BANGALORE RURAL,KARNATAKA
